{
"type": "FeatureCollection",
"name": "Bali_Nusa_Tenggara",
"crs": { "type": "name", "properties": { "name": "urn:ogc:def:crs:OGC:1.3:CRS84" } },
"features": [
{ "type": "Feature", "properties": { "name": "Bali_Nusa_Tenggara", "n_provinces": 3 }, "geometry": { "type": "MultiPolygon", "coordinates": [ [ [ [ 121.633311, -10.604181 ], [ 121.574555, -10.639825 ], [ 121.527192, -10.629571 ], [ 121.564952, -10.603692 ], [ 121.633311, -10.604181 ] ] ], [ [ [ 120.826671, -10.091241 ], [ 120.711192, -10.20672 ], [ 120.630544, -10.235935 ], [ 120.547374, -10.233331 ], [ 120.491466, -10.265883 ], [ 120.47047, -10.310317 ], [ 120.432302, -10.300063 ], [ 120.391612, -10.263116 ], [ 120.230235, -10.245212 ], [ 120.15561, -10.220961 ], [ 120.134613, -10.186782 ], [ 120.086925, -10.162856 ], [ 120.059418, -10.118585 ], [ 120.03419, -10.112074 ], [ 120.014903, -10.043227 ], [ 119.967296, -9.983575 ], [ 119.697113, -9.852634 ], [ 119.685069, -9.812758 ], [ 119.634451, -9.789646 ], [ 119.634451, -9.769138 ], [ 119.460297, -9.750095 ], [ 119.422537, -9.76214 ], [ 119.406098, -9.790134 ], [ 119.346934, -9.755466 ], [ 119.177094, -9.741388 ], [ 119.096853, -9.717543 ], [ 119.037364, -9.675877 ], [ 118.997813, -9.616795 ], [ 118.94158, -9.570489 ], [ 118.941905, -9.525567 ], [ 119.024669, -9.437677 ], [ 119.168712, -9.385512 ], [ 119.267833, -9.364435 ], [ 119.384532, -9.378106 ], [ 119.456798, -9.357599 ], [ 119.528575, -9.374933 ], [ 119.629242, -9.341892 ], [ 119.662364, -9.347914 ], [ 119.680431, -9.370782 ], [ 119.79949, -9.383722 ], [ 119.958751, -9.29046 ], [ 119.970714, -9.323012 ], [ 120.094249, -9.461196 ], [ 120.148285, -9.479669 ], [ 120.183116, -9.466892 ], [ 120.229259, -9.492283 ], [ 120.271169, -9.642511 ], [ 120.346934, -9.670505 ], [ 120.364757, -9.645278 ], [ 120.458507, -9.632501 ], [ 120.492361, -9.657647 ], [ 120.508556, -9.696954 ], [ 120.580333, -9.734959 ], [ 120.669688, -9.885186 ], [ 120.812266, -9.983575 ], [ 120.839854, -10.051365 ], [ 120.826671, -10.091241 ] ] ], [ [ [ 115.57309, -8.67197 ], [ 115.624204, -8.768909 ], [ 115.588878, -8.807306 ], [ 115.468272, -8.731866 ], [ 115.517589, -8.67018 ], [ 115.550141, -8.666192 ], [ 115.57309, -8.67197 ] ] ], [ [ [ 119.791515, -8.6242 ], [ 119.750499, -8.685968 ], [ 119.702647, -8.706476 ], [ 119.722992, -8.761814 ], [ 119.698253, -8.801528 ], [ 119.655528, -8.76686 ], [ 119.624848, -8.780532 ], [ 119.606293, -8.76865 ], [ 119.634451, -8.726983 ], [ 119.626801, -8.713962 ], [ 119.660411, -8.685479 ], [ 119.641287, -8.679132 ], [ 119.634451, -8.596612 ], [ 119.695486, -8.667087 ], [ 119.722992, -8.621189 ], [ 119.791515, -8.6242 ] ] ], [ [ [ 119.203624, -8.610935 ], [ 119.174978, -8.645115 ], [ 119.181814, -8.720798 ], [ 119.138438, -8.745782 ], [ 119.120372, -8.73447 ], [ 119.110037, -8.753595 ], [ 119.077891, -8.739353 ], [ 118.971853, -8.751153 ], [ 118.898448, -8.688409 ], [ 118.857107, -8.721775 ], [ 118.765147, -8.71087 ], [ 118.701996, -8.748142 ], [ 118.736176, -8.774672 ], [ 118.926931, -8.796563 ], [ 118.949718, -8.833673 ], [ 118.932465, -8.846449 ], [ 118.845958, -8.836847 ], [ 118.829275, -8.850518 ], [ 118.757335, -8.802016 ], [ 118.714041, -8.799981 ], [ 118.465017, -8.865004 ], [ 118.414236, -8.853611 ], [ 118.38738, -8.795831 ], [ 118.438731, -8.690037 ], [ 118.414724, -8.58294 ], [ 118.400401, -8.596124 ], [ 118.393565, -8.674574 ], [ 118.339041, -8.692153 ], [ 118.294932, -8.765232 ], [ 118.157725, -8.867852 ], [ 118.078868, -8.844334 ], [ 118.024181, -8.850518 ], [ 117.998383, -8.880955 ], [ 117.890473, -8.936782 ], [ 117.8567, -8.933038 ], [ 117.839366, -8.905694 ], [ 117.787934, -8.932794 ], [ 117.725108, -8.912042 ], [ 117.558116, -9.001886 ], [ 117.388868, -9.053739 ], [ 117.334132, -9.059354 ], [ 117.192406, -9.023727 ], [ 117.126801, -9.091241 ], [ 117.0713, -9.101739 ], [ 117.009736, -9.107293 ], [ 116.949229, -9.060154 ], [ 116.906423, -9.063409 ], [ 116.806163, -9.03631 ], [ 116.763031, -9.015558 ], [ 116.728452, -8.963096 ], [ 116.747907, -8.922928 ], [ 116.73518, -8.873397 ], [ 116.776909, -8.826347 ], [ 116.817149, -8.818129 ], [ 116.824474, -8.799005 ], [ 116.790701, -8.745375 ], [ 116.764075, -8.738189 ], [ 116.772267, -8.680257 ], [ 116.748517, -8.666544 ], [ 116.790091, -8.583704 ], [ 116.832042, -8.574802 ], [ 116.838145, -8.507908 ], [ 116.879649, -8.528253 ], [ 116.984548, -8.495782 ], [ 117.12615, -8.40545 ], [ 117.117686, -8.383477 ], [ 117.195079, -8.357599 ], [ 117.215587, -8.384942 ], [ 117.273774, -8.395196 ], [ 117.43393, -8.481134 ], [ 117.442719, -8.41074 ], [ 117.519705, -8.418715 ], [ 117.558116, -8.40545 ], [ 117.592296, -8.514744 ], [ 117.599946, -8.446059 ], [ 117.623302, -8.438409 ], [ 117.639659, -8.540623 ], [ 117.698741, -8.576755 ], [ 117.743826, -8.569268 ], [ 117.736339, -8.58294 ], [ 117.763682, -8.59531 ], [ 117.764659, -8.62127 ], [ 117.791515, -8.638116 ], [ 117.757335, -8.645115 ], [ 117.805186, -8.719985 ], [ 117.893891, -8.700291 ], [ 117.90447, -8.726983 ], [ 117.969005, -8.748142 ], [ 118.068126, -8.655938 ], [ 118.157725, -8.645115 ], [ 118.246104, -8.657159 ], [ 118.281749, -8.641534 ], [ 118.282888, -8.587986 ], [ 118.233165, -8.548517 ], [ 118.209239, -8.576755 ], [ 118.133556, -8.486749 ], [ 118.117198, -8.496515 ], [ 118.057465, -8.450616 ], [ 118.003184, -8.473728 ], [ 117.970225, -8.461358 ], [ 117.82252, -8.354181 ], [ 117.71225, -8.240899 ], [ 117.711111, -8.203871 ], [ 117.740977, -8.147882 ], [ 117.917817, -8.08587 ], [ 117.958751, -8.083266 ], [ 117.97755, -8.109145 ], [ 118.115245, -8.113865 ], [ 118.149669, -8.134454 ], [ 118.177257, -8.23268 ], [ 118.253591, -8.340265 ], [ 118.270681, -8.337172 ], [ 118.312266, -8.37127 ], [ 118.365245, -8.344659 ], [ 118.46339, -8.249444 ], [ 118.503429, -8.247735 ], [ 118.529552, -8.26629 ], [ 118.647472, -8.288751 ], [ 118.695811, -8.37127 ], [ 118.656505, -8.526462 ], [ 118.667328, -8.547296 ], [ 118.726899, -8.451837 ], [ 118.71697, -8.379571 ], [ 118.753917, -8.32643 ], [ 118.859223, -8.288832 ], [ 118.972504, -8.302016 ], [ 118.998302, -8.321222 ], [ 119.021658, -8.419529 ], [ 119.051117, -8.470473 ], [ 119.030528, -8.547784 ], [ 119.041515, -8.629815 ], [ 119.075694, -8.651951 ], [ 119.130138, -8.633396 ], [ 119.133962, -8.599379 ], [ 119.154552, -8.594415 ], [ 119.167328, -8.559747 ], [ 119.203624, -8.610935 ] ] ], [ [ [ 119.587169, -8.562433 ], [ 119.572602, -8.565606 ], [ 119.569835, -8.590427 ], [ 119.525157, -8.590427 ], [ 119.506684, -8.565851 ], [ 119.456798, -8.596612 ], [ 119.470714, -8.615411 ], [ 119.490977, -8.610935 ], [ 119.473155, -8.647231 ], [ 119.448253, -8.653578 ], [ 119.442556, -8.679132 ], [ 119.4699, -8.740655 ], [ 119.373709, -8.73447 ], [ 119.40211, -8.667576 ], [ 119.398448, -8.634373 ], [ 119.381114, -8.628025 ], [ 119.379649, -8.565851 ], [ 119.415294, -8.556329 ], [ 119.42213, -8.535252 ], [ 119.415294, -8.443292 ], [ 119.456798, -8.425958 ], [ 119.480317, -8.486749 ], [ 119.560232, -8.48797 ], [ 119.574718, -8.507013 ], [ 119.561778, -8.532159 ], [ 119.587169, -8.562433 ] ] ], [ [ [ 116.735118, -8.408868 ], [ 116.685232, -8.480564 ], [ 116.681, -8.556329 ], [ 116.627778, -8.614841 ], [ 116.555305, -8.744972 ], [ 116.500438, -8.802688 ], [ 116.509125, -8.858005 ], [ 116.540797, -8.836038 ], [ 116.588878, -8.863214 ], [ 116.565369, -8.895583 ], [ 116.509177, -8.896829 ], [ 116.475597, -8.920017 ], [ 116.446611, -8.92008 ], [ 116.432789, -8.910705 ], [ 116.47188, -8.839399 ], [ 116.423116, -8.836406 ], [ 116.3977, -8.855322 ], [ 116.403087, -8.954197 ], [ 116.379568, -8.911879 ], [ 116.35141, -8.926202 ], [ 116.327891, -8.898858 ], [ 116.204763, -8.920017 ], [ 116.167247, -8.878513 ], [ 116.105724, -8.874688 ], [ 116.077159, -8.894627 ], [ 116.06422, -8.883966 ], [ 116.083751, -8.865004 ], [ 116.068614, -8.855727 ], [ 116.040294, -8.864679 ], [ 116.040294, -8.902276 ], [ 116.019298, -8.908136 ], [ 115.969249, -8.849379 ], [ 115.928233, -8.854913 ], [ 115.839262, -8.816857 ], [ 115.830696, -8.769812 ], [ 115.848592, -8.724793 ], [ 115.879405, -8.724786 ], [ 115.892263, -8.754815 ], [ 115.954449, -8.75372 ], [ 115.983026, -8.737059 ], [ 116.023204, -8.748142 ], [ 116.041189, -8.734145 ], [ 116.06567, -8.759974 ], [ 116.087576, -8.737237 ], [ 116.091482, -8.726983 ], [ 116.060271, -8.713907 ], [ 116.072645, -8.577784 ], [ 116.027937, -8.445008 ], [ 116.050047, -8.414638 ], [ 116.105724, -8.40545 ], [ 116.122813, -8.374444 ], [ 116.286388, -8.236261 ], [ 116.393809, -8.201104 ], [ 116.633311, -8.275079 ], [ 116.706228, -8.317071 ], [ 116.735118, -8.35296 ], [ 116.735118, -8.408868 ] ] ], [ [ [ 123.018728, -8.33408 ], [ 122.904145, -8.363377 ], [ 122.897309, -8.460626 ], [ 122.852875, -8.454278 ], [ 122.817719, -8.426446 ], [ 122.803559, -8.437921 ], [ 122.803071, -8.477634 ], [ 122.849376, -8.552016 ], [ 122.848399, -8.583591 ], [ 122.807384, -8.610935 ], [ 122.56544, -8.669122 ], [ 122.515147, -8.712091 ], [ 122.449474, -8.734308 ], [ 122.252778, -8.749688 ], [ 122.162934, -8.726983 ], [ 122.114513, -8.732354 ], [ 122.005382, -8.802016 ], [ 121.87615, -8.83766 ], [ 121.780447, -8.887953 ], [ 121.73406, -8.879978 ], [ 121.690115, -8.850518 ], [ 121.646007, -8.905694 ], [ 121.621755, -8.836847 ], [ 121.581065, -8.817641 ], [ 121.396007, -8.794122 ], [ 121.367035, -8.81992 ], [ 121.374766, -8.883966 ], [ 121.340587, -8.918064 ], [ 121.210948, -8.892022 ], [ 121.165294, -8.895115 ], [ 121.066905, -8.940525 ], [ 120.994884, -8.940525 ], [ 120.906505, -8.913832 ], [ 120.833181, -8.81699 ], [ 120.792491, -8.823175 ], [ 120.747813, -8.871026 ], [ 120.68336, -8.844334 ], [ 120.641612, -8.844334 ], [ 120.577891, -8.790216 ], [ 120.381602, -8.795831 ], [ 120.323009, -8.830662 ], [ 120.279063, -8.82936 ], [ 120.243907, -8.823175 ], [ 120.165294, -8.76865 ], [ 119.975759, -8.813897 ], [ 119.935883, -8.836847 ], [ 119.942719, -8.858005 ], [ 119.9074, -8.871677 ], [ 119.891856, -8.806736 ], [ 119.839692, -8.792901 ], [ 119.805675, -8.740655 ], [ 119.807791, -8.570001 ], [ 119.871104, -8.494073 ], [ 119.867198, -8.412856 ], [ 119.919444, -8.461196 ], [ 119.97047, -8.437595 ], [ 119.990571, -8.447035 ], [ 120.02475, -8.384942 ], [ 120.094249, -8.398614 ], [ 120.120942, -8.350763 ], [ 120.148936, -8.37127 ], [ 120.212901, -8.292739 ], [ 120.277029, -8.26922 ], [ 120.37794, -8.275079 ], [ 120.422048, -8.227309 ], [ 120.457367, -8.275079 ], [ 120.483409, -8.278741 ], [ 120.521739, -8.255466 ], [ 120.593923, -8.281915 ], [ 120.593923, -8.233494 ], [ 120.74464, -8.329767 ], [ 120.812511, -8.320977 ], [ 120.90919, -8.343357 ], [ 120.976085, -8.337498 ], [ 121.053233, -8.40545 ], [ 121.279145, -8.467462 ], [ 121.380544, -8.572198 ], [ 121.408865, -8.58294 ], [ 121.470958, -8.569268 ], [ 121.50172, -8.601821 ], [ 121.574555, -8.565851 ], [ 121.574474, -8.537856 ], [ 121.608165, -8.542087 ], [ 121.602712, -8.496352 ], [ 121.625499, -8.467462 ], [ 121.680431, -8.511326 ], [ 121.772716, -8.486749 ], [ 121.806814, -8.494806 ], [ 121.834727, -8.473728 ], [ 121.892751, -8.492852 ], [ 122.019054, -8.425958 ], [ 122.041189, -8.449151 ], [ 122.022146, -8.479262 ], [ 122.039561, -8.514744 ], [ 122.081065, -8.514744 ], [ 122.141124, -8.541681 ], [ 122.258067, -8.63128 ], [ 122.477387, -8.594985 ], [ 122.514659, -8.552667 ], [ 122.512462, -8.528253 ], [ 122.481212, -8.506117 ], [ 122.494151, -8.47503 ], [ 122.54656, -8.45322 ], [ 122.614024, -8.386407 ], [ 122.688243, -8.384698 ], [ 122.758149, -8.361017 ], [ 122.82016, -8.305434 ], [ 122.88087, -8.28574 ], [ 122.944102, -8.215427 ], [ 122.94044, -8.193129 ], [ 122.87615, -8.185724 ], [ 122.790294, -8.230401 ], [ 122.741384, -8.230239 ], [ 122.78419, -8.123956 ], [ 122.862559, -8.069757 ], [ 122.979666, -8.146905 ], [ 122.977875, -8.196384 ], [ 123.026378, -8.288751 ], [ 123.018728, -8.33408 ] ] ], [ [ [ 115.700938, -8.419122 ], [ 115.604828, -8.501072 ], [ 115.533702, -8.506524 ], [ 115.49879, -8.548435 ], [ 115.322602, -8.623793 ], [ 115.253917, -8.714614 ], [ 115.212413, -8.728448 ], [ 115.203136, -8.747003 ], [ 115.220551, -8.788995 ], [ 115.214366, -8.761814 ], [ 115.232432, -8.754002 ], [ 115.229015, -8.830255 ], [ 115.180919, -8.850518 ], [ 115.113455, -8.845392 ], [ 115.094249, -8.818455 ], [ 115.15919, -8.782159 ], [ 115.181895, -8.746352 ], [ 115.18629, -8.722345 ], [ 115.156098, -8.662042 ], [ 114.927013, -8.467462 ], [ 114.796641, -8.40545 ], [ 114.639008, -8.398614 ], [ 114.574229, -8.362481 ], [ 114.468435, -8.21852 ], [ 114.452403, -8.095147 ], [ 114.504731, -8.090427 ], [ 114.555349, -8.133884 ], [ 114.597423, -8.11061 ], [ 114.857595, -8.193129 ], [ 115.022634, -8.172621 ], [ 115.135916, -8.072849 ], [ 115.172862, -8.055352 ], [ 115.215505, -8.059503 ], [ 115.53533, -8.194594 ], [ 115.714203, -8.375177 ], [ 115.700938, -8.419122 ] ] ], [ [ [ 117.692556, -8.183526 ], [ 117.64031, -8.224054 ], [ 117.553722, -8.379002 ], [ 117.533946, -8.384942 ], [ 117.492524, -8.361017 ], [ 117.485606, -8.343032 ], [ 117.511241, -8.295505 ], [ 117.482677, -8.250665 ], [ 117.493907, -8.176202 ], [ 117.563487, -8.145196 ], [ 117.664317, -8.148126 ], [ 117.691742, -8.164727 ], [ 117.692556, -8.183526 ] ] ], [ [ [ 119.116547, -8.23561 ], [ 119.078787, -8.26214 ], [ 119.051524, -8.261407 ], [ 119.022797, -8.234308 ], [ 119.020274, -8.189711 ], [ 119.042003, -8.148533 ], [ 119.086436, -8.131524 ], [ 119.131521, -8.166274 ], [ 119.137462, -8.190606 ], [ 119.116547, -8.23561 ] ] ], [ [ [ 123.40919, -10.679132 ], [ 123.331554, -10.682306 ], [ 123.243419, -10.737726 ], [ 123.231944, -10.789483 ], [ 123.209158, -10.813084 ], [ 122.988048, -10.865004 ], [ 122.957693, -10.888116 ], [ 122.97169, -10.906183 ], [ 122.841807, -10.921075 ], [ 122.820974, -10.893243 ], [ 122.812511, -10.778416 ], [ 122.917654, -10.737481 ], [ 123.049164, -10.711358 ], [ 123.177257, -10.618829 ], [ 123.190929, -10.577813 ], [ 123.215587, -10.574965 ], [ 123.241954, -10.528904 ], [ 123.33546, -10.49033 ], [ 123.386485, -10.433038 ], [ 123.397146, -10.463474 ], [ 123.375824, -10.495864 ], [ 123.393891, -10.50921 ], [ 123.378184, -10.561619 ], [ 123.355968, -10.581231 ], [ 123.413097, -10.604587 ], [ 123.40919, -10.679132 ] ] ], [ [ [ 122.005382, -10.46795 ], [ 121.990896, -10.52158 ], [ 121.881847, -10.598321 ], [ 121.732107, -10.597345 ], [ 121.690115, -10.564223 ], [ 121.826427, -10.493829 ], [ 121.861339, -10.440606 ], [ 121.901622, -10.420994 ], [ 121.995942, -10.441339 ], [ 122.005382, -10.46795 ] ] ], [ [ [ 123.494965, -10.198175 ], [ 123.459239, -10.214614 ], [ 123.446625, -10.239679 ], [ 123.396251, -10.227797 ], [ 123.42449, -10.299005 ], [ 123.413422, -10.332615 ], [ 123.390147, -10.330824 ], [ 123.367035, -10.301202 ], [ 123.321788, -10.338962 ], [ 123.319998, -10.267755 ], [ 123.403819, -10.157647 ], [ 123.45753, -10.139337 ], [ 123.473806, -10.162856 ], [ 123.504649, -10.171319 ], [ 123.494965, -10.198175 ] ] ], [ [ [ 124.323553, -9.48035 ], [ 124.347893, -9.37462 ], [ 124.431815, -9.290801 ], [ 124.450531, -9.18019 ], [ 124.60434, -9.156345 ], [ 124.667979, -9.113051 ], [ 124.687999, -9.069513 ], [ 124.919507, -8.962016 ], [ 124.90791, -9.037483 ], [ 124.933025, -9.074484 ], [ 124.965891, -9.077274 ], [ 125.051829, -9.035003 ], [ 125.086814, -8.98622 ], [ 125.153993, -9.040791 ], [ 125.150634, -9.185381 ], [ 125.106968, -9.188482 ], [ 125.073947, -9.211323 ], [ 125.007232, -9.186105 ], [ 124.974469, -9.191893 ], [ 124.957933, -9.211943 ], [ 124.965995, -9.293385 ], [ 125.023407, -9.345578 ], [ 125.061615, -9.485772 ], [ 125.001964, -9.53631 ], [ 124.979747, -9.649021 ], [ 124.846934, -9.748224 ], [ 124.734548, -9.899509 ], [ 124.560313, -10.015232 ], [ 124.49936, -10.111993 ], [ 124.418468, -10.163832 ], [ 124.38087, -10.170505 ], [ 124.122406, -10.17254 ], [ 124.033865, -10.276137 ], [ 123.932791, -10.294854 ], [ 123.799327, -10.374688 ], [ 123.778168, -10.358331 ], [ 123.719086, -10.371759 ], [ 123.658865, -10.349298 ], [ 123.617442, -10.366306 ], [ 123.536469, -10.331964 ], [ 123.472016, -10.364923 ], [ 123.493419, -10.301935 ], [ 123.492524, -10.245212 ], [ 123.515391, -10.213067 ], [ 123.748546, -10.097752 ], [ 123.764659, -10.074965 ], [ 123.745779, -10.050388 ], [ 123.684337, -10.024998 ], [ 123.638357, -10.029962 ], [ 123.605642, -10.054295 ], [ 123.577403, -10.034356 ], [ 123.583751, -9.944024 ], [ 123.660411, -9.87127 ], [ 123.663829, -9.827244 ], [ 123.643321, -9.78281 ], [ 123.669932, -9.740492 ], [ 123.67156, -9.65016 ], [ 123.688813, -9.611423 ], [ 123.756358, -9.567071 ], [ 123.793793, -9.517022 ], [ 123.863048, -9.48797 ], [ 123.979503, -9.358494 ], [ 124.010102, -9.343927 ], [ 124.03004, -9.341974 ], [ 124.090286, -9.421543 ], [ 124.121085, -9.426917 ], [ 124.167232, -9.380615 ], [ 124.210692, -9.378858 ], [ 124.253997, -9.438699 ], [ 124.257511, -9.501228 ], [ 124.323553, -9.48035 ] ] ], [ [ [ 123.121755, -8.486261 ], [ 123.006602, -8.507908 ], [ 122.930837, -8.604099 ], [ 122.902599, -8.604587 ], [ 122.882986, -8.58294 ], [ 122.910411, -8.514744 ], [ 122.999848, -8.448663 ], [ 123.16977, -8.431329 ], [ 123.177501, -8.460219 ], [ 123.121755, -8.486261 ] ] ], [ [ [ 122.40919, -8.486749 ], [ 122.376801, -8.501723 ], [ 122.343923, -8.448419 ], [ 122.36085, -8.432875 ], [ 122.410167, -8.443943 ], [ 122.420746, -8.460138 ], [ 122.40919, -8.486749 ] ] ], [ [ [ 123.937511, -8.265232 ], [ 123.789887, -8.293634 ], [ 123.687511, -8.436212 ], [ 123.656993, -8.40545 ], [ 123.572113, -8.471612 ], [ 123.609223, -8.535252 ], [ 123.583018, -8.565525 ], [ 123.543468, -8.569268 ], [ 123.500011, -8.52158 ], [ 123.455089, -8.569268 ], [ 123.406749, -8.589451 ], [ 123.324392, -8.534601 ], [ 123.283376, -8.556329 ], [ 123.23878, -8.548923 ], [ 123.227306, -8.526056 ], [ 123.357595, -8.41131 ], [ 123.485688, -8.350763 ], [ 123.473318, -8.320977 ], [ 123.36964, -8.316664 ], [ 123.380056, -8.288263 ], [ 123.414236, -8.267185 ], [ 123.456798, -8.279067 ], [ 123.516124, -8.240899 ], [ 123.567638, -8.247735 ], [ 123.560802, -8.281915 ], [ 123.5171, -8.337498 ], [ 123.528494, -8.364028 ], [ 123.56837, -8.374933 ], [ 123.604666, -8.36419 ], [ 123.609223, -8.343357 ], [ 123.582286, -8.306085 ], [ 123.601817, -8.295587 ], [ 123.62794, -8.307306 ], [ 123.639171, -8.294122 ], [ 123.625336, -8.244887 ], [ 123.649669, -8.219985 ], [ 123.670665, -8.247735 ], [ 123.701345, -8.251235 ], [ 123.704845, -8.227309 ], [ 123.804454, -8.178888 ], [ 123.848806, -8.213637 ], [ 123.938813, -8.232192 ], [ 123.937511, -8.265232 ] ] ], [ [ [ 124.299978, -8.319268 ], [ 124.218761, -8.401544 ], [ 124.178722, -8.511326 ], [ 124.129893, -8.548272 ], [ 124.059337, -8.551528 ], [ 124.050629, -8.48211 ], [ 124.018809, -8.429946 ], [ 123.931163, -8.460056 ], [ 123.907237, -8.454848 ], [ 123.985118, -8.338311 ], [ 124.0442, -8.304864 ], [ 124.073741, -8.320977 ], [ 124.109386, -8.384942 ], [ 124.110362, -8.363702 ], [ 124.270274, -8.178888 ], [ 124.308116, -8.220473 ], [ 124.291026, -8.280532 ], [ 124.299978, -8.319268 ] ] ], [ [ [ 123.350271, -8.280043 ], [ 123.321137, -8.384942 ], [ 123.289317, -8.404474 ], [ 123.163585, -8.391778 ], [ 123.041026, -8.410821 ], [ 123.019542, -8.391778 ], [ 123.036469, -8.332289 ], [ 123.156505, -8.243585 ], [ 123.237315, -8.234063 ], [ 123.314301, -8.261407 ], [ 123.330821, -8.254653 ], [ 123.350271, -8.280043 ] ] ], [ [ [ 121.708995, -8.35475 ], [ 121.676117, -8.309259 ], [ 121.710297, -8.288751 ], [ 121.73406, -8.293145 ], [ 121.744395, -8.334405 ], [ 121.708995, -8.35475 ] ] ], [ [ [ 125.099783, -8.357599 ], [ 124.766124, -8.408461 ], [ 124.661632, -8.403416 ], [ 124.544607, -8.447035 ], [ 124.495453, -8.430352 ], [ 124.427908, -8.467462 ], [ 124.396821, -8.447035 ], [ 124.357107, -8.456313 ], [ 124.333507, -8.413018 ], [ 124.386078, -8.358331 ], [ 124.410492, -8.306085 ], [ 124.514171, -8.261407 ], [ 124.547618, -8.230727 ], [ 124.537771, -8.220473 ], [ 124.421235, -8.267511 ], [ 124.392426, -8.265232 ], [ 124.396821, -8.220473 ], [ 124.475271, -8.132582 ], [ 124.568696, -8.131036 ], [ 124.603038, -8.206801 ], [ 124.687999, -8.165216 ], [ 124.898285, -8.168145 ], [ 124.952322, -8.149835 ], [ 124.996755, -8.165216 ], [ 125.086925, -8.158787 ], [ 125.139171, -8.233575 ], [ 125.134288, -8.339044 ], [ 125.099783, -8.357599 ] ] ] ] } }
]
}
