{
"type": "FeatureCollection",
"name": "Jawa",
"crs": { "type": "name", "properties": { "name": "urn:ogc:def:crs:OGC:1.3:CRS84" } },
"features": [
{ "type": "Feature", "properties": { "name": "Jawa", "n_provinces": 6 }, "geometry": { "type": "MultiPolygon", "coordinates": [ [ [ [ 110.715343, -8.193129 ], [ 110.380382, -8.073175 ], [ 110.32838, -8.021173 ], [ 110.287364, -8.015069 ], [ 110.03419, -7.884698 ], [ 109.906016, -7.83766 ], [ 109.883067, -7.844822 ], [ 109.656749, -7.781671 ], [ 109.486095, -7.761814 ], [ 109.42628, -7.774184 ], [ 109.396658, -7.747491 ], [ 109.403494, -7.726332 ], [ 109.368826, -7.713474 ], [ 109.098146, -7.686861 ], [ 109.046555, -7.701853 ], [ 109.014415, -7.732599 ], [ 108.973643, -7.702244 ], [ 108.901541, -7.68963 ], [ 108.87322, -7.61061 ], [ 108.827485, -7.630792 ], [ 108.761054, -7.692765 ], [ 108.713878, -7.665704 ], [ 108.691742, -7.672296 ], [ 108.673149, -7.690753 ], [ 108.672618, -7.720636 ], [ 108.651741, -7.716271 ], [ 108.638927, -7.687921 ], [ 108.539561, -7.692315 ], [ 108.507823, -7.719496 ], [ 108.495266, -7.792923 ], [ 108.453711, -7.818501 ], [ 108.326829, -7.817471 ], [ 107.953531, -7.739873 ], [ 107.864534, -7.74513 ], [ 107.830228, -7.729167 ], [ 107.828145, -7.700494 ], [ 107.806739, -7.686676 ], [ 107.686549, -7.662075 ], [ 107.66084, -7.614208 ], [ 107.59096, -7.570434 ], [ 107.481151, -7.538194 ], [ 107.470509, -7.51691 ], [ 107.411388, -7.495864 ], [ 107.361531, -7.503713 ], [ 107.107049, -7.456406 ], [ 106.522662, -7.410957 ], [ 106.459331, -7.365995 ], [ 106.39776, -7.378465 ], [ 106.399058, -7.334824 ], [ 106.375365, -7.310194 ], [ 106.398448, -7.207778 ], [ 106.432628, -7.178888 ], [ 106.467296, -7.176446 ], [ 106.456554, -7.144789 ], [ 106.540504, -7.054612 ], [ 106.537149, -6.982962 ], [ 106.510804, -6.963799 ], [ 106.451702, -6.955059 ], [ 106.42387, -6.963221 ], [ 106.401622, -6.993097 ], [ 106.333018, -7.000746 ], [ 106.254242, -6.964288 ], [ 106.201162, -6.913679 ], [ 106.124707, -6.896279 ], [ 106.052985, -6.836806 ], [ 105.978706, -6.817712 ], [ 105.918956, -6.823989 ], [ 105.88438, -6.847673 ], [ 105.873735, -6.834708 ], [ 105.774744, -6.850227 ], [ 105.702891, -6.835707 ], [ 105.555188, -6.85568 ], [ 105.535121, -6.872327 ], [ 105.486135, -6.867516 ], [ 105.442231, -6.842543 ], [ 105.420095, -6.856866 ], [ 105.39796, -6.829522 ], [ 105.310784, -6.810354 ], [ 105.274669, -6.849379 ], [ 105.256114, -6.84238 ], [ 105.216807, -6.772068 ], [ 105.274669, -6.761651 ], [ 105.36378, -6.664972 ], [ 105.408214, -6.705987 ], [ 105.440684, -6.794122 ], [ 105.471202, -6.815851 ], [ 105.490082, -6.809015 ], [ 105.528575, -6.723321 ], [ 105.622244, -6.631606 ], [ 105.618974, -6.532505 ], [ 105.643859, -6.482333 ], [ 105.67779, -6.474924 ], [ 105.682238, -6.511535 ], [ 105.711364, -6.534563 ], [ 105.782234, -6.512107 ], [ 105.824091, -6.434646 ], [ 105.832367, -6.228692 ], [ 105.867198, -6.110121 ], [ 105.887869, -6.070571 ], [ 105.977306, -5.983494 ], [ 105.997244, -5.917739 ], [ 106.052745, -5.881036 ], [ 106.085216, -5.885512 ], [ 106.107107, -5.910903 ], [ 106.111583, -5.975193 ], [ 106.15919, -6.009535 ], [ 106.209483, -5.998305 ], [ 106.256521, -5.941583 ], [ 106.298839, -5.945001 ], [ 106.361013, -5.993422 ], [ 106.470063, -6.034356 ], [ 106.549327, -6.006524 ], [ 106.685395, -6.012465 ], [ 106.720876, -6.030938 ], [ 106.737804, -6.083917 ], [ 106.793224, -6.104099 ], [ 107.005138, -6.072361 ], [ 107.014985, -6.028985 ], [ 106.999034, -6.003513 ], [ 107.025645, -5.958673 ], [ 107.021251, -5.924086 ], [ 107.044444, -5.914321 ], [ 107.114431, -5.938165 ], [ 107.169688, -5.97975 ], [ 107.280935, -5.954767 ], [ 107.354136, -5.975995 ], [ 107.470268, -6.145432 ], [ 107.563179, -6.184247 ], [ 107.621132, -6.187474 ], [ 107.678224, -6.238023 ], [ 107.732194, -6.232548 ], [ 107.78297, -6.205743 ], [ 107.810313, -6.211196 ], [ 107.810836, -6.189347 ], [ 107.826263, -6.18513 ], [ 107.86396, -6.206398 ], [ 107.885359, -6.186922 ], [ 107.895624, -6.231025 ], [ 108.093683, -6.326847 ], [ 108.142261, -6.322615 ], [ 108.195077, -6.287061 ], [ 108.205294, -6.249816 ], [ 108.186557, -6.231193 ], [ 108.332173, -6.261647 ], [ 108.360269, -6.246401 ], [ 108.372227, -6.340353 ], [ 108.455414, -6.442071 ], [ 108.539561, -6.486912 ], [ 108.605479, -6.761651 ], [ 108.663097, -6.767348 ], [ 108.74879, -6.812188 ], [ 108.792247, -6.81113 ], [ 108.834972, -6.787856 ], [ 108.944835, -6.849379 ], [ 108.983409, -6.841729 ], [ 109.001313, -6.789158 ], [ 109.020844, -6.78867 ], [ 109.142833, -6.856215 ], [ 109.351899, -6.875665 ], [ 109.438243, -6.860121 ], [ 109.492931, -6.801528 ], [ 109.531993, -6.835138 ], [ 109.725597, -6.863051 ], [ 109.940684, -6.923435 ], [ 110.138845, -6.897149 ], [ 110.177501, -6.856215 ], [ 110.212576, -6.899998 ], [ 110.381033, -6.975681 ], [ 110.486176, -6.937921 ], [ 110.571544, -6.836196 ], [ 110.644705, -6.688165 ], [ 110.681895, -6.521905 ], [ 110.671072, -6.499933 ], [ 110.730479, -6.456964 ], [ 110.842296, -6.418064 ], [ 110.924815, -6.403741 ], [ 110.972504, -6.431736 ], [ 111.010753, -6.420994 ], [ 111.059255, -6.469903 ], [ 111.144379, -6.691827 ], [ 111.366384, -6.712009 ], [ 111.444102, -6.68906 ], [ 111.493419, -6.623468 ], [ 111.610118, -6.664972 ], [ 111.694998, -6.755141 ], [ 111.740408, -6.781671 ], [ 111.882335, -6.808689 ], [ 111.976248, -6.784845 ], [ 112.083995, -6.90602 ], [ 112.150645, -6.910089 ], [ 112.339692, -6.873142 ], [ 112.41505, -6.882501 ], [ 112.435232, -6.870538 ], [ 112.500743, -6.910821 ], [ 112.542817, -6.917576 ], [ 112.562511, -6.866795 ], [ 112.582774, -6.870538 ], [ 112.60377, -6.904555 ], [ 112.582774, -6.989923 ], [ 112.618012, -7.041192 ], [ 112.6574, -7.037856 ], [ 112.665782, -7.054864 ], [ 112.617686, -7.070571 ], [ 112.614106, -7.091241 ], [ 112.683849, -7.1749 ], [ 112.664317, -7.198826 ], [ 112.60377, -7.192641 ], [ 112.700694, -7.254653 ], [ 112.745128, -7.205173 ], [ 112.76824, -7.199395 ], [ 112.823253, -7.262628 ], [ 112.816091, -7.38714 ], [ 112.761485, -7.448907 ], [ 112.761485, -7.531183 ], [ 112.8449, -7.592869 ], [ 112.972016, -7.647638 ], [ 113.056, -7.663018 ], [ 113.13266, -7.727797 ], [ 113.199555, -7.747491 ], [ 113.241222, -7.740655 ], [ 113.28533, -7.781671 ], [ 113.32309, -7.785577 ], [ 113.413748, -7.736261 ], [ 113.528575, -7.700372 ], [ 113.658946, -7.720147 ], [ 113.722992, -7.708266 ], [ 113.785899, -7.726332 ], [ 113.854747, -7.677016 ], [ 113.945079, -7.677992 ], [ 114.016124, -7.618097 ], [ 114.045584, -7.611993 ], [ 114.140391, -7.70086 ], [ 114.195974, -7.714125 ], [ 114.258556, -7.700372 ], [ 114.325206, -7.750258 ], [ 114.388927, -7.758071 ], [ 114.445974, -7.794692 ], [ 114.467296, -7.830987 ], [ 114.44044, -7.93255 ], [ 114.446788, -8.014255 ], [ 114.358653, -8.409112 ], [ 114.37672, -8.519464 ], [ 114.401134, -8.517185 ], [ 114.40561, -8.447035 ], [ 114.423188, -8.46502 ], [ 114.426117, -8.562433 ], [ 114.445323, -8.602797 ], [ 114.589122, -8.664239 ], [ 114.625662, -8.716078 ], [ 114.624766, -8.740655 ], [ 114.597179, -8.775567 ], [ 114.555349, -8.777927 ], [ 114.467621, -8.748142 ], [ 114.366954, -8.741469 ], [ 114.391938, -8.700291 ], [ 114.385265, -8.664727 ], [ 114.302582, -8.611912 ], [ 114.261729, -8.610935 ], [ 114.197032, -8.645603 ], [ 114.174815, -8.619806 ], [ 114.104015, -8.638116 ], [ 114.059337, -8.631443 ], [ 114.031993, -8.604099 ], [ 113.979991, -8.620212 ], [ 113.964366, -8.562433 ], [ 113.922862, -8.576755 ], [ 113.837169, -8.542087 ], [ 113.823497, -8.556329 ], [ 113.806163, -8.501072 ], [ 113.723888, -8.528253 ], [ 113.707286, -8.492364 ], [ 113.672618, -8.494806 ], [ 113.640473, -8.458591 ], [ 113.573009, -8.425958 ], [ 113.527192, -8.429295 ], [ 113.466563, -8.377537 ], [ 113.413585, -8.390232 ], [ 113.32309, -8.309259 ], [ 113.240733, -8.280938 ], [ 113.026703, -8.302992 ], [ 112.90268, -8.403985 ], [ 112.833832, -8.375746 ], [ 112.817882, -8.39658 ], [ 112.78419, -8.386814 ], [ 112.672699, -8.447035 ], [ 112.520681, -8.391778 ], [ 112.442393, -8.391778 ], [ 112.376638, -8.37127 ], [ 112.384044, -8.357599 ], [ 112.341563, -8.332696 ], [ 112.244395, -8.341974 ], [ 112.208995, -8.323663 ], [ 112.02475, -8.304946 ], [ 111.970714, -8.277765 ], [ 111.91863, -8.302992 ], [ 111.874766, -8.273858 ], [ 111.792003, -8.256524 ], [ 111.771007, -8.281508 ], [ 111.770356, -8.317315 ], [ 111.750662, -8.3235 ], [ 111.735362, -8.294041 ], [ 111.717296, -8.292739 ], [ 111.694835, -8.346368 ], [ 111.711274, -8.361017 ], [ 111.695811, -8.37127 ], [ 111.654063, -8.358087 ], [ 111.630544, -8.3235 ], [ 111.612559, -8.337009 ], [ 111.561697, -8.316664 ], [ 111.517833, -8.329767 ], [ 111.448741, -8.312921 ], [ 111.442068, -8.276056 ], [ 111.425059, -8.268813 ], [ 111.300629, -8.262953 ], [ 111.276134, -8.248305 ], [ 111.161957, -8.281915 ], [ 111.148285, -8.253513 ], [ 111.114757, -8.241957 ], [ 111.103038, -8.206801 ], [ 111.066661, -8.252537 ], [ 111.017345, -8.254653 ], [ 110.931, -8.220473 ], [ 110.715343, -8.193129 ] ] ], [ [ [ 109.043142, -7.778904 ], [ 108.857432, -7.732029 ], [ 108.800141, -7.733819 ], [ 108.797048, -7.701593 ], [ 108.821544, -7.678643 ], [ 108.957774, -7.720147 ], [ 109.042735, -7.761489 ], [ 109.043142, -7.778904 ] ] ], [ [ [ 105.239919, -6.643976 ], [ 105.192149, -6.678806 ], [ 105.185069, -6.655043 ], [ 105.202159, -6.623468 ], [ 105.175466, -6.583103 ], [ 105.132091, -6.626886 ], [ 105.120128, -6.630955 ], [ 105.117686, -6.6124 ], [ 105.188487, -6.547621 ], [ 105.264171, -6.527927 ], [ 105.263845, -6.59238 ], [ 105.239919, -6.643976 ] ] ], [ [ [ 110.44988, -5.874444 ], [ 110.430349, -5.873712 ], [ 110.420665, -5.843683 ], [ 110.459239, -5.831638 ], [ 110.44988, -5.874444 ] ] ], [ [ [ 113.40919, -8.486749 ], [ 113.292491, -8.494806 ], [ 113.278005, -8.473321 ], [ 113.295909, -8.447035 ], [ 113.289073, -8.432794 ], [ 113.395193, -8.447035 ], [ 113.40919, -8.486749 ] ] ], [ [ [ 115.875743, -7.185724 ], [ 115.795909, -7.190037 ], [ 115.743012, -7.150323 ], [ 115.769867, -7.142185 ], [ 115.778168, -7.115492 ], [ 115.807953, -7.149835 ], [ 115.880219, -7.158461 ], [ 115.86671, -7.137302 ], [ 115.885997, -7.129571 ], [ 115.89088, -7.10711 ], [ 115.894298, -7.164483 ], [ 115.875743, -7.185724 ] ] ], [ [ [ 114.614594, -7.132094 ], [ 114.618826, -7.16725 ], [ 114.495372, -7.154718 ], [ 114.499197, -7.137872 ], [ 114.550059, -7.116876 ], [ 114.614594, -7.132094 ] ] ], [ [ [ 114.391856, -7.178888 ], [ 114.292822, -7.143151 ], [ 114.269762, -7.080835 ], [ 114.294826, -7.054666 ], [ 114.322255, -7.050031 ], [ 114.357751, -7.069202 ], [ 114.396855, -7.131462 ], [ 114.391856, -7.178888 ] ] ], [ [ [ 114.124801, -6.98161 ], [ 113.98113, -7.020685 ], [ 113.955568, -7.044949 ], [ 113.909979, -7.048063 ], [ 113.870655, -7.095177 ], [ 113.895356, -7.120538 ], [ 113.872813, -7.128839 ], [ 113.665212, -7.11004 ], [ 113.645327, -7.131134 ], [ 113.610052, -7.129187 ], [ 113.582767, -7.153486 ], [ 113.548984, -7.233778 ], [ 113.513425, -7.247782 ], [ 113.472471, -7.22205 ], [ 113.234386, -7.207615 ], [ 113.165538, -7.219903 ], [ 113.146332, -7.171563 ], [ 113.158702, -7.151056 ], [ 113.122325, -7.139418 ], [ 113.103363, -7.178888 ], [ 113.148692, -7.214776 ], [ 113.12794, -7.231052 ], [ 112.818126, -7.161391 ], [ 112.72641, -7.158787 ], [ 112.727306, -7.089532 ], [ 112.701345, -7.092055 ], [ 112.692638, -7.058526 ], [ 112.700938, -7.033298 ], [ 112.734141, -7.02809 ], [ 112.792654, -6.984063 ], [ 112.844005, -6.925063 ], [ 112.84197, -6.908868 ], [ 113.067393, -6.881036 ], [ 113.14602, -6.894371 ], [ 113.445582, -6.882378 ], [ 113.526228, -6.896293 ], [ 113.923676, -6.864841 ], [ 113.989919, -6.877862 ], [ 114.093536, -6.932657 ], [ 114.124801, -6.98161 ] ] ], [ [ [ 115.503184, -6.936619 ], [ 115.444102, -6.910089 ], [ 115.419119, -6.925063 ], [ 115.382335, -6.910821 ], [ 115.344737, -6.928155 ], [ 115.348155, -6.940606 ], [ 115.400645, -6.972914 ], [ 115.355317, -6.982029 ], [ 115.317393, -6.952407 ], [ 115.301036, -6.972263 ], [ 115.310557, -7.000746 ], [ 115.293305, -7.007582 ], [ 115.265636, -6.983494 ], [ 115.27589, -6.938735 ], [ 115.221446, -6.939711 ], [ 115.214366, -6.928155 ], [ 115.255382, -6.863051 ], [ 115.244314, -6.846449 ], [ 115.255056, -6.838149 ], [ 115.379242, -6.834731 ], [ 115.460785, -6.842543 ], [ 115.570649, -6.904555 ], [ 115.572276, -6.930597 ], [ 115.55714, -6.940037 ], [ 115.503184, -6.936619 ] ] ], [ [ [ 112.740408, -5.787367 ], [ 112.731456, -5.828383 ], [ 112.691091, -5.849542 ], [ 112.654796, -5.837172 ], [ 112.604259, -5.847426 ], [ 112.582774, -5.794203 ], [ 112.645356, -5.73211 ], [ 112.700694, -5.726007 ], [ 112.727061, -5.747328 ], [ 112.740408, -5.787367 ] ] ] ] } }
]
}
