{
"type": "FeatureCollection",
"name": "Kalimantan",
"crs": { "type": "name", "properties": { "name": "urn:ogc:def:crs:OGC:1.3:CRS84" } },
"features": [
{ "type": "Feature", "properties": { "name": "Kalimantan", "n_provinces": 4 }, "geometry": { "type": "MultiPolygon", "coordinates": [ [ [ [ 115.858084, -4.779962 ], [ 115.806814, -4.821873 ], [ 115.773448, -4.815118 ], [ 115.851817, -4.739028 ], [ 115.858084, -4.779962 ] ] ], [ [ [ 116.333263, -3.74977 ], [ 116.289236, -3.815606 ], [ 116.306488, -3.904474 ], [ 116.215099, -3.94378 ], [ 116.204763, -3.975274 ], [ 116.091482, -4.066827 ], [ 116.082856, -4.037774 ], [ 116.057384, -4.040704 ], [ 116.06422, -3.954522 ], [ 116.091482, -3.93434 ], [ 116.068858, -3.885512 ], [ 116.074474, -3.800877 ], [ 116.019054, -3.724867 ], [ 116.013031, -3.650486 ], [ 116.046397, -3.497491 ], [ 116.119395, -3.324151 ], [ 116.267833, -3.218845 ], [ 116.278575, -3.244724 ], [ 116.263031, -3.405532 ], [ 116.321056, -3.497735 ], [ 116.276378, -3.513604 ], [ 116.274099, -3.532892 ], [ 116.297048, -3.584731 ], [ 116.303722, -3.718032 ], [ 116.333263, -3.74977 ] ] ], [ [ [ 116.482432, -2.560317 ], [ 116.444591, -2.498305 ], [ 116.321056, -2.511977 ], [ 116.30421, -2.525649 ], [ 116.323741, -2.54754 ], [ 116.296886, -2.608168 ], [ 116.310557, -2.615004 ], [ 116.341563, -2.566583 ], [ 116.366222, -2.556736 ], [ 116.393077, -2.573989 ], [ 116.365733, -2.652602 ], [ 116.364757, -2.861423 ], [ 116.287608, -2.987074 ], [ 116.263357, -3.005466 ], [ 116.22877, -3.001642 ], [ 116.212413, -2.930352 ], [ 116.174083, -2.903009 ], [ 116.150645, -2.816339 ], [ 116.137706, -2.823419 ], [ 116.139822, -2.86891 ], [ 116.111339, -2.930271 ], [ 116.12672, -2.966078 ], [ 116.105724, -2.997979 ], [ 116.161388, -3.003513 ], [ 116.177501, -3.0499 ], [ 116.254893, -3.108657 ], [ 116.264903, -3.136895 ], [ 116.167247, -3.156345 ], [ 116.187673, -3.232029 ], [ 116.168468, -3.265802 ], [ 116.126231, -3.27988 ], [ 116.134288, -3.254327 ], [ 116.153575, -3.259373 ], [ 116.17213, -3.22617 ], [ 116.110525, -3.246189 ], [ 116.023448, -3.411798 ], [ 115.989513, -3.582696 ], [ 115.967947, -3.608819 ], [ 115.858165, -3.620212 ], [ 115.7588, -3.696954 ], [ 115.583344, -3.780532 ], [ 115.060313, -3.985772 ], [ 114.664317, -4.184177 ], [ 114.624766, -4.170505 ], [ 114.606619, -4.132257 ], [ 114.631602, -4.012872 ], [ 114.604259, -3.855157 ], [ 114.611095, -3.683852 ], [ 114.522309, -3.519301 ], [ 114.550304, -3.348077 ], [ 114.500011, -3.382745 ], [ 114.476817, -3.500665 ], [ 114.412446, -3.485284 ], [ 114.288829, -3.424493 ], [ 114.26352, -3.397556 ], [ 114.364757, -3.211521 ], [ 114.248057, -3.360284 ], [ 114.186534, -3.382257 ], [ 114.125824, -3.367852 ], [ 114.108246, -3.347345 ], [ 114.117686, -3.190362 ], [ 114.097179, -3.276056 ], [ 114.042003, -3.355564 ], [ 113.814708, -3.455255 ], [ 113.713145, -3.472589 ], [ 113.632498, -3.456801 ], [ 113.624766, -3.382257 ], [ 113.6421, -3.255955 ], [ 113.611501, -3.174249 ], [ 113.486176, -3.174737 ], [ 113.452159, -3.199395 ], [ 113.439708, -3.238458 ], [ 113.365733, -3.252862 ], [ 113.345876, -3.237888 ], [ 113.329356, -3.182794 ], [ 113.302745, -3.16253 ], [ 113.351085, -3.272393 ], [ 113.230479, -3.164321 ], [ 113.201671, -3.093032 ], [ 113.101329, -3.042576 ], [ 113.035167, -2.922947 ], [ 113.03712, -2.993097 ], [ 113.017345, -3.036798 ], [ 112.983165, -3.049737 ], [ 112.941091, -3.106378 ], [ 112.968435, -3.143976 ], [ 113.021495, -3.16253 ], [ 112.638031, -3.416762 ], [ 112.581554, -3.415948 ], [ 112.545095, -3.444268 ], [ 112.348969, -3.322849 ], [ 112.302745, -3.313897 ], [ 112.202891, -3.329522 ], [ 112.116873, -3.382257 ], [ 111.973155, -3.525567 ], [ 111.905284, -3.572035 ], [ 111.808767, -3.532973 ], [ 111.842947, -3.384454 ], [ 111.814952, -3.190362 ], [ 111.83253, -3.061619 ], [ 111.760265, -2.907647 ], [ 111.75408, -2.823907 ], [ 111.733572, -2.803399 ], [ 111.75408, -2.738539 ], [ 111.710785, -2.774591 ], [ 111.713145, -2.848403 ], [ 111.672537, -2.894627 ], [ 111.703461, -2.943617 ], [ 111.569835, -3.01572 ], [ 111.534353, -3.01214 ], [ 111.514415, -2.9638 ], [ 111.485688, -2.941502 ], [ 111.363048, -2.922947 ], [ 111.296153, -2.936456 ], [ 110.986176, -3.087498 ], [ 110.906505, -3.083266 ], [ 110.823741, -3.037205 ], [ 110.754242, -3.026056 ], [ 110.804373, -2.95908 ], [ 110.965831, -2.899591 ], [ 110.956065, -2.879002 ], [ 110.793956, -2.943536 ], [ 110.697927, -3.062677 ], [ 110.662446, -3.080743 ], [ 110.630626, -3.053318 ], [ 110.642589, -3.018731 ], [ 110.616954, -2.909845 ], [ 110.588552, -2.87656 ], [ 110.54949, -2.867608 ], [ 110.404063, -2.920505 ], [ 110.301036, -2.997979 ], [ 110.263194, -3.002862 ], [ 110.204845, -2.896173 ], [ 110.247081, -2.815118 ], [ 110.211681, -2.652602 ], [ 110.156993, -2.62127 ], [ 110.199229, -2.552341 ], [ 110.264903, -2.556573 ], [ 110.280528, -2.518243 ], [ 110.246837, -2.539809 ], [ 110.221039, -2.53281 ], [ 110.159923, -2.436456 ], [ 110.14088, -2.289727 ], [ 110.097179, -2.235772 ], [ 110.129161, -2.069513 ], [ 110.09254, -1.94964 ], [ 110.075043, -1.922459 ], [ 109.953624, -1.874282 ], [ 109.903819, -1.826104 ], [ 109.924327, -1.813165 ], [ 109.910655, -1.778985 ], [ 109.993907, -1.730239 ], [ 110.033946, -1.646173 ], [ 110.071056, -1.389907 ], [ 110.044119, -1.304783 ], [ 110.029552, -1.285903 ], [ 109.964203, -1.26572 ], [ 109.951508, -1.23089 ], [ 109.929861, -1.22324 ], [ 109.934581, -1.112563 ], [ 109.83546, -1.086196 ], [ 109.740489, -0.967543 ], [ 109.734874, -0.917657 ], [ 109.76352, -0.870864 ], [ 109.724376, -0.888767 ], [ 109.714122, -0.947361 ], [ 109.677257, -0.983819 ], [ 109.629893, -0.951918 ], [ 109.605235, -0.956638 ], [ 109.581716, -0.894464 ], [ 109.525645, -0.8624 ], [ 109.427989, -0.846612 ], [ 109.413829, -0.860121 ], [ 109.418956, -0.903578 ], [ 109.390798, -0.911879 ], [ 109.273204, -0.853611 ], [ 109.245291, -0.695896 ], [ 109.262543, -0.667413 ], [ 109.313813, -0.695001 ], [ 109.383067, -0.695896 ], [ 109.468598, -0.737074 ], [ 109.50172, -0.731052 ], [ 109.506521, -0.716404 ], [ 109.461599, -0.712986 ], [ 109.412934, -0.663995 ], [ 109.355154, -0.648126 ], [ 109.368826, -0.633884 ], [ 109.355154, -0.613946 ], [ 109.424083, -0.620212 ], [ 109.400645, -0.597345 ], [ 109.344005, -0.583754 ], [ 109.26238, -0.592462 ], [ 109.215099, -0.553399 ], [ 109.171397, -0.556329 ], [ 109.139415, -0.528578 ], [ 109.100597, -0.369724 ], [ 109.135997, -0.36004 ], [ 109.090831, -0.287205 ], [ 109.101329, -0.257582 ], [ 109.076427, -0.250584 ], [ 109.067068, -0.271254 ], [ 109.050304, -0.261895 ], [ 109.050955, -0.229099 ], [ 109.086111, -0.207452 ], [ 109.146658, -0.205255 ], [ 109.224783, -0.237237 ], [ 109.190603, -0.188735 ], [ 109.18686, -0.082208 ], [ 109.160411, -0.023696 ], [ 109.160981, 0.033922 ], [ 109.300466, 0.010484 ], [ 109.166759, 0.112291 ], [ 109.102306, 0.243109 ], [ 109.033214, 0.293362 ], [ 108.953136, 0.301744 ], [ 108.928722, 0.31509 ], [ 108.920909, 0.340277 ], [ 108.944347, 0.422512 ], [ 108.910004, 0.530585 ], [ 108.931163, 0.616197 ], [ 108.875987, 0.714667 ], [ 108.889659, 0.75373 ], [ 108.855479, 0.832221 ], [ 108.893321, 0.867906 ], [ 108.941417, 0.884019 ], [ 108.980805, 0.956041 ], [ 108.924327, 1.164008 ], [ 109.142833, 1.250637 ], [ 109.266368, 1.394599 ], [ 109.240489, 1.404202 ], [ 109.13738, 1.262274 ], [ 109.088227, 1.236314 ], [ 108.98585, 1.215806 ], [ 108.990408, 1.247463 ], [ 109.054373, 1.35224 ], [ 109.073009, 1.533922 ], [ 109.272227, 1.693793 ], [ 109.34783, 1.809556 ], [ 109.336925, 1.818793 ], [ 109.286794, 1.778225 ], [ 109.335134, 1.850165 ], [ 109.340994, 1.935533 ], [ 109.578868, 1.997626 ], [ 109.645274, 2.083238 ], [ 109.600266, 1.983136 ], [ 109.528436, 1.889989 ], [ 109.555617, 1.802165 ], [ 109.641814, 1.781004 ], [ 109.64171, 1.637162 ], [ 109.65804, 1.59719 ], [ 109.766354, 1.496473 ], [ 109.775552, 1.457948 ], [ 109.807798, 1.459964 ], [ 109.842835, 1.403275 ], [ 109.920246, 1.394774 ], [ 109.963758, 1.298578 ], [ 110.03073, 1.253568 ], [ 110.051814, 1.215482 ], [ 110.17036, 1.174451 ], [ 110.256556, 1.039059 ], [ 110.263481, 0.994307 ], [ 110.364147, 0.981388 ], [ 110.460265, 0.879741 ], [ 110.553903, 0.85137 ], [ 110.613434, 0.893952 ], [ 110.661286, 0.872144 ], [ 110.704178, 0.901393 ], [ 110.758335, 0.914519 ], [ 110.776731, 0.903253 ], [ 110.796989, 0.949659 ], [ 110.880394, 1.010534 ], [ 110.973412, 1.017717 ], [ 111.197584, 1.075233 ], [ 111.374111, 1.007537 ], [ 111.472089, 1.022213 ], [ 111.503199, 0.958444 ], [ 111.538855, 0.997718 ], [ 111.622675, 1.030274 ], [ 111.762821, 0.993015 ], [ 111.823076, 1.008467 ], [ 111.910099, 1.114042 ], [ 112.09293, 1.143135 ], [ 112.187395, 1.379659 ], [ 112.181814, 1.400019 ], [ 112.154115, 1.409527 ], [ 112.161556, 1.434539 ], [ 112.295192, 1.503811 ], [ 112.398545, 1.523345 ], [ 112.470478, 1.567657 ], [ 112.801517, 1.543783 ], [ 112.854951, 1.582721 ], [ 112.973186, 1.569854 ], [ 113.014114, 1.550785 ], [ 113.024346, 1.514379 ], [ 112.9582, 1.415651 ], [ 113.089045, 1.431335 ], [ 113.158602, 1.388159 ], [ 113.323656, 1.351392 ], [ 113.397553, 1.293927 ], [ 113.524471, 1.313564 ], [ 113.624826, 1.227575 ], [ 113.808174, 1.339713 ], [ 113.868222, 1.415496 ], [ 113.909667, 1.442471 ], [ 114.094255, 1.465674 ], [ 114.173423, 1.420509 ], [ 114.374858, 1.506938 ], [ 114.500638, 1.436037 ], [ 114.545597, 1.434952 ], [ 114.568025, 1.469395 ], [ 114.563167, 1.536393 ], [ 114.624455, 1.598792 ], [ 114.669, 1.694006 ], [ 114.679542, 1.840741 ], [ 114.831988, 1.902521 ], [ 114.841083, 2.038223 ], [ 114.780621, 2.036053 ], [ 114.753026, 2.134806 ], [ 114.778761, 2.247202 ], [ 114.913326, 2.284048 ], [ 114.922215, 2.353914 ], [ 114.972961, 2.35748 ], [ 115.105046, 2.46569 ], [ 115.192689, 2.490547 ], [ 115.206125, 2.509874 ], [ 115.192379, 2.55106 ], [ 115.151968, 2.597052 ], [ 115.114968, 2.607904 ], [ 115.071456, 2.594623 ], [ 115.05647, 2.608627 ], [ 115.07187, 2.671828 ], [ 115.056987, 2.711257 ], [ 115.104633, 2.761486 ], [ 115.069079, 2.832645 ], [ 115.122823, 2.91295 ], [ 115.207985, 2.980698 ], [ 115.242092, 3.041624 ], [ 115.309995, 2.985917 ], [ 115.464094, 3.030824 ], [ 115.482181, 3.110974 ], [ 115.517011, 3.157276 ], [ 115.482801, 3.206472 ], [ 115.517631, 3.357161 ], [ 115.557215, 3.425451 ], [ 115.585017, 3.416821 ], [ 115.601243, 3.430231 ], [ 115.544399, 3.629159 ], [ 115.588634, 3.857595 ], [ 115.538301, 3.897825 ], [ 115.538818, 3.920615 ], [ 115.580986, 3.946918 ], [ 115.609511, 3.996915 ], [ 115.646925, 4.169101 ], [ 115.732605, 4.239381 ], [ 115.770742, 4.225609 ], [ 115.817457, 4.281316 ], [ 115.821178, 4.344335 ], [ 115.844122, 4.389216 ], [ 115.864896, 4.382576 ], [ 115.878849, 4.352139 ], [ 115.977241, 4.328626 ], [ 115.993571, 4.288912 ], [ 116.020649, 4.270852 ], [ 116.109946, 4.345111 ], [ 116.125759, 4.378907 ], [ 116.228802, 4.356118 ], [ 116.310657, 4.383377 ], [ 116.3582, 4.355446 ], [ 116.391066, 4.294674 ], [ 116.411323, 4.288654 ], [ 116.446359, 4.317257 ], [ 116.494109, 4.324853 ], [ 116.48646, 4.348831 ], [ 116.522221, 4.396787 ], [ 116.590227, 4.331132 ], [ 116.615548, 4.344077 ], [ 116.68004, 4.339917 ], [ 116.711666, 4.366789 ], [ 116.804477, 4.330073 ], [ 116.883025, 4.344904 ], [ 116.98059, 4.329556 ], [ 117.164662, 4.333147 ], [ 117.202696, 4.356066 ], [ 117.356588, 4.259509 ], [ 117.43648, 4.185611 ], [ 117.558333, 4.167654 ], [ 117.567149, 4.159654 ], [ 117.518565, 4.12226 ], [ 117.373057, 4.169745 ], [ 117.4074, 4.124986 ], [ 117.395844, 4.098944 ], [ 117.466482, 4.079901 ], [ 117.468272, 4.043524 ], [ 117.520274, 4.049302 ], [ 117.61378, 3.957099 ], [ 117.678477, 3.93244 ], [ 117.688487, 3.909003 ], [ 117.65089, 3.895209 ], [ 117.570079, 3.933173 ], [ 117.523448, 3.929511 ], [ 117.579438, 3.914537 ], [ 117.636729, 3.87287 ], [ 117.681651, 3.88227 ], [ 117.719086, 3.860582 ], [ 117.782888, 3.779039 ], [ 117.702159, 3.778713 ], [ 117.734223, 3.752143 ], [ 117.817882, 3.730048 ], [ 117.826182, 3.703599 ], [ 117.748546, 3.636949 ], [ 117.628673, 3.632066 ], [ 117.546641, 3.664008 ], [ 117.503591, 3.768744 ], [ 117.468761, 3.792304 ], [ 117.523448, 3.650214 ], [ 117.509776, 3.607367 ], [ 117.430919, 3.63467 ], [ 117.090505, 3.645819 ], [ 117.055675, 3.631903 ], [ 117.030528, 3.594387 ], [ 117.083181, 3.616645 ], [ 117.199229, 3.616278 ], [ 117.216563, 3.603013 ], [ 117.199962, 3.554999 ], [ 117.242849, 3.490668 ], [ 117.304535, 3.469387 ], [ 117.32545, 3.436021 ], [ 117.37436, 3.448635 ], [ 117.446544, 3.43476 ], [ 117.441905, 3.373033 ], [ 117.36964, 3.305243 ], [ 117.359548, 3.244289 ], [ 117.333669, 3.232123 ], [ 117.273774, 3.264797 ], [ 117.27003, 3.23432 ], [ 117.352712, 3.182807 ], [ 117.453949, 3.17121 ], [ 117.455089, 3.12816 ], [ 117.4817, 3.101264 ], [ 117.617198, 3.085883 ], [ 117.629405, 3.042385 ], [ 117.564952, 2.983547 ], [ 117.65561, 2.997382 ], [ 117.685069, 2.96308 ], [ 117.543793, 2.922105 ], [ 117.736339, 2.901597 ], [ 117.61964, 2.825507 ], [ 117.752208, 2.784613 ], [ 117.784028, 2.758246 ], [ 117.800792, 2.657172 ], [ 117.826182, 2.607408 ], [ 117.979015, 2.466539 ], [ 118.03712, 2.363959 ], [ 118.044688, 2.381537 ], [ 118.082205, 2.33747 ], [ 118.099376, 2.277818 ], [ 118.057791, 2.219957 ], [ 117.955414, 2.182278 ], [ 117.914724, 2.093492 ], [ 117.826182, 2.106513 ], [ 117.900401, 2.049994 ], [ 117.82545, 2.036282 ], [ 117.740733, 2.044989 ], [ 117.750011, 2.03144 ], [ 117.818858, 2.017157 ], [ 117.855642, 1.983385 ], [ 117.873383, 1.990465 ], [ 117.872244, 1.924709 ], [ 117.85727, 1.89765 ], [ 117.893891, 1.873765 ], [ 117.924083, 1.819159 ], [ 118.046153, 1.783108 ], [ 118.047862, 1.743557 ], [ 118.12672, 1.65469 ], [ 118.425059, 1.485745 ], [ 118.399669, 1.454413 ], [ 118.448904, 1.435533 ], [ 118.456309, 1.394599 ], [ 118.476248, 1.402045 ], [ 118.613292, 1.351223 ], [ 118.675141, 1.280422 ], [ 118.754161, 1.22956 ], [ 118.784679, 1.181708 ], [ 118.764171, 1.164008 ], [ 118.80893, 1.139716 ], [ 118.856944, 1.058173 ], [ 118.887706, 1.058173 ], [ 118.915538, 1.078599 ], [ 118.985199, 1.057563 ], [ 119.005544, 1.037584 ], [ 118.997569, 1.003607 ], [ 119.011729, 0.976264 ], [ 118.956554, 0.912665 ], [ 118.865001, 0.868842 ], [ 118.840994, 0.829901 ], [ 118.798188, 0.804918 ], [ 118.662771, 0.846381 ], [ 118.565278, 0.804023 ], [ 118.428396, 0.839993 ], [ 118.383962, 0.804918 ], [ 118.316905, 0.858832 ], [ 118.187836, 0.87523 ], [ 118.09669, 0.908637 ], [ 118.044688, 0.955146 ], [ 117.989513, 1.078599 ], [ 117.924001, 1.124986 ], [ 117.893891, 1.113471 ], [ 117.901378, 1.078599 ], [ 117.975271, 0.9831 ], [ 117.98463, 0.926215 ], [ 118.02475, 0.872789 ], [ 118.03297, 0.800238 ], [ 117.982677, 0.791327 ], [ 117.947439, 0.831122 ], [ 117.902517, 0.83747 ], [ 117.81129, 0.811754 ], [ 117.743175, 0.740546 ], [ 117.719086, 0.636786 ], [ 117.620372, 0.502021 ], [ 117.627126, 0.434394 ], [ 117.569509, 0.389065 ], [ 117.517263, 0.290961 ], [ 117.523123, 0.225775 ], [ 117.480154, 0.16649 ], [ 117.517263, 0.140204 ], [ 117.469981, 0.108791 ], [ 117.475597, 0.057603 ], [ 117.497081, 0.051011 ], [ 117.489106, 0.037177 ], [ 117.516856, 0.015937 ], [ 117.530284, -0.032322 ], [ 117.484874, -0.092218 ], [ 117.435069, -0.239679 ], [ 117.442068, -0.281915 ], [ 117.497081, -0.350274 ], [ 117.45753, -0.427016 ], [ 117.466482, -0.457289 ], [ 117.441417, -0.52516 ], [ 117.595958, -0.422621 ], [ 117.630138, -0.418715 ], [ 117.631602, -0.447524 ], [ 117.554535, -0.502699 ], [ 117.598969, -0.521417 ], [ 117.578461, -0.596938 ], [ 117.530284, -0.60711 ], [ 117.575938, -0.629978 ], [ 117.539887, -0.674493 ], [ 117.55128, -0.68963 ], [ 117.482921, -0.69964 ], [ 117.613617, -0.734063 ], [ 117.622732, -0.781508 ], [ 117.564952, -0.791436 ], [ 117.537608, -0.812595 ], [ 117.489106, -0.798923 ], [ 117.4935, -0.827813 ], [ 117.458181, -0.820489 ], [ 117.446544, -0.877048 ], [ 117.412852, -0.874933 ], [ 117.379242, -0.839288 ], [ 117.339041, -0.9013 ], [ 117.327891, -0.841485 ], [ 117.281505, -0.809177 ], [ 117.250336, -0.909275 ], [ 117.16391, -0.981703 ], [ 117.065196, -1.12184 ], [ 117.039236, -1.137791 ], [ 117.023692, -1.202895 ], [ 116.957693, -1.239923 ], [ 116.819835, -1.261407 ], [ 116.83074, -1.195001 ], [ 116.811371, -1.192641 ], [ 116.79713, -1.217218 ], [ 116.787446, -1.158868 ], [ 116.746349, -1.110528 ], [ 116.756847, -1.023696 ], [ 116.743175, -1.024835 ], [ 116.715343, -1.12477 ], [ 116.757091, -1.182224 ], [ 116.736095, -1.220961 ], [ 116.790863, -1.24391 ], [ 116.763031, -1.298517 ], [ 116.76238, -1.36533 ], [ 116.567638, -1.446547 ], [ 116.539236, -1.481215 ], [ 116.53712, -1.525649 ], [ 116.564464, -1.583429 ], [ 116.540212, -1.622735 ], [ 116.32488, -1.703871 ], [ 116.222423, -1.789646 ], [ 116.242931, -1.805759 ], [ 116.285899, -1.807061 ], [ 116.330089, -1.77809 ], [ 116.424815, -1.766371 ], [ 116.448253, -1.796075 ], [ 116.413585, -1.847263 ], [ 116.466563, -1.907485 ], [ 116.45045, -1.957452 ], [ 116.457856, -2.042413 ], [ 116.426931, -2.076349 ], [ 116.336681, -2.108168 ], [ 116.283214, -2.169366 ], [ 116.37086, -2.137872 ], [ 116.410655, -2.20379 ], [ 116.517833, -2.166436 ], [ 116.542735, -2.209242 ], [ 116.583263, -2.187677 ], [ 116.605479, -2.193617 ], [ 116.54005, -2.512872 ], [ 116.517914, -2.553888 ], [ 116.482432, -2.560317 ] ] ], [ [ [ 108.778087, -1.702732 ], [ 108.72462, -1.719415 ], [ 108.677257, -1.7138 ], [ 108.723155, -1.693617 ], [ 108.778087, -1.702732 ] ] ], [ [ [ 108.933279, -1.640802 ], [ 108.831228, -1.662286 ], [ 108.831554, -1.595147 ], [ 108.793305, -1.580336 ], [ 108.892833, -1.534275 ], [ 108.91684, -1.538751 ], [ 108.96754, -1.587986 ], [ 108.933279, -1.640802 ] ] ], [ [ [ 109.13852, -1.314142 ], [ 109.1338, -1.297133 ], [ 109.108246, -1.304457 ], [ 109.101329, -1.292413 ], [ 109.170177, -1.257582 ], [ 109.176931, -1.278497 ], [ 109.13852, -1.314142 ] ] ], [ [ [ 109.25294, -1.212498 ], [ 109.218516, -1.220392 ], [ 109.223888, -1.191339 ], [ 109.254649, -1.169366 ], [ 109.265147, -1.187921 ], [ 109.25294, -1.212498 ] ] ], [ [ [ 109.776866, -1.140802 ], [ 109.687755, -1.196059 ], [ 109.535981, -1.259047 ], [ 109.502452, -1.292169 ], [ 109.465587, -1.29339 ], [ 109.417247, -1.25449 ], [ 109.444509, -1.168878 ], [ 109.452322, -1.004002 ], [ 109.475434, -0.976983 ], [ 109.5442, -0.990655 ], [ 109.587901, -0.97031 ], [ 109.656749, -1.003676 ], [ 109.723481, -0.987074 ], [ 109.759776, -1.031671 ], [ 109.759776, -1.103936 ], [ 109.776866, -1.140802 ] ] ], [ [ [ 116.434418, -3.409763 ], [ 116.393077, -3.63242 ], [ 116.385997, -3.639581 ], [ 116.324718, -3.532973 ], [ 116.358897, -3.440851 ], [ 116.40447, -3.374607 ], [ 116.434418, -3.409763 ] ] ], [ [ [ 118.654307, 2.182278 ], [ 118.578461, 2.236884 ], [ 118.556407, 2.312201 ], [ 118.578461, 2.318793 ], [ 118.6338, 2.271674 ], [ 118.63266, 2.260688 ], [ 118.57488, 2.294176 ], [ 118.654307, 2.182278 ] ] ], [ [ [ 117.521495, 3.288072 ], [ 117.461925, 3.29267 ], [ 117.43393, 3.278998 ], [ 117.41391, 3.304836 ], [ 117.43336, 3.336412 ], [ 117.468435, 3.345282 ], [ 117.527843, 3.317369 ], [ 117.521495, 3.288072 ] ] ], [ [ [ 117.68393, 3.399604 ], [ 117.667328, 3.271552 ], [ 117.63795, 3.248725 ], [ 117.624848, 3.283271 ], [ 117.556407, 3.331855 ], [ 117.531261, 3.403144 ], [ 117.541515, 3.428453 ], [ 117.566661, 3.438422 ], [ 117.625255, 3.43769 ], [ 117.67156, 3.426988 ], [ 117.68393, 3.399604 ] ] ], [ [ [ 117.891287, 3.455634 ], [ 117.785492, 3.538479 ], [ 117.784923, 3.581977 ], [ 117.826996, 3.58808 ], [ 117.863048, 3.559027 ], [ 117.893891, 3.497504 ], [ 117.891287, 3.455634 ] ] ], [ [ [ 117.287608, 3.497504 ], [ 117.240896, 3.516181 ], [ 117.217784, 3.547838 ], [ 117.224132, 3.57099 ], [ 117.257091, 3.592027 ], [ 117.393728, 3.566392 ], [ 117.435313, 3.524604 ], [ 117.506196, 3.502143 ], [ 117.517263, 3.477037 ], [ 117.496755, 3.455552 ], [ 117.373057, 3.497504 ], [ 117.287608, 3.497504 ] ] ], [ [ [ 117.831554, 3.798082 ], [ 117.729503, 3.868069 ], [ 117.787608, 3.866685 ], [ 117.852875, 3.812405 ], [ 117.831554, 3.798082 ] ] ], [ [ [ 117.705577, 3.987494 ], [ 117.665294, 3.983059 ], [ 117.620291, 4.015326 ], [ 117.594493, 4.06387 ], [ 117.612804, 4.108222 ], [ 117.661143, 4.149237 ], [ 117.750011, 4.080308 ], [ 117.741059, 4.025621 ], [ 117.705577, 3.987494 ] ] ], [ [ [ 117.907039, 4.156683 ], [ 117.934825, 4.059882 ], [ 117.872569, 4.031562 ], [ 117.838552, 4.040188 ], [ 117.703608, 4.163415 ], [ 117.907039, 4.156683 ] ] ] ] } }
]
}
