{
"type": "FeatureCollection",
"name": "Maluku",
"crs": { "type": "name", "properties": { "name": "urn:ogc:def:crs:OGC:1.3:CRS84" } },
"features": [
{ "type": "Feature", "properties": { "name": "Maluku", "n_provinces": 2 }, "geometry": { "type": "MultiPolygon", "coordinates": [ [ [ [ 127.768809, -8.212579 ], [ 127.648123, -8.235772 ], [ 127.604015, -8.206801 ], [ 127.682953, -8.155206 ], [ 127.722911, -8.153009 ], [ 127.76059, -8.173923 ], [ 127.768809, -8.212579 ] ] ], [ [ [ 127.224946, -8.108575 ], [ 127.15211, -8.096938 ], [ 127.158946, -8.034926 ], [ 127.185883, -8.018731 ], [ 127.216319, -8.026951 ], [ 127.232107, -8.054295 ], [ 127.224946, -8.108575 ] ] ], [ [ [ 126.823497, -7.762384 ], [ 126.71339, -7.747491 ], [ 126.56837, -7.814142 ], [ 126.504405, -7.888116 ], [ 126.504242, -7.912367 ], [ 126.466156, -7.966567 ], [ 126.421886, -7.93255 ], [ 126.274425, -7.911879 ], [ 126.189789, -7.923517 ], [ 126.136892, -7.888604 ], [ 126.053966, -7.884698 ], [ 125.925059, -7.911879 ], [ 125.918142, -7.93255 ], [ 125.812022, -8.007582 ], [ 125.774181, -8.007582 ], [ 125.808442, -7.934259 ], [ 125.81422, -7.850274 ], [ 125.869802, -7.814711 ], [ 125.884044, -7.754327 ], [ 125.908214, -7.744073 ], [ 125.968923, -7.660089 ], [ 126.046153, -7.693455 ], [ 126.203136, -7.713474 ], [ 126.261485, -7.68613 ], [ 126.32838, -7.695733 ], [ 126.484548, -7.597263 ], [ 126.626964, -7.559991 ], [ 126.634532, -7.606866 ], [ 126.72169, -7.668064 ], [ 126.813243, -7.668634 ], [ 126.839203, -7.748224 ], [ 126.823497, -7.762384 ] ] ], [ [ [ 127.4817, -7.590102 ], [ 127.389496, -7.649672 ], [ 127.357677, -7.655694 ], [ 127.348399, -7.61533 ], [ 127.378673, -7.58587 ], [ 127.364431, -7.536798 ], [ 127.372732, -7.506117 ], [ 127.484386, -7.532403 ], [ 127.4817, -7.590102 ] ] ], [ [ [ 127.55128, -5.512384 ], [ 127.555186, -5.506606 ], [ 127.561371, -5.517267 ], [ 127.55128, -5.512384 ] ] ], [ [ [ 127.554861, -5.490492 ], [ 127.556977, -5.49977 ], [ 127.545909, -5.495294 ], [ 127.554861, -5.490492 ] ] ], [ [ [ 127.776866, -5.34881 ], [ 127.779063, -5.342869 ], [ 127.785167, -5.35296 ], [ 127.776866, -5.34881 ] ] ], [ [ [ 127.226971, -3.917063 ], [ 127.172553, -3.91011 ], [ 127.145086, -3.884983 ], [ 127.137933, -3.846852 ], [ 127.165212, -3.814142 ], [ 127.198985, -3.810317 ], [ 127.246119, -3.836225 ], [ 127.256021, -3.874534 ], [ 127.226971, -3.917063 ] ] ], [ [ [ 127.121593, -3.653253 ], [ 126.990733, -3.718032 ], [ 126.907, -3.787341 ], [ 126.826929, -3.810093 ], [ 126.742185, -3.859378 ], [ 126.696573, -3.863792 ], [ 126.674275, -3.842503 ], [ 126.525057, -3.789916 ], [ 126.438879, -3.75045 ], [ 126.380626, -3.703058 ], [ 126.274896, -3.663261 ], [ 126.243918, -3.631399 ], [ 126.203021, -3.630994 ], [ 126.173561, -3.602527 ], [ 126.148554, -3.525501 ], [ 126.068507, -3.467379 ], [ 126.007226, -3.361012 ], [ 125.991742, -3.248191 ], [ 126.017263, -3.171157 ], [ 126.090921, -3.112098 ], [ 126.136319, -3.160624 ], [ 126.202001, -3.181842 ], [ 126.22774, -3.174759 ], [ 126.226573, -3.149509 ], [ 126.258311, -3.122003 ], [ 126.421397, -3.070489 ], [ 126.720225, -3.060154 ], [ 126.840017, -3.073663 ], [ 126.893403, -3.125584 ], [ 126.918712, -3.114679 ], [ 127.102306, -3.210382 ], [ 127.111827, -3.272068 ], [ 127.055919, -3.259535 ], [ 127.040782, -3.286716 ], [ 127.094737, -3.362074 ], [ 127.124766, -3.363214 ], [ 127.148285, -3.334405 ], [ 127.268809, -3.385919 ], [ 127.240896, -3.470961 ], [ 127.243419, -3.606052 ], [ 127.227224, -3.642836 ], [ 127.20574, -3.659601 ], [ 127.121593, -3.653253 ] ] ], [ [ [ 127.643565, -3.356052 ], [ 127.519705, -3.330255 ], [ 127.480479, -3.29339 ], [ 127.526378, -3.254327 ], [ 127.563975, -3.255792 ], [ 127.643565, -3.356052 ] ] ], [ [ [ 127.778494, -3.244236 ], [ 127.67921, -3.251642 ], [ 127.643321, -3.224379 ], [ 127.706309, -3.156345 ], [ 127.758149, -3.149509 ], [ 127.784434, -3.168715 ], [ 127.796397, -3.211521 ], [ 127.778494, -3.244236 ] ] ], [ [ [ 126.013438, -2.459568 ], [ 125.965994, -2.402114 ], [ 125.946137, -2.271742 ], [ 125.904552, -2.231378 ], [ 125.897716, -2.169366 ], [ 125.862559, -2.086602 ], [ 125.879405, -2.018487 ], [ 125.93336, -1.964532 ], [ 125.99879, -2.015232 ], [ 125.97283, -2.135349 ], [ 125.977224, -2.180352 ], [ 126.088064, -2.441095 ], [ 126.046153, -2.474216 ], [ 126.013438, -2.459568 ] ] ], [ [ [ 124.370291, -2.038995 ], [ 124.300629, -1.987481 ], [ 124.318126, -1.963962 ], [ 124.366222, -1.971287 ], [ 124.370291, -2.038995 ] ] ], [ [ [ 126.258067, -1.869073 ], [ 125.980235, -1.901788 ], [ 125.927582, -1.93141 ], [ 125.871755, -1.90252 ], [ 125.787446, -1.918715 ], [ 125.620291, -1.915623 ], [ 125.43214, -1.94964 ], [ 125.43214, -1.881443 ], [ 125.380626, -1.854099 ], [ 125.356456, -1.881443 ], [ 125.335297, -1.850681 ], [ 125.346934, -1.810968 ], [ 125.40211, -1.774672 ], [ 125.430837, -1.798272 ], [ 125.483246, -1.776951 ], [ 125.497081, -1.805759 ], [ 125.589854, -1.799086 ], [ 125.610362, -1.813165 ], [ 125.702891, -1.819268 ], [ 125.755626, -1.794529 ], [ 125.828868, -1.801528 ], [ 125.946137, -1.785821 ], [ 126.345225, -1.817641 ], [ 126.335948, -1.837986 ], [ 126.258067, -1.869073 ] ] ], [ [ [ 125.31837, -1.882582 ], [ 125.147634, -1.873956 ], [ 125.110037, -1.895115 ], [ 125.050466, -1.887953 ], [ 125.031016, -1.898533 ], [ 125.01352, -1.944268 ], [ 124.828298, -1.895115 ], [ 124.671153, -1.970147 ], [ 124.554454, -2.004978 ], [ 124.45281, -2.012465 ], [ 124.406016, -2.004083 ], [ 124.329112, -1.870782 ], [ 124.384939, -1.667901 ], [ 124.526541, -1.625665 ], [ 124.527843, -1.65545 ], [ 124.632823, -1.631117 ], [ 124.871593, -1.693048 ], [ 124.955577, -1.696466 ], [ 125.02296, -1.723077 ], [ 125.048025, -1.765313 ], [ 125.055431, -1.751642 ], [ 125.110037, -1.758477 ], [ 125.096446, -1.751642 ], [ 125.114919, -1.692153 ], [ 125.130707, -1.684991 ], [ 125.185232, -1.703871 ], [ 125.191417, -1.782403 ], [ 125.208344, -1.791111 ], [ 125.253429, -1.732843 ], [ 125.284028, -1.731052 ], [ 125.300059, -1.750909 ], [ 125.280772, -1.782403 ], [ 125.314789, -1.778985 ], [ 125.319835, -1.79339 ], [ 125.31837, -1.882582 ] ] ], [ [ [ 127.933442, -1.682794 ], [ 127.854747, -1.696466 ], [ 127.703298, -1.690199 ], [ 127.648692, -1.724298 ], [ 127.568858, -1.732192 ], [ 127.532725, -1.731378 ], [ 127.432628, -1.686456 ], [ 127.378673, -1.632257 ], [ 127.428396, -1.415134 ], [ 127.487804, -1.449965 ], [ 127.521495, -1.401056 ], [ 127.624522, -1.329522 ], [ 127.713552, -1.344985 ], [ 127.765391, -1.368422 ], [ 127.805675, -1.419203 ], [ 127.851736, -1.436293 ], [ 127.898936, -1.42669 ], [ 128.046723, -1.546319 ], [ 128.08961, -1.567315 ], [ 128.126313, -1.563653 ], [ 128.159028, -1.636977 ], [ 128.151134, -1.669692 ], [ 128.090587, -1.710138 ], [ 128.051524, -1.714532 ], [ 127.933442, -1.682794 ] ] ], [ [ [ 127.316661, -1.436293 ], [ 127.28419, -1.425388 ], [ 127.285818, -1.400323 ], [ 127.330251, -1.353774 ], [ 127.371104, -1.367446 ], [ 127.378754, -1.40545 ], [ 127.316661, -1.436293 ] ] ], [ [ [ 127.666026, -1.271905 ], [ 127.531505, -1.237888 ], [ 127.514903, -1.26214 ], [ 127.460704, -1.235772 ], [ 127.501638, -1.189386 ], [ 127.547211, -1.171075 ], [ 127.627452, -1.207615 ], [ 127.689952, -1.2138 ], [ 127.697602, -1.231134 ], [ 127.666026, -1.271905 ] ] ], [ [ [ 127.248302, -0.785252 ], [ 127.155528, -0.772393 ], [ 127.158946, -0.730645 ], [ 127.214041, -0.615411 ], [ 127.261241, -0.620212 ], [ 127.24879, -0.637628 ], [ 127.296153, -0.702732 ], [ 127.296153, -0.743748 ], [ 127.319835, -0.793634 ], [ 127.268809, -0.805108 ], [ 127.248302, -0.785252 ] ] ], [ [ [ 127.830821, -0.859145 ], [ 127.754893, -0.887628 ], [ 127.683116, -0.853611 ], [ 127.653494, -0.827407 ], [ 127.655528, -0.780938 ], [ 127.625743, -0.752374 ], [ 127.535655, -0.798923 ], [ 127.457693, -0.815606 ], [ 127.437266, -0.729099 ], [ 127.470225, -0.64129 ], [ 127.398611, -0.620212 ], [ 127.295258, -0.494317 ], [ 127.29184, -0.460138 ], [ 127.329356, -0.398045 ], [ 127.316661, -0.339614 ], [ 127.372813, -0.329034 ], [ 127.4463, -0.415297 ], [ 127.516856, -0.301935 ], [ 127.578624, -0.324965 ], [ 127.687999, -0.480645 ], [ 127.617686, -0.573175 ], [ 127.606456, -0.629083 ], [ 127.647472, -0.644301 ], [ 127.649669, -0.69671 ], [ 127.666026, -0.716404 ], [ 127.789561, -0.68963 ], [ 127.857921, -0.719822 ], [ 127.898204, -0.773533 ], [ 127.876231, -0.817804 ], [ 127.830821, -0.859145 ] ] ], [ [ [ 127.117361, -0.52516 ], [ 127.108572, -0.501072 ], [ 127.130626, -0.470147 ], [ 127.102306, -0.437758 ], [ 127.124766, -0.36004 ], [ 127.110362, -0.287693 ], [ 127.213634, -0.250177 ], [ 127.263927, -0.279474 ], [ 127.292491, -0.27809 ], [ 127.288748, -0.305434 ], [ 127.257823, -0.308852 ], [ 127.251313, -0.323337 ], [ 127.280772, -0.388604 ], [ 127.261567, -0.414646 ], [ 127.268809, -0.456313 ], [ 127.251964, -0.497166 ], [ 127.23463, -0.490411 ], [ 127.179454, -0.52516 ], [ 127.117361, -0.52516 ] ] ], [ [ [ 127.431895, -0.01157 ], [ 127.432628, 0.006781 ], [ 127.412852, 0.023505 ], [ 127.398611, 0.003079 ], [ 127.391368, 0.026028 ], [ 127.408865, 0.14704 ], [ 127.452485, 0.140204 ], [ 127.440196, 0.120266 ], [ 127.460297, -0.038873 ], [ 127.431895, -0.01157 ] ] ], [ [ [ 127.337901, 0.33397 ], [ 127.343272, 0.361396 ], [ 127.378917, 0.377672 ], [ 127.398692, 0.379584 ], [ 127.418712, 0.35399 ], [ 127.417166, 0.312934 ], [ 127.396251, 0.281073 ], [ 127.358165, 0.283515 ], [ 127.337901, 0.33397 ] ] ], [ [ [ 127.384939, 0.757148 ], [ 127.439464, 0.742865 ], [ 127.449067, 0.685004 ], [ 127.43393, 0.652167 ], [ 127.388682, 0.618842 ], [ 127.358653, 0.665839 ], [ 127.384939, 0.757148 ] ] ], [ [ [ 127.312836, 0.757148 ], [ 127.282481, 0.814887 ], [ 127.304861, 0.85517 ], [ 127.32488, 0.86286 ], [ 127.37436, 0.826239 ], [ 127.371104, 0.784491 ], [ 127.346934, 0.757392 ], [ 127.312836, 0.757148 ] ] ], [ [ [ 126.38087, 1.283393 ], [ 126.347179, 1.32331 ], [ 126.36964, 1.348822 ], [ 126.401622, 1.332017 ], [ 126.38087, 1.283393 ] ] ], [ [ [ 128.151622, -8.284601 ], [ 128.088227, -8.263849 ], [ 128.10377, -8.211847 ], [ 128.213552, -8.199395 ], [ 128.231456, -8.272882 ], [ 128.151622, -8.284601 ] ] ], [ [ [ 129.006196, -8.263604 ], [ 128.949229, -8.236017 ], [ 128.916352, -8.254653 ], [ 128.887706, -8.244887 ], [ 128.834483, -8.199802 ], [ 128.889496, -8.17783 ], [ 128.985362, -8.185724 ], [ 129.029633, -8.206801 ], [ 129.02768, -8.250909 ], [ 129.006196, -8.263604 ] ] ], [ [ [ 128.025645, -8.261407 ], [ 127.939301, -8.218194 ], [ 127.826996, -8.196384 ], [ 127.765636, -8.108087 ], [ 127.83253, -8.098565 ], [ 128.017833, -8.143162 ], [ 128.090587, -8.131036 ], [ 128.123546, -8.150323 ], [ 128.117931, -8.178888 ], [ 128.025645, -8.261407 ] ] ], [ [ [ 129.862071, -7.916925 ], [ 129.776378, -8.055352 ], [ 129.693858, -8.038263 ], [ 129.585216, -7.902032 ], [ 129.601248, -7.807306 ], [ 129.724864, -7.795994 ], [ 129.839203, -7.829848 ], [ 129.83839, -7.872735 ], [ 129.862071, -7.916925 ] ] ], [ [ [ 130.080333, -7.787367 ], [ 130.025645, -7.772556 ], [ 130.055919, -7.761489 ], [ 130.083751, -7.772556 ], [ 130.080333, -7.787367 ] ] ], [ [ [ 129.983165, -7.732354 ], [ 129.991954, -7.702081 ], [ 130.015391, -7.744073 ], [ 129.997244, -7.748224 ], [ 129.983165, -7.732354 ] ] ], [ [ [ 129.658539, -7.535089 ], [ 129.712169, -7.569513 ], [ 129.681977, -7.577244 ], [ 129.653575, -7.547052 ], [ 129.658539, -7.535089 ] ] ], [ [ [ 128.638682, -7.219903 ], [ 128.532725, -7.151056 ], [ 128.528819, -7.130548 ], [ 128.592459, -7.073012 ], [ 128.61964, -7.063165 ], [ 128.699718, -7.109552 ], [ 128.691254, -7.133233 ], [ 128.658539, -7.143813 ], [ 128.680512, -7.172459 ], [ 128.638682, -7.219903 ] ] ], [ [ [ 129.152843, -6.97617 ], [ 129.142589, -6.997491 ], [ 129.116222, -6.983331 ], [ 129.134288, -6.961114 ], [ 129.152843, -6.97617 ] ] ], [ [ [ 129.509776, -6.723403 ], [ 129.530772, -6.731215 ], [ 129.501313, -6.770603 ], [ 129.47877, -6.744073 ], [ 129.509776, -6.723403 ] ] ], [ [ [ 130.026052, -6.318455 ], [ 130.013682, -6.328383 ], [ 129.997813, -6.309747 ], [ 130.003754, -6.306248 ], [ 130.026052, -6.318455 ] ] ], [ [ [ 127.798513, -5.40016 ], [ 127.803396, -5.407647 ], [ 127.79005, -5.409601 ], [ 127.798513, -5.40016 ] ] ], [ [ [ 129.899262, -4.568292 ], [ 129.85906, -4.554783 ], [ 129.948497, -4.514337 ], [ 129.945649, -4.556085 ], [ 129.899262, -4.568292 ] ] ], [ [ [ 129.778331, -4.524509 ], [ 129.770274, -4.539321 ], [ 129.757823, -4.522556 ], [ 129.762706, -4.518813 ], [ 129.778331, -4.524509 ] ] ], [ [ [ 128.779307, -3.702244 ], [ 128.748546, -3.683852 ], [ 128.746349, -3.659763 ], [ 128.776866, -3.637302 ], [ 128.796235, -3.642836 ], [ 128.810557, -3.676446 ], [ 128.779307, -3.702244 ] ] ], [ [ [ 128.323416, -3.570245 ], [ 128.334972, -3.627211 ], [ 128.309744, -3.635431 ], [ 128.251964, -3.614923 ], [ 128.278168, -3.674412 ], [ 128.254893, -3.709568 ], [ 128.161469, -3.739028 ], [ 128.128673, -3.769627 ], [ 128.097423, -3.773207 ], [ 128.152029, -3.703058 ], [ 128.220958, -3.649102 ], [ 128.202891, -3.639337 ], [ 128.042735, -3.718032 ], [ 127.986013, -3.77158 ], [ 127.933442, -3.763442 ], [ 127.912364, -3.703058 ], [ 127.960948, -3.640313 ], [ 128.034516, -3.589044 ], [ 128.147309, -3.588474 ], [ 128.28712, -3.504571 ], [ 128.349376, -3.529474 ], [ 128.323416, -3.570245 ] ] ], [ [ [ 128.563813, -3.591892 ], [ 128.392914, -3.642836 ], [ 128.410167, -3.543227 ], [ 128.427094, -3.522719 ], [ 128.461436, -3.51214 ], [ 128.512706, -3.526056 ], [ 128.558849, -3.570489 ], [ 128.563813, -3.591892 ] ] ], [ [ [ 128.652354, -3.580824 ], [ 128.656016, -3.6124 ], [ 128.636241, -3.622817 ], [ 128.567882, -3.528009 ], [ 128.561046, -3.493748 ], [ 128.59783, -3.491795 ], [ 128.672862, -3.539809 ], [ 128.70574, -3.502537 ], [ 128.72641, -3.545994 ], [ 128.728038, -3.614923 ], [ 128.668793, -3.569268 ], [ 128.652354, -3.580824 ] ] ], [ [ [ 130.875743, -3.585626 ], [ 130.831554, -3.694106 ], [ 130.824718, -3.824477 ], [ 130.841563, -3.865004 ], [ 130.817882, -3.868829 ], [ 130.752778, -3.827895 ], [ 130.616466, -3.78631 ], [ 130.55128, -3.720961 ], [ 130.477794, -3.697361 ], [ 130.418793, -3.636895 ], [ 130.356456, -3.624688 ], [ 130.310802, -3.593927 ], [ 130.126475, -3.532973 ], [ 130.00172, -3.473077 ], [ 129.963634, -3.428318 ], [ 129.961274, -3.382257 ], [ 129.933849, -3.348321 ], [ 129.890473, -3.333103 ], [ 129.509613, -3.302504 ], [ 129.501964, -3.334405 ], [ 129.563243, -3.43963 ], [ 129.53004, -3.464776 ], [ 129.485606, -3.463474 ], [ 129.358084, -3.410089 ], [ 129.193614, -3.389744 ], [ 129.084321, -3.341241 ], [ 128.960785, -3.355564 ], [ 128.937673, -3.320408 ], [ 128.981944, -3.251886 ], [ 128.952891, -3.220392 ], [ 128.877452, -3.202569 ], [ 128.850922, -3.238214 ], [ 128.792166, -3.260431 ], [ 128.692556, -3.348728 ], [ 128.672862, -3.385919 ], [ 128.693858, -3.410089 ], [ 128.677582, -3.432306 ], [ 128.549327, -3.437433 ], [ 128.484141, -3.462498 ], [ 128.399181, -3.410089 ], [ 128.272146, -3.211521 ], [ 128.178722, -3.194268 ], [ 128.200043, -3.111423 ], [ 128.184337, -3.074395 ], [ 128.165782, -3.06699 ], [ 128.135753, -3.075372 ], [ 128.090668, -3.132013 ], [ 128.06658, -3.196954 ], [ 128.053071, -3.310642 ], [ 128.022227, -3.368585 ], [ 127.981456, -3.385024 ], [ 127.926036, -3.553481 ], [ 127.898611, -3.523858 ], [ 127.933442, -3.389744 ], [ 127.930186, -3.323337 ], [ 127.885753, -3.266209 ], [ 127.868012, -3.19378 ], [ 127.842296, -3.173272 ], [ 127.90561, -3.149509 ], [ 128.008067, -3.073663 ], [ 128.103689, -3.06699 ], [ 128.090587, -3.022149 ], [ 128.117931, -2.984308 ], [ 128.069998, -2.970636 ], [ 128.121104, -2.944513 ], [ 128.138927, -2.896173 ], [ 128.156098, -2.893243 ], [ 128.175466, -2.857029 ], [ 128.381033, -2.859959 ], [ 128.51588, -2.834161 ], [ 128.600759, -2.854669 ], [ 128.865245, -2.862074 ], [ 129.052908, -2.804457 ], [ 129.068858, -2.821222 ], [ 129.064464, -2.896173 ], [ 129.105235, -2.947931 ], [ 129.177094, -2.957696 ], [ 129.179454, -2.926446 ], [ 129.218516, -2.941176 ], [ 129.227794, -2.915216 ], [ 129.358409, -2.856215 ], [ 129.372895, -2.806817 ], [ 129.400238, -2.791599 ], [ 129.541026, -2.780043 ], [ 129.554942, -2.799005 ], [ 129.611827, -2.806817 ], [ 129.766124, -2.86891 ], [ 129.810557, -2.916681 ], [ 129.862071, -2.903009 ], [ 129.88559, -2.936619 ], [ 129.89503, -2.925388 ], [ 129.964854, -2.973565 ], [ 130.046641, -2.99212 ], [ 130.301524, -2.977227 ], [ 130.389334, -2.993829 ], [ 130.488943, -3.087498 ], [ 130.587901, -3.12949 ], [ 130.622244, -3.212579 ], [ 130.637218, -3.353611 ], [ 130.666677, -3.403578 ], [ 130.761485, -3.405857 ], [ 130.81658, -3.434259 ], [ 130.831554, -3.45794 ], [ 130.810883, -3.464939 ], [ 130.810802, -3.484552 ], [ 130.875743, -3.585626 ] ] ], [ [ [ 127.994395, -2.93906 ], [ 127.934255, -3.025567 ], [ 127.826996, -3.028985 ], [ 127.837169, -3.001886 ], [ 127.925304, -2.955173 ], [ 127.926036, -2.916681 ], [ 127.969981, -2.92018 ], [ 127.994395, -2.93906 ] ] ], [ [ [ 128.368907, -1.034112 ], [ 128.330333, -1.020196 ], [ 128.3296, -0.978692 ], [ 128.300466, -0.955499 ], [ 128.306163, -0.943292 ], [ 128.323497, -0.941339 ], [ 128.367361, -0.988377 ], [ 128.403494, -0.995294 ], [ 128.406749, -1.025974 ], [ 128.368907, -1.034112 ] ] ], [ [ [ 129.540294, -0.216729 ], [ 129.516775, -0.208754 ], [ 129.458263, -0.113702 ], [ 129.372895, -0.079522 ], [ 129.371593, -0.036798 ], [ 129.293468, 0.047675 ], [ 129.536876, -0.13421 ], [ 129.571544, -0.192153 ], [ 129.540294, -0.216729 ] ] ], [ [ [ 127.672374, -0.230157 ], [ 127.700206, 0.047675 ], [ 127.680675, 0.162258 ], [ 127.715587, 0.312567 ], [ 127.696788, 0.342231 ], [ 127.655121, 0.342231 ], [ 127.576508, 0.415513 ], [ 127.556163, 0.52383 ], [ 127.526866, 0.560614 ], [ 127.555431, 0.739895 ], [ 127.588064, 0.761176 ], [ 127.624522, 0.832221 ], [ 127.611583, 0.857733 ], [ 127.507823, 0.886217 ], [ 127.49464, 0.905015 ], [ 127.514659, 0.958889 ], [ 127.487804, 0.999905 ], [ 127.491954, 1.054918 ], [ 127.471446, 1.065579 ], [ 127.404145, 1.042792 ], [ 127.39975, 1.078762 ], [ 127.427419, 1.128485 ], [ 127.398611, 1.209052 ], [ 127.540782, 1.475653 ], [ 127.519379, 1.531928 ], [ 127.556163, 1.600043 ], [ 127.546397, 1.64289 ], [ 127.57309, 1.664008 ], [ 127.555675, 1.692532 ], [ 127.629731, 1.835395 ], [ 127.689952, 1.925279 ], [ 127.934825, 2.187649 ], [ 127.954112, 2.195868 ], [ 128.003917, 2.180609 ], [ 128.047374, 2.203843 ], [ 128.056814, 2.169908 ], [ 128.029063, 2.109687 ], [ 127.96461, 2.053616 ], [ 127.934581, 1.963202 ], [ 127.864757, 1.929023 ], [ 127.846446, 1.851467 ], [ 127.851736, 1.825385 ], [ 127.875662, 1.807929 ], [ 127.940684, 1.800035 ], [ 128.014903, 1.719224 ], [ 127.995616, 1.627346 ], [ 128.022227, 1.592597 ], [ 128.03533, 1.537991 ], [ 128.014903, 1.394599 ], [ 127.995616, 1.370754 ], [ 128.014903, 1.305243 ], [ 127.973888, 1.297756 ], [ 127.890636, 1.152411 ], [ 127.833995, 1.143866 ], [ 127.637543, 1.000718 ], [ 127.624522, 0.955146 ], [ 127.635509, 0.918931 ], [ 127.655121, 0.890041 ], [ 127.720714, 0.852729 ], [ 127.741873, 0.81802 ], [ 127.815603, 0.799058 ], [ 127.872406, 0.823961 ], [ 127.923025, 0.869818 ], [ 127.936371, 1.00731 ], [ 127.993907, 1.082994 ], [ 128.054942, 1.120429 ], [ 128.144786, 1.124661 ], [ 128.179454, 1.154446 ], [ 128.196056, 1.196438 ], [ 128.17628, 1.232978 ], [ 128.097423, 1.236314 ], [ 128.092052, 1.25727 ], [ 128.2046, 1.38996 ], [ 128.437266, 1.539293 ], [ 128.481619, 1.545396 ], [ 128.509044, 1.531195 ], [ 128.539317, 1.561916 ], [ 128.604666, 1.57689 ], [ 128.719493, 1.570624 ], [ 128.728038, 1.548529 ], [ 128.687511, 1.503241 ], [ 128.686371, 1.445217 ], [ 128.740977, 1.404853 ], [ 128.748302, 1.344062 ], [ 128.715831, 1.286526 ], [ 128.701182, 1.070868 ], [ 128.650645, 1.061957 ], [ 128.439789, 0.931789 ], [ 128.300466, 0.893744 ], [ 128.289317, 0.855862 ], [ 128.29835, 0.823432 ], [ 128.231781, 0.826077 ], [ 128.213552, 0.773912 ], [ 128.313487, 0.668158 ], [ 128.364594, 0.643622 ], [ 128.43629, 0.638861 ], [ 128.485037, 0.598863 ], [ 128.680837, 0.554511 ], [ 128.671723, 0.49372 ], [ 128.686046, 0.461371 ], [ 128.690115, 0.346991 ], [ 128.703868, 0.332017 ], [ 128.824229, 0.310858 ], [ 128.900157, 0.221991 ], [ 128.899587, 0.20779 ], [ 128.847911, 0.250067 ], [ 128.537608, 0.32685 ], [ 128.461111, 0.394843 ], [ 128.262218, 0.391343 ], [ 128.23463, 0.413967 ], [ 128.210216, 0.406806 ], [ 128.152029, 0.455512 ], [ 127.960216, 0.482815 ], [ 127.910492, 0.43769 ], [ 127.878266, 0.32453 ], [ 127.912364, 0.253485 ], [ 127.921235, 0.145575 ], [ 127.887869, 0.08747 ], [ 127.885753, 0.023505 ], [ 127.903819, -0.049493 ], [ 127.973155, -0.196873 ], [ 127.980724, -0.263849 ], [ 128.017345, -0.312595 ], [ 128.042735, -0.415297 ], [ 128.096365, -0.517267 ], [ 128.138927, -0.558689 ], [ 128.227794, -0.709568 ], [ 128.440684, -0.908787 ], [ 128.250987, -0.866795 ], [ 128.228852, -0.839939 ], [ 128.248709, -0.826104 ], [ 128.268728, -0.833103 ], [ 128.249522, -0.796482 ], [ 128.032237, -0.699314 ], [ 127.88559, -0.40602 ], [ 127.851329, -0.365492 ], [ 127.708344, -0.287042 ], [ 127.672374, -0.230157 ] ] ], [ [ [ 127.781261, 2.20893 ], [ 127.74822, 2.247382 ], [ 127.759939, 2.269924 ], [ 127.815115, 2.255276 ], [ 127.805186, 2.212348 ], [ 127.781261, 2.20893 ] ] ], [ [ [ 128.6421, 2.261176 ], [ 128.566661, 2.109931 ], [ 128.509532, 2.062445 ], [ 128.344981, 2.039944 ], [ 128.269054, 1.995347 ], [ 128.288585, 2.039618 ], [ 128.246104, 2.106147 ], [ 128.241466, 2.22248 ], [ 128.232107, 2.246812 ], [ 128.197113, 2.266181 ], [ 128.358084, 2.497545 ], [ 128.419444, 2.53262 ], [ 128.430024, 2.567572 ], [ 128.457367, 2.590074 ], [ 128.515147, 2.573391 ], [ 128.566417, 2.633612 ], [ 128.686371, 2.483954 ], [ 128.694509, 2.43887 ], [ 128.645518, 2.326239 ], [ 128.6421, 2.261176 ] ] ], [ [ [ 128.125255, 2.34748 ], [ 128.154145, 2.40058 ], [ 128.173188, 2.400702 ], [ 128.192231, 2.354641 ], [ 128.154633, 2.286363 ], [ 128.125255, 2.34748 ] ] ], [ [ [ 131.160818, -8.152276 ], [ 130.991059, -8.234796 ], [ 130.893728, -8.251235 ], [ 130.896251, -8.284356 ], [ 130.879405, -8.309259 ], [ 130.810883, -8.351332 ], [ 130.763357, -8.350763 ], [ 130.854991, -8.240004 ], [ 130.913422, -8.213637 ], [ 130.926443, -8.132501 ], [ 130.973806, -8.145278 ], [ 131.037608, -8.083266 ], [ 131.08546, -8.124933 ], [ 131.079438, -8.148858 ], [ 131.141612, -8.121677 ], [ 131.181651, -8.124933 ], [ 131.160818, -8.152276 ] ] ], [ [ [ 131.092296, -7.692315 ], [ 131.035899, -7.687595 ], [ 131.043793, -7.713474 ], [ 130.971202, -7.701349 ], [ 130.999522, -7.657485 ], [ 131.126475, -7.617771 ], [ 131.119395, -7.663263 ], [ 131.092296, -7.692315 ] ] ], [ [ [ 131.642751, -7.254815 ], [ 131.647227, -7.309259 ], [ 131.675059, -7.358168 ], [ 131.660899, -7.383884 ], [ 131.709239, -7.417901 ], [ 131.660899, -7.486912 ], [ 131.668712, -7.50921 ], [ 131.633067, -7.62005 ], [ 131.574229, -7.69492 ], [ 131.496918, -7.726332 ], [ 131.503184, -7.747491 ], [ 131.469005, -7.761814 ], [ 131.474946, -7.782973 ], [ 131.389903, -7.847101 ], [ 131.379649, -7.891534 ], [ 131.338634, -7.939223 ], [ 131.36085, -7.947361 ], [ 131.34547, -7.987074 ], [ 131.316742, -8.017999 ], [ 131.299327, -8.025649 ], [ 131.291515, -8.011326 ], [ 131.310802, -7.954034 ], [ 131.283458, -7.93613 ], [ 131.257335, -7.987074 ], [ 131.229666, -8.003513 ], [ 131.116222, -8.000746 ], [ 131.106619, -7.991306 ], [ 131.126964, -7.929132 ], [ 131.115977, -7.898696 ], [ 131.092296, -7.891534 ], [ 131.09018, -7.84881 ], [ 131.11964, -7.816502 ], [ 131.152843, -7.821873 ], [ 131.161143, -7.799574 ], [ 131.139985, -7.781671 ], [ 131.156993, -7.774347 ], [ 131.153656, -7.740655 ], [ 131.13738, -7.743422 ], [ 131.133149, -7.726332 ], [ 131.11964, -7.733819 ], [ 131.114757, -7.706964 ], [ 131.139171, -7.68613 ], [ 131.203868, -7.713311 ], [ 131.249848, -7.706638 ], [ 131.194835, -7.68377 ], [ 131.181326, -7.649591 ], [ 131.241547, -7.487726 ], [ 131.315196, -7.422947 ], [ 131.355724, -7.435317 ], [ 131.393321, -7.370782 ], [ 131.390798, -7.348321 ], [ 131.453136, -7.334405 ], [ 131.455089, -7.291192 ], [ 131.493988, -7.229587 ], [ 131.54477, -7.219903 ], [ 131.536957, -7.154229 ], [ 131.637543, -7.109063 ], [ 131.660981, -7.128595 ], [ 131.654633, -7.172133 ], [ 131.704112, -7.131524 ], [ 131.743337, -7.196059 ], [ 131.711192, -7.223891 ], [ 131.666515, -7.223891 ], [ 131.642751, -7.254815 ] ] ], [ [ [ 130.988292, -7.54518 ], [ 130.897716, -7.554457 ], [ 130.845225, -7.542087 ], [ 130.840994, -7.528741 ], [ 130.858653, -7.486912 ], [ 130.893728, -7.514093 ], [ 130.98463, -7.518162 ], [ 130.968598, -7.534601 ], [ 130.988292, -7.54518 ] ] ], [ [ [ 131.182872, -7.415948 ], [ 131.057384, -7.507908 ], [ 131.071788, -7.479425 ], [ 131.004893, -7.485772 ], [ 130.985199, -7.455987 ], [ 131.01824, -7.415216 ], [ 131.177501, -7.406671 ], [ 131.182872, -7.415948 ] ] ], [ [ [ 131.27711, -7.370782 ], [ 131.215831, -7.35711 ], [ 131.264985, -7.297133 ], [ 131.283946, -7.329767 ], [ 131.292735, -7.318048 ], [ 131.299164, -7.327407 ], [ 131.271007, -7.35711 ], [ 131.27711, -7.370782 ] ] ], [ [ [ 131.914073, -7.216485 ], [ 131.903982, -7.180352 ], [ 131.87794, -7.164483 ], [ 131.772227, -7.164972 ], [ 131.732188, -7.141209 ], [ 131.757009, -7.11004 ], [ 131.918468, -7.103611 ], [ 131.977061, -7.174086 ], [ 131.9817, -7.245701 ], [ 131.965587, -7.254653 ], [ 131.914073, -7.216485 ] ] ], [ [ [ 131.583995, -6.719496 ], [ 131.566173, -6.751642 ], [ 131.591319, -6.767673 ], [ 131.551036, -6.801528 ], [ 131.527354, -6.780857 ], [ 131.565684, -6.696466 ], [ 131.597423, -6.679132 ], [ 131.628673, -6.693943 ], [ 131.606212, -6.727146 ], [ 131.583995, -6.719496 ] ] ], [ [ [ 134.722179, -6.682794 ], [ 134.669444, -6.772882 ], [ 134.62143, -6.747003 ], [ 134.696056, -6.587986 ], [ 134.736339, -6.616876 ], [ 134.722179, -6.682794 ] ] ], [ [ [ 134.472179, -6.661798 ], [ 134.401703, -6.657485 ], [ 134.436534, -6.682061 ], [ 134.347179, -6.801528 ], [ 134.364268, -6.807794 ], [ 134.358897, -6.820733 ], [ 134.207367, -6.91131 ], [ 134.185069, -6.918634 ], [ 134.146169, -6.858982 ], [ 134.073416, -6.826755 ], [ 134.052989, -6.764337 ], [ 134.110606, -6.459161 ], [ 134.209972, -6.50742 ], [ 134.189464, -6.445245 ], [ 134.136974, -6.450372 ], [ 134.120372, -6.419854 ], [ 134.127452, -6.325291 ], [ 134.097504, -6.192071 ], [ 134.11199, -6.172947 ], [ 134.135997, -6.176935 ], [ 134.163829, -6.21502 ], [ 134.198741, -6.224298 ], [ 134.294607, -6.297784 ], [ 134.287771, -6.341892 ], [ 134.329763, -6.389337 ], [ 134.461274, -6.45086 ], [ 134.491222, -6.517267 ], [ 134.47755, -6.531345 ], [ 134.484386, -6.575616 ], [ 134.521495, -6.586847 ], [ 134.472179, -6.661798 ] ] ], [ [ [ 134.729828, -6.546157 ], [ 134.656261, -6.559015 ], [ 134.62615, -6.497166 ], [ 134.631358, -6.475844 ], [ 134.663259, -6.454848 ], [ 134.704845, -6.470473 ], [ 134.734386, -6.525811 ], [ 134.729828, -6.546157 ] ] ], [ [ [ 134.541759, -6.529474 ], [ 134.511567, -6.513604 ], [ 134.463878, -6.4249 ], [ 134.427257, -6.426365 ], [ 134.417735, -6.406427 ], [ 134.350352, -6.371759 ], [ 134.356456, -6.341567 ], [ 134.421153, -6.290134 ], [ 134.446137, -6.285414 ], [ 134.494965, -6.313897 ], [ 134.602306, -6.404555 ], [ 134.602224, -6.441583 ], [ 134.553722, -6.47324 ], [ 134.560557, -6.516046 ], [ 134.541759, -6.529474 ] ] ], [ [ [ 134.878917, -6.35589 ], [ 134.837657, -6.460056 ], [ 134.826345, -6.47324 ], [ 134.79835, -6.452244 ], [ 134.806407, -6.4249 ], [ 134.794119, -6.401951 ], [ 134.81422, -6.345798 ], [ 134.833751, -6.34238 ], [ 134.840587, -6.287693 ], [ 134.8838, -6.299493 ], [ 134.878917, -6.35589 ] ] ], [ [ [ 134.422862, -6.274021 ], [ 134.337657, -6.331964 ], [ 134.20281, -6.194268 ], [ 134.182628, -6.205743 ], [ 134.162283, -6.196547 ], [ 134.186046, -6.133966 ], [ 134.141124, -6.157892 ], [ 134.120372, -6.122166 ], [ 134.125987, -6.034275 ], [ 134.155284, -6.006524 ], [ 134.155284, -6.048028 ], [ 134.217784, -6.023614 ], [ 134.240489, -6.0735 ], [ 134.271495, -6.0617 ], [ 134.234141, -6.13006 ], [ 134.271495, -6.178399 ], [ 134.299815, -6.184503 ], [ 134.333263, -6.234552 ], [ 134.361501, -6.239353 ], [ 134.355968, -6.254571 ], [ 134.422862, -6.274021 ] ] ], [ [ [ 134.747813, -6.229913 ], [ 134.701834, -6.321873 ], [ 134.607758, -6.369561 ], [ 134.570567, -6.34881 ], [ 134.553722, -6.35589 ], [ 134.449474, -6.263767 ], [ 134.371593, -6.237563 ], [ 134.358653, -6.219822 ], [ 134.333507, -6.221449 ], [ 134.276622, -6.119317 ], [ 134.292491, -6.054864 ], [ 134.348888, -6.050877 ], [ 134.367686, -6.034356 ], [ 134.369314, -6.023858 ], [ 134.301768, -6.01629 ], [ 134.319102, -5.966078 ], [ 134.288097, -5.923923 ], [ 134.32252, -5.889418 ], [ 134.323497, -5.868259 ], [ 134.360362, -5.849542 ], [ 134.354015, -5.828302 ], [ 134.378266, -5.793715 ], [ 134.361501, -5.780532 ], [ 134.330903, -5.803969 ], [ 134.318207, -5.772556 ], [ 134.247895, -5.760431 ], [ 134.201996, -5.712498 ], [ 134.257823, -5.678806 ], [ 134.309744, -5.712579 ], [ 134.351817, -5.714451 ], [ 134.457042, -5.534112 ], [ 134.472504, -5.557875 ], [ 134.491222, -5.540948 ], [ 134.504731, -5.547784 ], [ 134.491222, -5.448175 ], [ 134.508311, -5.429376 ], [ 134.539724, -5.440606 ], [ 134.581228, -5.424249 ], [ 134.628266, -5.444757 ], [ 134.648204, -5.493097 ], [ 134.696544, -5.534112 ], [ 134.66863, -5.547784 ], [ 134.682384, -5.575128 ], [ 134.635102, -5.5888 ], [ 134.710216, -5.609145 ], [ 134.758067, -5.671319 ], [ 134.718761, -5.737563 ], [ 134.737559, -5.787367 ], [ 134.702891, -5.835707 ], [ 134.743337, -5.846938 ], [ 134.764903, -5.890395 ], [ 134.723888, -5.917739 ], [ 134.709646, -5.896173 ], [ 134.696544, -5.917739 ], [ 134.737559, -5.945001 ], [ 134.723888, -5.945001 ], [ 134.736095, -5.969496 ], [ 134.654307, -5.933282 ], [ 134.601085, -5.951837 ], [ 134.656993, -5.953871 ], [ 134.670665, -5.986749 ], [ 134.727306, -6.027602 ], [ 134.772227, -6.089614 ], [ 134.754649, -6.135512 ], [ 134.717052, -6.164727 ], [ 134.702891, -6.157892 ], [ 134.691091, -6.188084 ], [ 134.758067, -6.157892 ], [ 134.747813, -6.229913 ] ] ], [ [ [ 134.180512, -5.827325 ], [ 134.169688, -5.768324 ], [ 134.177745, -5.75449 ], [ 134.212738, -5.758722 ], [ 134.228282, -5.77337 ], [ 134.220388, -5.815606 ], [ 134.180512, -5.827325 ] ] ], [ [ [ 132.775564, -5.923923 ], [ 132.741547, -5.950372 ], [ 132.715994, -5.896661 ], [ 132.699229, -5.931329 ], [ 132.669688, -5.899998 ], [ 132.661388, -5.845392 ], [ 132.675059, -5.835707 ], [ 132.67449, -5.760024 ], [ 132.688731, -5.760024 ], [ 132.675059, -5.712172 ], [ 132.65504, -5.708754 ], [ 132.661388, -5.678806 ], [ 132.643809, -5.67547 ], [ 132.619802, -5.60296 ], [ 132.661388, -5.623468 ], [ 132.69752, -5.597426 ], [ 132.690603, -5.650079 ], [ 132.740489, -5.660089 ], [ 132.757579, -5.73211 ], [ 132.771251, -5.718438 ], [ 132.785899, -5.779718 ], [ 132.811046, -5.797052 ], [ 132.805431, -5.862481 ], [ 132.775564, -5.923923 ] ] ], [ [ [ 133.138927, -5.521173 ], [ 133.105968, -5.605645 ], [ 133.033539, -5.654392 ], [ 132.975434, -5.728692 ], [ 132.949392, -5.794203 ], [ 132.956798, -5.862481 ], [ 132.842296, -5.99684 ], [ 132.900076, -5.813897 ], [ 132.928884, -5.777114 ], [ 132.928884, -5.698012 ], [ 132.964122, -5.64072 ], [ 133.00408, -5.647149 ], [ 133.075857, -5.398045 ], [ 133.110118, -5.310968 ], [ 133.137869, -5.287286 ], [ 133.172618, -5.296482 ], [ 133.188731, -5.344496 ], [ 133.165375, -5.380141 ], [ 133.138927, -5.521173 ] ] ], [ [ [ 132.805431, -5.684991 ], [ 132.784923, -5.657647 ], [ 132.780528, -5.680352 ], [ 132.763682, -5.678806 ], [ 132.743175, -5.630304 ], [ 132.750824, -5.5735 ], [ 132.784923, -5.527276 ], [ 132.784923, -5.561456 ], [ 132.811046, -5.555597 ], [ 132.797374, -5.609063 ], [ 132.805431, -5.684991 ] ] ], [ [ [ 132.380707, -5.534112 ], [ 132.334321, -5.572931 ], [ 132.30714, -5.521173 ], [ 132.380707, -5.534112 ] ] ], [ [ [ 132.000336, -5.373224 ], [ 131.965587, -5.388767 ], [ 131.962413, -5.34352 ], [ 132.008637, -5.312758 ], [ 132.016287, -5.330824 ], [ 132.000336, -5.373224 ] ] ], [ [ [ 131.736501, -4.76629 ], [ 131.726085, -4.707778 ], [ 131.733084, -4.693048 ], [ 131.754405, -4.736505 ], [ 131.736501, -4.76629 ] ] ], [ [ [ 131.633474, -4.430434 ], [ 131.680431, -4.524021 ], [ 131.660899, -4.534275 ], [ 131.606212, -4.430434 ], [ 131.633474, -4.430434 ] ] ], [ [ [ 131.29656, -4.109063 ], [ 131.280528, -4.079522 ], [ 131.288341, -4.063409 ], [ 131.391856, -4.153497 ], [ 131.29656, -4.109063 ] ] ], [ [ [ 131.239594, -4.047052 ], [ 131.216482, -4.01865 ], [ 131.209158, -3.978936 ], [ 131.248709, -4.002862 ], [ 131.239594, -4.047052 ] ] ], [ [ [ 131.365977, -3.968438 ], [ 131.394379, -3.951593 ], [ 131.416026, -3.958591 ], [ 131.453298, -4.055759 ], [ 131.421886, -4.062921 ], [ 131.400645, -4.047052 ], [ 131.365977, -3.968438 ] ] ] ] } }
]
}
