{
"type": "FeatureCollection",
"name": "Papua",
"crs": { "type": "name", "properties": { "name": "urn:ogc:def:crs:OGC:1.3:CRS84" } },
"features": [
{ "type": "Feature", "properties": { "name": "Papua", "n_provinces": 2 }, "geometry": { "type": "MultiPolygon", "coordinates": [ [ [ [ 133.604177, -4.300714 ], [ 133.535167, -4.238702 ], [ 133.46046, -4.244073 ], [ 133.388194, -4.204685 ], [ 133.331391, -4.165216 ], [ 133.324229, -4.108331 ], [ 133.41863, -4.163018 ], [ 133.456065, -4.202407 ], [ 133.54127, -4.22088 ], [ 133.627696, -4.300226 ], [ 133.604177, -4.300714 ] ] ], [ [ [ 132.702891, -3.519301 ], [ 132.666352, -3.453383 ], [ 132.637462, -3.447524 ], [ 132.620291, -3.423761 ], [ 132.643565, -3.408624 ], [ 132.681163, -3.423435 ], [ 132.71046, -3.469496 ], [ 132.712901, -3.504164 ], [ 132.702891, -3.519301 ] ] ], [ [ [ 131.654633, -2.613214 ], [ 131.598155, -2.653904 ], [ 131.57252, -2.651056 ], [ 131.654633, -2.613214 ] ] ], [ [ [ 134.809825, -4.254083 ], [ 134.733409, -4.197524 ], [ 134.723888, -4.142511 ], [ 134.658051, -4.133396 ], [ 134.648204, -4.118748 ], [ 134.696544, -4.053155 ], [ 134.676036, -4.026462 ], [ 134.67921, -3.960707 ], [ 134.723888, -3.937758 ], [ 134.864431, -3.95322 ], [ 134.91627, -3.978692 ], [ 134.967459, -3.951837 ], [ 134.967784, -3.936782 ], [ 134.943614, -3.951349 ], [ 134.91627, -3.923435 ], [ 134.844574, -3.930108 ], [ 134.675792, -3.90838 ], [ 134.620291, -3.954685 ], [ 134.602224, -4.000665 ], [ 134.525238, -4.026462 ], [ 134.463878, -3.978692 ], [ 134.478363, -3.961602 ], [ 134.430431, -3.90781 ], [ 134.375255, -3.899102 ], [ 134.333507, -3.868829 ], [ 134.360362, -3.925958 ], [ 134.348969, -3.943455 ], [ 134.306163, -3.944513 ], [ 134.340343, -3.996026 ], [ 134.315278, -4.020278 ], [ 134.272227, -3.971449 ], [ 134.191173, -3.943536 ], [ 134.170421, -3.888116 ], [ 134.141124, -3.903009 ], [ 134.144216, -3.87477 ], [ 134.192638, -3.835545 ], [ 134.161632, -3.771661 ], [ 134.127452, -3.745294 ], [ 134.126475, -3.799249 ], [ 134.110362, -3.81756 ], [ 134.091807, -3.823989 ], [ 134.039317, -3.793145 ], [ 133.987641, -3.855157 ], [ 133.958995, -3.837579 ], [ 133.913341, -3.729425 ], [ 133.843598, -3.63836 ], [ 133.838145, -3.590427 ], [ 133.804454, -3.602309 ], [ 133.795421, -3.631524 ], [ 133.829275, -3.721856 ], [ 133.809825, -3.72031 ], [ 133.76295, -3.660252 ], [ 133.703136, -3.672621 ], [ 133.708018, -3.610121 ], [ 133.641449, -3.483657 ], [ 133.653168, -3.444431 ], [ 133.696788, -3.427423 ], [ 133.702159, -3.404392 ], [ 133.683116, -3.232517 ], [ 133.690929, -3.216078 ], [ 133.709727, -3.232029 ], [ 133.722423, -3.183038 ], [ 133.758067, -3.190362 ], [ 133.783946, -3.131443 ], [ 133.846446, -3.087091 ], [ 133.863943, -3.080499 ], [ 133.914073, -3.12656 ], [ 133.929454, -3.114679 ], [ 133.863943, -3.042087 ], [ 133.881602, -2.9638 ], [ 133.860525, -2.922947 ], [ 133.817556, -2.934747 ], [ 133.829845, -2.953871 ], [ 133.801606, -3.018162 ], [ 133.719981, -3.063572 ], [ 133.668224, -3.122166 ], [ 133.655528, -3.188897 ], [ 133.663341, -3.361505 ], [ 133.627696, -3.416274 ], [ 133.551036, -3.431573 ], [ 133.514008, -3.378351 ], [ 133.519379, -3.430841 ], [ 133.490571, -3.444268 ], [ 133.569102, -3.481866 ], [ 133.591807, -3.545343 ], [ 133.575938, -3.580499 ], [ 133.505626, -3.622328 ], [ 133.408865, -3.722426 ], [ 133.396658, -3.755955 ], [ 133.408702, -3.800551 ], [ 133.455577, -3.846938 ], [ 133.45338, -3.865411 ], [ 133.411794, -3.886163 ], [ 133.250987, -4.066827 ], [ 133.210948, -4.078383 ], [ 133.051524, -4.061212 ], [ 132.989919, -4.113946 ], [ 132.907725, -4.088149 ], [ 132.891368, -4.036716 ], [ 132.849946, -4.009698 ], [ 132.795909, -3.940606 ], [ 132.796397, -3.918145 ], [ 132.825857, -3.937758 ], [ 132.824555, -3.916436 ], [ 132.730968, -3.682306 ], [ 132.729666, -3.649102 ], [ 132.756114, -3.627537 ], [ 132.881114, -3.642836 ], [ 132.896251, -3.586358 ], [ 132.931814, -3.554132 ], [ 132.88087, -3.475356 ], [ 132.831879, -3.461033 ], [ 132.821137, -3.437433 ], [ 132.811697, -3.281671 ], [ 132.740733, -3.276544 ], [ 132.733246, -3.330987 ], [ 132.671153, -3.328546 ], [ 132.603038, -3.241876 ], [ 132.629893, -3.215102 ], [ 132.627208, -3.197361 ], [ 132.581798, -3.170343 ], [ 132.553071, -3.107029 ], [ 132.475841, -3.046482 ], [ 132.339854, -2.977634 ], [ 132.342296, -2.958185 ], [ 132.325694, -2.946547 ], [ 132.2199, -2.934259 ], [ 132.188324, -2.916681 ], [ 132.168793, -2.946466 ], [ 132.106456, -2.936619 ], [ 132.101248, -2.959893 ], [ 132.07545, -2.957696 ], [ 132.057953, -2.916681 ], [ 132.038748, -2.926446 ], [ 131.996918, -2.914809 ], [ 131.976085, -2.929783 ], [ 132.023936, -2.854669 ], [ 131.989757, -2.840997 ], [ 132.044444, -2.803399 ], [ 131.958018, -2.788181 ], [ 132.010265, -2.759047 ], [ 132.058279, -2.758559 ], [ 132.06544, -2.744806 ], [ 132.081554, -2.757908 ], [ 132.088064, -2.73561 ], [ 132.181488, -2.724867 ], [ 132.11085, -2.719415 ], [ 132.121349, -2.697931 ], [ 132.161632, -2.683282 ], [ 132.311778, -2.676446 ], [ 132.367198, -2.696954 ], [ 132.428477, -2.696954 ], [ 132.43336, -2.732192 ], [ 132.421153, -2.744806 ], [ 132.475841, -2.731134 ], [ 132.468923, -2.707615 ], [ 132.48463, -2.699477 ], [ 132.585704, -2.717462 ], [ 132.679047, -2.80169 ], [ 132.728282, -2.813165 ], [ 132.853038, -2.717462 ], [ 133.033539, -2.479425 ], [ 133.172862, -2.422052 ], [ 133.239594, -2.416762 ], [ 133.312348, -2.443048 ], [ 133.32602, -2.505141 ], [ 133.35377, -2.49627 ], [ 133.39031, -2.526625 ], [ 133.380707, -2.676446 ], [ 133.403005, -2.675226 ], [ 133.404552, -2.591404 ], [ 133.445567, -2.494724 ], [ 133.458669, -2.506931 ], [ 133.450369, -2.642348 ], [ 133.473155, -2.615981 ], [ 133.473481, -2.521661 ], [ 133.492524, -2.523533 ], [ 133.518728, -2.589614 ], [ 133.6067, -2.532485 ], [ 133.633962, -2.539321 ], [ 133.67335, -2.574802 ], [ 133.668468, -2.670831 ], [ 133.682384, -2.717462 ], [ 133.713145, -2.511977 ], [ 133.747406, -2.529229 ], [ 133.799083, -2.642348 ], [ 133.816905, -2.649021 ], [ 133.827891, -2.5499 ], [ 133.803966, -2.506768 ], [ 133.819591, -2.477227 ], [ 133.767263, -2.471938 ], [ 133.747244, -2.437921 ], [ 133.850108, -2.424249 ], [ 133.908376, -2.477227 ], [ 133.866466, -2.411391 ], [ 133.986583, -2.406183 ], [ 134.005138, -2.388442 ], [ 133.898692, -2.377618 ], [ 133.894542, -2.363377 ], [ 133.963552, -2.32643 ], [ 133.867361, -2.341241 ], [ 133.949962, -2.292901 ], [ 133.949962, -2.203546 ], [ 133.928966, -2.274184 ], [ 133.90211, -2.258722 ], [ 133.840099, -2.299737 ], [ 133.792003, -2.260186 ], [ 133.863048, -2.21795 ], [ 133.881602, -2.189874 ], [ 133.901378, -2.198419 ], [ 133.949962, -2.169366 ], [ 133.89796, -2.17547 ], [ 133.895274, -2.16253 ], [ 133.929454, -2.148858 ], [ 133.94044, -2.107599 ], [ 133.858165, -2.107354 ], [ 133.833263, -2.142185 ], [ 133.709972, -2.175551 ], [ 133.645763, -2.236017 ], [ 133.623302, -2.225274 ], [ 133.593598, -2.237563 ], [ 133.593598, -2.183038 ], [ 133.548595, -2.24505 ], [ 133.504161, -2.203546 ], [ 133.514659, -2.226007 ], [ 133.445567, -2.237888 ], [ 133.388194, -2.217218 ], [ 133.31658, -2.222589 ], [ 133.296153, -2.204197 ], [ 133.169444, -2.216892 ], [ 133.13502, -2.238458 ], [ 132.943614, -2.28338 ], [ 132.815929, -2.24505 ], [ 132.688731, -2.307224 ], [ 132.636729, -2.277276 ], [ 132.613536, -2.211033 ], [ 132.560395, -2.185642 ], [ 132.347911, -2.270115 ], [ 132.305675, -2.265558 ], [ 132.214529, -2.165785 ], [ 132.04835, -2.083185 ], [ 132.044444, -2.059503 ], [ 132.126964, -1.998142 ], [ 132.027354, -2.018487 ], [ 131.972911, -1.964614 ], [ 131.972341, -1.912367 ], [ 131.941905, -1.895115 ], [ 131.927745, -1.805759 ], [ 132.018321, -1.721287 ], [ 132.023936, -1.675958 ], [ 131.917491, -1.707289 ], [ 131.886729, -1.652032 ], [ 131.896739, -1.601495 ], [ 131.982188, -1.538751 ], [ 131.879893, -1.5735 ], [ 131.888845, -1.556573 ], [ 131.871267, -1.553155 ], [ 131.804861, -1.607599 ], [ 131.811046, -1.52044 ], [ 131.791189, -1.497735 ], [ 131.771658, -1.563246 ], [ 131.723155, -1.571954 ], [ 131.706716, -1.534763 ], [ 131.722911, -1.518243 ], [ 131.703787, -1.511 ], [ 131.647227, -1.525649 ], [ 131.57309, -1.480157 ], [ 131.500499, -1.469659 ], [ 131.469086, -1.479099 ], [ 131.456879, -1.502862 ], [ 131.427501, -1.497735 ], [ 131.389822, -1.456801 ], [ 131.401866, -1.427341 ], [ 131.383637, -1.401951 ], [ 131.322276, -1.401056 ], [ 131.27711, -1.374282 ], [ 131.274913, -1.39186 ], [ 131.336925, -1.453058 ], [ 131.291515, -1.490981 ], [ 131.20574, -1.523614 ], [ 131.186534, -1.48504 ], [ 131.126313, -1.453302 ], [ 131.003591, -1.456231 ], [ 130.950938, -1.433689 ], [ 130.953136, -1.405043 ], [ 131.004405, -1.372328 ], [ 131.03004, -1.275567 ], [ 131.074474, -1.237563 ], [ 131.181651, -1.217218 ], [ 131.254161, -1.080255 ], [ 131.253673, -1.027602 ], [ 131.271007, -1.003676 ], [ 131.26352, -0.929295 ], [ 131.291515, -0.914972 ], [ 131.235362, -0.846449 ], [ 131.243012, -0.819431 ], [ 131.373546, -0.787856 ], [ 131.398774, -0.76629 ], [ 131.50294, -0.733331 ], [ 131.54477, -0.736912 ], [ 131.516775, -0.785252 ], [ 131.876475, -0.68963 ], [ 131.951915, -0.5888 ], [ 132.003429, -0.551853 ], [ 132.068858, -0.531996 ], [ 132.09962, -0.469903 ], [ 132.15089, -0.435724 ], [ 132.27003, -0.384535 ], [ 132.437185, -0.347101 ], [ 132.67921, -0.36891 ], [ 132.709158, -0.36004 ], [ 132.905284, -0.45322 ], [ 132.975108, -0.444757 ], [ 132.983409, -0.469903 ], [ 133.04835, -0.507908 ], [ 133.154796, -0.531996 ], [ 133.391612, -0.72324 ], [ 133.572765, -0.750909 ], [ 133.604747, -0.725681 ], [ 133.656098, -0.747003 ], [ 133.745372, -0.750746 ], [ 133.774099, -0.717218 ], [ 133.829845, -0.743748 ], [ 133.977224, -0.72324 ], [ 133.994884, -0.733331 ], [ 134.056407, -0.79518 ], [ 134.17213, -0.863865 ], [ 134.151541, -0.882989 ], [ 134.074474, -0.894952 ], [ 134.05893, -0.948175 ], [ 134.036143, -0.957778 ], [ 134.127452, -1.14837 ], [ 134.203787, -1.212579 ], [ 134.281993, -1.350193 ], [ 134.230479, -1.436293 ], [ 134.215831, -1.560317 ], [ 134.087087, -1.682794 ], [ 134.144867, -1.939142 ], [ 134.155284, -2.045831 ], [ 134.134939, -2.049574 ], [ 134.120616, -2.135349 ], [ 134.15211, -2.17547 ], [ 134.164806, -2.320489 ], [ 134.204356, -2.395115 ], [ 134.330251, -2.522231 ], [ 134.401703, -2.744806 ], [ 134.431651, -2.779392 ], [ 134.463878, -2.862074 ], [ 134.532725, -2.834161 ], [ 134.47755, -2.634942 ], [ 134.484386, -2.539321 ], [ 134.509288, -2.507745 ], [ 134.553722, -2.491469 ], [ 134.534516, -2.478774 ], [ 134.546397, -2.462986 ], [ 134.638438, -2.511163 ], [ 134.658051, -2.562758 ], [ 134.66684, -2.825616 ], [ 134.701345, -2.958673 ], [ 134.727061, -2.985772 ], [ 134.772227, -2.977634 ], [ 134.851329, -2.899835 ], [ 134.861095, -2.940037 ], [ 134.846853, -3.018487 ], [ 134.826345, -3.039646 ], [ 134.818533, -3.136326 ], [ 134.853689, -3.147882 ], [ 134.874766, -3.232029 ], [ 134.898936, -3.262791 ], [ 134.914399, -3.268813 ], [ 134.964122, -3.238214 ], [ 134.956716, -3.27988 ], [ 134.984711, -3.329685 ], [ 135.069102, -3.338556 ], [ 135.111501, -3.361749 ], [ 135.275645, -3.368585 ], [ 135.340831, -3.389744 ], [ 135.505382, -3.348077 ], [ 135.569102, -3.281671 ], [ 135.570486, -3.248712 ], [ 135.601573, -3.204034 ], [ 135.75172, -3.128351 ], [ 135.7671, -3.108819 ], [ 135.745616, -3.077081 ], [ 135.757335, -3.055841 ], [ 135.79949, -3.053318 ], [ 135.926524, -2.965916 ], [ 135.936778, -2.943455 ], [ 135.926768, -2.878839 ], [ 135.96046, -2.83766 ], [ 135.96461, -2.775811 ], [ 136.01295, -2.747003 ], [ 136.023204, -2.707696 ], [ 136.072276, -2.672621 ], [ 136.197439, -2.624444 ], [ 136.266368, -2.560317 ], [ 136.293956, -2.433526 ], [ 136.344086, -2.368259 ], [ 136.34197, -2.28338 ], [ 136.38087, -2.234063 ], [ 136.532563, -2.189874 ], [ 136.53297, -2.225844 ], [ 136.594737, -2.237563 ], [ 136.605235, -2.252048 ], [ 136.68393, -2.258722 ], [ 136.7046, -2.237563 ], [ 136.749278, -2.252048 ], [ 136.867198, -2.188165 ], [ 136.938487, -2.17254 ], [ 136.951508, -2.142185 ], [ 136.981456, -2.12656 ], [ 137.178477, -2.106134 ], [ 137.233653, -2.060968 ], [ 137.191173, -2.004571 ], [ 137.210134, -1.979262 ], [ 137.204845, -1.94964 ], [ 137.101736, -1.888279 ], [ 137.123546, -1.797459 ], [ 137.348806, -1.710138 ], [ 137.516368, -1.600844 ], [ 137.839122, -1.471124 ], [ 137.924815, -1.484145 ], [ 138.07488, -1.610284 ], [ 138.229177, -1.649102 ], [ 138.3567, -1.710138 ], [ 138.665212, -1.789158 ], [ 138.842784, -1.94964 ], [ 138.949555, -1.959893 ], [ 139.1067, -2.012791 ], [ 139.283214, -2.12184 ], [ 139.678233, -2.292901 ], [ 139.780772, -2.354669 ], [ 139.864757, -2.372003 ], [ 140.059337, -2.354262 ], [ 140.104747, -2.320082 ], [ 140.14503, -2.341241 ], [ 140.15797, -2.320896 ], [ 140.210216, -2.402114 ], [ 140.332286, -2.455743 ], [ 140.379649, -2.441095 ], [ 140.363943, -2.40488 ], [ 140.377126, -2.395278 ], [ 140.500662, -2.435724 ], [ 140.607595, -2.439386 ], [ 140.74464, -2.499119 ], [ 140.736095, -2.563653 ], [ 140.698578, -2.608168 ], [ 140.723806, -2.633966 ], [ 140.75172, -2.600763 ], [ 140.785492, -2.62127 ], [ 140.974457, -2.600518 ], [ 140.976904, -6.335116 ], [ 140.952822, -6.37377 ], [ 140.967085, -6.393924 ], [ 140.952822, -6.431751 ], [ 140.912515, -6.438572 ], [ 140.948585, -6.465547 ], [ 140.950187, -6.498724 ], [ 140.92099, -6.516397 ], [ 140.915099, -6.558462 ], [ 140.892981, -6.565386 ], [ 140.90497, -6.589467 ], [ 140.8504, -6.623574 ], [ 140.865799, -6.649205 ], [ 140.849211, -6.702846 ], [ 140.884506, -6.753902 ], [ 140.870863, -6.778397 ], [ 140.901611, -6.812193 ], [ 140.916029, -6.862732 ], [ 140.939696, -6.856325 ], [ 140.943314, -6.888054 ], [ 140.977162, -6.896632 ], [ 140.97698, -9.106134 ], [ 140.856944, -9.049086 ], [ 140.621593, -8.806736 ], [ 140.507498, -8.638116 ], [ 140.378103, -8.522231 ], [ 140.363455, -8.490818 ], [ 140.301443, -8.467462 ], [ 140.251638, -8.408949 ], [ 140.031912, -8.246352 ], [ 139.988129, -8.192478 ], [ 139.970714, -8.142185 ], [ 139.979747, -8.121515 ], [ 140.05836, -8.081964 ], [ 140.060557, -7.948337 ], [ 140.083018, -7.93255 ], [ 140.111583, -7.946547 ], [ 140.128673, -7.93613 ], [ 140.151703, -7.884698 ], [ 140.118988, -7.914809 ], [ 140.061046, -7.924412 ], [ 140.04184, -8.045505 ], [ 139.973643, -8.096938 ], [ 139.630544, -8.124933 ], [ 139.514985, -8.178888 ], [ 139.395193, -8.200942 ], [ 139.319509, -8.190199 ], [ 139.254649, -8.146091 ], [ 139.240001, -8.11061 ], [ 139.245128, -8.015069 ], [ 139.218923, -7.979669 ], [ 139.269379, -7.986261 ], [ 139.287852, -7.973403 ], [ 139.217133, -7.951349 ], [ 139.205903, -7.963149 ], [ 139.212169, -8.004164 ], [ 139.232188, -8.017836 ], [ 139.224457, -8.074395 ], [ 139.201182, -8.095636 ], [ 139.089529, -8.133559 ], [ 138.973318, -8.229913 ], [ 138.94337, -8.291192 ], [ 138.914399, -8.292087 ], [ 138.842784, -8.16131 ], [ 138.842784, -8.117446 ], [ 138.925304, -8.070489 ], [ 138.905772, -8.043634 ], [ 138.915375, -7.903253 ], [ 138.993988, -7.865492 ], [ 139.007172, -7.754327 ], [ 139.059418, -7.622735 ], [ 139.089203, -7.596775 ], [ 139.093028, -7.559991 ], [ 139.035899, -7.515232 ], [ 138.944347, -7.497003 ], [ 138.925548, -7.427341 ], [ 138.865489, -7.336033 ], [ 138.73878, -7.243585 ], [ 138.691254, -7.233575 ], [ 138.667491, -7.197849 ], [ 138.904552, -7.199395 ], [ 139.003917, -7.240411 ], [ 139.157074, -7.243097 ], [ 139.240001, -7.151056 ], [ 139.206065, -7.150486 ], [ 139.159434, -7.20322 ], [ 139.060557, -7.212498 ], [ 138.946137, -7.157159 ], [ 138.84254, -7.145603 ], [ 138.761974, -7.113865 ], [ 138.561534, -6.918634 ], [ 138.612559, -6.877211 ], [ 138.739757, -6.897149 ], [ 138.798106, -6.856215 ], [ 138.931488, -6.842543 ], [ 138.989431, -6.865899 ], [ 139.017751, -6.908624 ], [ 139.072765, -6.948826 ], [ 139.126475, -6.971612 ], [ 139.192231, -6.972914 ], [ 139.068696, -6.918227 ], [ 138.966319, -6.835707 ], [ 138.837901, -6.814548 ], [ 138.745779, -6.740167 ], [ 138.683442, -6.714532 ], [ 138.670909, -6.671808 ], [ 138.682465, -6.645115 ], [ 138.829112, -6.705987 ], [ 138.708995, -6.629653 ], [ 138.466075, -6.402114 ], [ 138.395356, -6.253188 ], [ 138.365489, -6.091729 ], [ 138.262462, -5.914727 ], [ 138.270844, -5.886977 ], [ 138.30421, -5.868259 ], [ 138.37672, -5.855645 ], [ 138.403982, -5.835707 ], [ 138.322032, -5.851007 ], [ 138.208751, -5.825291 ], [ 138.157563, -5.773696 ], [ 138.251964, -5.718927 ], [ 138.362966, -5.678806 ], [ 138.252696, -5.679864 ], [ 138.152029, -5.723077 ], [ 138.085785, -5.739923 ], [ 138.071056, -5.728611 ], [ 138.054861, -5.589614 ], [ 138.109711, -5.534112 ], [ 138.06422, -5.511163 ], [ 138.071056, -5.409926 ], [ 138.061371, -5.403741 ], [ 138.05128, -5.431817 ], [ 138.026541, -5.431085 ], [ 138.035981, -5.474786 ], [ 138.025645, -5.484959 ], [ 137.999278, -5.478936 ], [ 137.914561, -5.386895 ], [ 137.908458, -5.363051 ], [ 137.924815, -5.328709 ], [ 137.904145, -5.3235 ], [ 137.853363, -5.361586 ], [ 137.813975, -5.358168 ], [ 137.780121, -5.315037 ], [ 137.808116, -5.253025 ], [ 137.732432, -5.27337 ], [ 137.690684, -5.211358 ], [ 137.662852, -5.22031 ], [ 137.579845, -5.181899 ], [ 137.574229, -5.167087 ], [ 137.595063, -5.149998 ], [ 137.572765, -5.120782 ], [ 137.519298, -5.148533 ], [ 137.464854, -5.09588 ], [ 137.432628, -5.103448 ], [ 137.377778, -5.082452 ], [ 137.355642, -5.061782 ], [ 137.369151, -5.026462 ], [ 137.34962, -5.04046 ], [ 137.307872, -4.999119 ], [ 137.301606, -5.026625 ], [ 137.268077, -5.013849 ], [ 137.278819, -4.936619 ], [ 137.232432, -4.969415 ], [ 137.219005, -5.01336 ], [ 137.15211, -4.974379 ], [ 137.149669, -4.945082 ], [ 137.115408, -4.979181 ], [ 137.090099, -4.960138 ], [ 137.101736, -4.889255 ], [ 137.04184, -4.943048 ], [ 137.006521, -4.945733 ], [ 136.946544, -4.917657 ], [ 136.978852, -4.879571 ], [ 136.969249, -4.869561 ], [ 136.831798, -4.93141 ], [ 136.803966, -4.910252 ], [ 136.799164, -4.88006 ], [ 136.743175, -4.881524 ], [ 136.375662, -4.68377 ], [ 136.267345, -4.676202 ], [ 136.035818, -4.586033 ], [ 135.95045, -4.50628 ], [ 135.656098, -4.485772 ], [ 135.429535, -4.430434 ], [ 135.227794, -4.461196 ], [ 134.959158, -4.318617 ], [ 134.906586, -4.264093 ], [ 134.809825, -4.254083 ] ] ], [ [ [ 130.429861, -1.980239 ], [ 130.373546, -2.012791 ], [ 130.340017, -1.993422 ], [ 130.338145, -1.94964 ], [ 130.256114, -2.045831 ], [ 130.126475, -2.06699 ], [ 130.086925, -2.026137 ], [ 130.012869, -2.025486 ], [ 129.873383, -1.982029 ], [ 129.810557, -1.935968 ], [ 129.743826, -1.912205 ], [ 129.714854, -1.881443 ], [ 130.030772, -1.743829 ], [ 130.137055, -1.725274 ], [ 130.2317, -1.734308 ], [ 130.289073, -1.692153 ], [ 130.342947, -1.67669 ], [ 130.357188, -1.69492 ], [ 130.351817, -1.741388 ], [ 130.406261, -1.778985 ], [ 130.439952, -1.835707 ], [ 130.411794, -1.881768 ], [ 130.344249, -1.928481 ], [ 130.434337, -1.963311 ], [ 130.429861, -1.980239 ] ] ], [ [ [ 129.927257, -1.210382 ], [ 129.920421, -1.189386 ], [ 129.830903, -1.237074 ], [ 129.879405, -1.202895 ], [ 129.762706, -1.210382 ], [ 129.743907, -1.199884 ], [ 129.767426, -1.172052 ], [ 129.879405, -1.141534 ], [ 129.954438, -1.162693 ], [ 129.953298, -1.18963 ], [ 129.927257, -1.210382 ] ] ], [ [ [ 131.07252, -1.077569 ], [ 130.997569, -1.332452 ], [ 130.961925, -1.353774 ], [ 130.920909, -1.319594 ], [ 130.863048, -1.337172 ], [ 130.820486, -1.281671 ], [ 130.758067, -1.238214 ], [ 130.729259, -1.150811 ], [ 130.688243, -1.107354 ], [ 130.710134, -1.092869 ], [ 130.701834, -1.045099 ], [ 130.64975, -0.97381 ], [ 130.891856, -0.889907 ], [ 130.912934, -0.89422 ], [ 130.939708, -0.932306 ], [ 131.030772, -0.913018 ], [ 131.07488, -0.966892 ], [ 131.057384, -1.000665 ], [ 131.07252, -1.077569 ] ] ], [ [ [ 130.924571, -0.780694 ], [ 130.87322, -0.808852 ], [ 130.889659, -0.832778 ], [ 130.819347, -0.870294 ], [ 130.51002, -0.922459 ], [ 130.523692, -0.908787 ], [ 130.487315, -0.903904 ], [ 130.468516, -0.922459 ], [ 130.452647, -0.910577 ], [ 130.400157, -0.929295 ], [ 130.440684, -0.893162 ], [ 130.448416, -0.818617 ], [ 130.461681, -0.805108 ], [ 130.468516, -0.819431 ], [ 130.478526, -0.7999 ], [ 130.503184, -0.805108 ], [ 130.49464, -0.827895 ], [ 130.519054, -0.839614 ], [ 130.550955, -0.834161 ], [ 130.564708, -0.805108 ], [ 130.586436, -0.833103 ], [ 130.631196, -0.806248 ], [ 130.654307, -0.823989 ], [ 130.680675, -0.812595 ], [ 130.732758, -0.826267 ], [ 130.800141, -0.801446 ], [ 130.817882, -0.819431 ], [ 130.80421, -0.757257 ], [ 130.924571, -0.780694 ] ] ], [ [ [ 130.641124, -0.52752 ], [ 130.571544, -0.531996 ], [ 130.596853, -0.464532 ], [ 130.564708, -0.476739 ], [ 130.547618, -0.505304 ], [ 130.461681, -0.52516 ], [ 130.496349, -0.490411 ], [ 130.469493, -0.49033 ], [ 130.454845, -0.4638 ], [ 130.475841, -0.476739 ], [ 130.505056, -0.441339 ], [ 130.535167, -0.468927 ], [ 130.632091, -0.41131 ], [ 130.677582, -0.435805 ], [ 130.687999, -0.463149 ], [ 130.641124, -0.52752 ] ] ], [ [ [ 129.916189, -0.427423 ], [ 129.87794, -0.502374 ], [ 129.85141, -0.481622 ], [ 129.844249, -0.444268 ], [ 129.85963, -0.422947 ], [ 129.902354, -0.408461 ], [ 129.916189, -0.427423 ] ] ], [ [ [ 131.316661, -0.299574 ], [ 131.283946, -0.353936 ], [ 131.26352, -0.346449 ], [ 131.25294, -0.384373 ], [ 131.237966, -0.389255 ], [ 131.157725, -0.33294 ], [ 131.098481, -0.322931 ], [ 131.023285, -0.366876 ], [ 131.015636, -0.349867 ], [ 130.97047, -0.358005 ], [ 130.879405, -0.254083 ], [ 130.796723, -0.23919 ], [ 130.792247, -0.189874 ], [ 130.730235, -0.130466 ], [ 130.715505, -0.093194 ], [ 130.650076, -0.079767 ], [ 130.613048, -0.093194 ], [ 130.654063, -0.113702 ], [ 130.636078, -0.113458 ], [ 130.629242, -0.14072 ], [ 130.682384, -0.169854 ], [ 130.750987, -0.28753 ], [ 130.811046, -0.318536 ], [ 130.828136, -0.291436 ], [ 130.887055, -0.296482 ], [ 130.948253, -0.366876 ], [ 130.916759, -0.40602 ], [ 130.865489, -0.429295 ], [ 130.733084, -0.441502 ], [ 130.680675, -0.339614 ], [ 130.695974, -0.318129 ], [ 130.688243, -0.291192 ], [ 130.579112, -0.333917 ], [ 130.564708, -0.373712 ], [ 130.582286, -0.366143 ], [ 130.578624, -0.383884 ], [ 130.547374, -0.43613 ], [ 130.558442, -0.387384 ], [ 130.541189, -0.382501 ], [ 130.5442, -0.32586 ], [ 130.516124, -0.291192 ], [ 130.523692, -0.257582 ], [ 130.485688, -0.255304 ], [ 130.441173, -0.284926 ], [ 130.392751, -0.263849 ], [ 130.375662, -0.274591 ], [ 130.310802, -0.257582 ], [ 130.300548, -0.234145 ], [ 130.217052, -0.20086 ], [ 130.398611, -0.214451 ], [ 130.424083, -0.199314 ], [ 130.429861, -0.186293 ], [ 130.386485, -0.175063 ], [ 130.41212, -0.157322 ], [ 130.406261, -0.127374 ], [ 130.384613, -0.157485 ], [ 130.372244, -0.13421 ], [ 130.338145, -0.140313 ], [ 130.344981, -0.188735 ], [ 130.29713, -0.165216 ], [ 130.28061, -0.104994 ], [ 130.317638, -0.106785 ], [ 130.338145, -0.079522 ], [ 130.358653, -0.127374 ], [ 130.369151, -0.108331 ], [ 130.358653, -0.079522 ], [ 130.38087, -0.073663 ], [ 130.427501, -0.106785 ], [ 130.420665, -0.079522 ], [ 130.434337, -0.093194 ], [ 130.51002, -0.044732 ], [ 130.5442, -0.072686 ], [ 130.550466, -0.058445 ], [ 130.558442, -0.072686 ], [ 130.571544, -0.044732 ], [ 130.586436, -0.058445 ], [ 130.716319, -0.033258 ], [ 130.722341, -0.052179 ], [ 130.765473, -0.049981 ], [ 130.783865, -0.044732 ], [ 130.749685, -0.031101 ], [ 130.761485, -0.018365 ], [ 130.824718, -0.003839 ], [ 130.973643, -0.057184 ], [ 131.056407, -0.04103 ], [ 131.043793, -0.06524 ], [ 131.153656, -0.085707 ], [ 131.211599, -0.137872 ], [ 131.297374, -0.159275 ], [ 131.318207, -0.203058 ], [ 131.297618, -0.237237 ], [ 131.34547, -0.288181 ], [ 131.316661, -0.299574 ] ] ], [ [ [ 131.237071, 1.02497 ], [ 131.244884, 1.035346 ], [ 131.236339, 1.019355 ], [ 131.237071, 1.02497 ] ] ], [ [ [ 131.254893, 1.044257 ], [ 131.255626, 1.068793 ], [ 131.26352, 1.075914 ], [ 131.270193, 1.060981 ], [ 131.254893, 1.044257 ] ] ], [ [ [ 138.894054, -8.40545 ], [ 138.582367, -8.372979 ], [ 138.55836, -8.366632 ], [ 138.552257, -8.322686 ], [ 138.657237, -8.241143 ], [ 138.675059, -8.189142 ], [ 138.816905, -8.161879 ], [ 138.84197, -8.276951 ], [ 138.90447, -8.351739 ], [ 138.909841, -8.396091 ], [ 138.894054, -8.40545 ] ] ], [ [ [ 139.075531, -7.576267 ], [ 138.993663, -7.720147 ], [ 138.977224, -7.840916 ], [ 138.891124, -7.898045 ], [ 138.886485, -8.007013 ], [ 138.904145, -8.07586 ], [ 138.836681, -8.080011 ], [ 138.771821, -8.143162 ], [ 138.660899, -8.169041 ], [ 138.60255, -8.254653 ], [ 138.507823, -8.315688 ], [ 138.444184, -8.379083 ], [ 138.335704, -8.419122 ], [ 138.177989, -8.384942 ], [ 137.849132, -8.377537 ], [ 137.638194, -8.425877 ], [ 137.636974, -8.389418 ], [ 137.726248, -8.144789 ], [ 137.759044, -8.073419 ], [ 137.800548, -8.041681 ], [ 137.809744, -7.983575 ], [ 137.894867, -7.816176 ], [ 137.965831, -7.739435 ], [ 138.028087, -7.61004 ], [ 138.244151, -7.456476 ], [ 138.39503, -7.40488 ], [ 138.62086, -7.364679 ], [ 138.717052, -7.359552 ], [ 138.804535, -7.3742 ], [ 138.922862, -7.531915 ], [ 139.075531, -7.576267 ] ] ], [ [ [ 138.787446, -6.829522 ], [ 138.728282, -6.867771 ], [ 138.681977, -6.847752 ], [ 138.672862, -6.810154 ], [ 138.623057, -6.767348 ], [ 138.6185, -6.729099 ], [ 138.626964, -6.720147 ], [ 138.67921, -6.758071 ], [ 138.746837, -6.768162 ], [ 138.787446, -6.829522 ] ] ], [ [ [ 133.585216, -2.512628 ], [ 133.523285, -2.48797 ], [ 133.490001, -2.431248 ], [ 133.50587, -2.424493 ], [ 133.605479, -2.468032 ], [ 133.585216, -2.512628 ] ] ], [ [ [ 134.537283, -2.445733 ], [ 134.546397, -2.422621 ], [ 134.521495, -2.406671 ], [ 134.524262, -2.392267 ], [ 134.553722, -2.367364 ], [ 134.566905, -2.292901 ], [ 134.581309, -2.307875 ], [ 134.583669, -2.438409 ], [ 134.537283, -2.445733 ] ] ], [ [ [ 134.426524, -2.033298 ], [ 134.390147, -2.131443 ], [ 134.359874, -2.153253 ], [ 134.332367, -2.111098 ], [ 134.350597, -2.032647 ], [ 134.38502, -2.003595 ], [ 134.426524, -2.033298 ] ] ], [ [ [ 134.244802, -1.796075 ], [ 134.208018, -1.826837 ], [ 134.223888, -1.849054 ], [ 134.212413, -1.88421 ], [ 134.175141, -1.943455 ], [ 134.161632, -1.895115 ], [ 134.168956, -1.829848 ], [ 134.23585, -1.738539 ], [ 134.24822, -1.74391 ], [ 134.244802, -1.796075 ] ] ], [ [ [ 136.872325, -1.819268 ], [ 136.729828, -1.826104 ], [ 136.715017, -1.847263 ], [ 136.644867, -1.876397 ], [ 136.532563, -1.867771 ], [ 136.546153, -1.889093 ], [ 136.536306, -1.901788 ], [ 136.498546, -1.888279 ], [ 136.453949, -1.895115 ], [ 136.337657, -1.860935 ], [ 136.290294, -1.880466 ], [ 136.266368, -1.909356 ], [ 136.252696, -1.892348 ], [ 136.232188, -1.901788 ], [ 136.184825, -1.85589 ], [ 136.067149, -1.839776 ], [ 135.894867, -1.757501 ], [ 135.834321, -1.751642 ], [ 135.718028, -1.703302 ], [ 135.690929, -1.710138 ], [ 135.656098, -1.690199 ], [ 135.616222, -1.704197 ], [ 135.580821, -1.684259 ], [ 135.497895, -1.682794 ], [ 135.471202, -1.641778 ], [ 135.443207, -1.641778 ], [ 135.422211, -1.610772 ], [ 135.477306, -1.589939 ], [ 135.896739, -1.648045 ], [ 135.957286, -1.631524 ], [ 136.032481, -1.651951 ], [ 136.060313, -1.641778 ], [ 136.191254, -1.653904 ], [ 136.368175, -1.724298 ], [ 136.7046, -1.730564 ], [ 136.814464, -1.754164 ], [ 136.899262, -1.79461 ], [ 136.872325, -1.819268 ] ] ], [ [ [ 135.31186, -1.510186 ], [ 135.18686, -1.525649 ], [ 135.096853, -1.508559 ], [ 135.10906, -1.47381 ], [ 135.333995, -1.484145 ], [ 135.31186, -1.510186 ] ] ], [ [ [ 134.942556, -1.133966 ], [ 134.863536, -1.121026 ], [ 134.800059, -1.027765 ], [ 134.825938, -0.965753 ], [ 134.862804, -0.937595 ], [ 134.943614, -0.966892 ], [ 134.95574, -1.008884 ], [ 134.927989, -1.072035 ], [ 134.961925, -1.070571 ], [ 134.978526, -1.027602 ], [ 134.99822, -1.01865 ], [ 134.991384, -1.08294 ], [ 134.942556, -1.133966 ] ] ], [ [ [ 136.381114, -1.123224 ], [ 136.29363, -1.183201 ], [ 136.142833, -1.223403 ], [ 135.991384, -1.168878 ], [ 135.88502, -1.183038 ], [ 135.834321, -1.128513 ], [ 135.834321, -1.049005 ], [ 135.765391, -0.839288 ], [ 135.740977, -0.819024 ], [ 135.719086, -0.824802 ], [ 135.660818, -0.88714 ], [ 135.484874, -0.757257 ], [ 135.49171, -0.805108 ], [ 135.458669, -0.792739 ], [ 135.393728, -0.723403 ], [ 135.370372, -0.635919 ], [ 135.389334, -0.627618 ], [ 135.42335, -0.65488 ], [ 135.49879, -0.672459 ], [ 135.583344, -0.666681 ], [ 135.601573, -0.695896 ], [ 135.677257, -0.685642 ], [ 135.695079, -0.729587 ], [ 135.725108, -0.716404 ], [ 135.777517, -0.748712 ], [ 135.82838, -0.70086 ], [ 135.869314, -0.70379 ], [ 136.065766, -0.871677 ], [ 136.114757, -0.963474 ], [ 136.163585, -1.004978 ], [ 136.1963, -1.066583 ], [ 136.273448, -1.047296 ], [ 136.29713, -1.054376 ], [ 136.316742, -1.085626 ], [ 136.375662, -1.093683 ], [ 136.381114, -1.123224 ] ] ], [ [ [ 134.338634, 0.737535 ], [ 134.300466, 0.743476 ], [ 134.342947, 0.765204 ], [ 134.338634, 0.737535 ] ] ] ] } }
]
}
