{
"type": "FeatureCollection",
"name": "Sulawesi",
"crs": { "type": "name", "properties": { "name": "urn:ogc:def:crs:OGC:1.3:CRS84" } },
"features": [
{ "type": "Feature", "properties": { "name": "Sulawesi", "n_provinces": 6 }, "geometry": { "type": "MultiPolygon", "coordinates": [ [ [ [ 121.834809, -7.388279 ], [ 121.759044, -7.415785 ], [ 121.751801, -7.394301 ], [ 121.759939, -7.363539 ], [ 121.818207, -7.333591 ], [ 121.837087, -7.356541 ], [ 121.834809, -7.388279 ] ] ], [ [ [ 121.025645, -7.331638 ], [ 120.992686, -7.333591 ], [ 120.881358, -7.295017 ], [ 120.816254, -7.302423 ], [ 120.794281, -7.271173 ], [ 120.815684, -7.257501 ], [ 121.049978, -7.285821 ], [ 121.066905, -7.302504 ], [ 121.025645, -7.331638 ] ] ], [ [ [ 120.781261, -7.055922 ], [ 120.771495, -7.130548 ], [ 120.742261, -7.134935 ], [ 120.68336, -7.124282 ], [ 120.670349, -7.15096 ], [ 120.633489, -7.131528 ], [ 120.624171, -7.09396 ], [ 120.562906, -7.094538 ], [ 120.556253, -7.072889 ], [ 120.613695, -7.069817 ], [ 120.621256, -6.998245 ], [ 120.744965, -7.074151 ], [ 120.781261, -7.055922 ] ] ], [ [ [ 120.526215, -6.195489 ], [ 120.522472, -6.336521 ], [ 120.502615, -6.373468 ], [ 120.500011, -6.451593 ], [ 120.481293, -6.477309 ], [ 120.463634, -6.383884 ], [ 120.470876, -6.27516 ], [ 120.448253, -6.256524 ], [ 120.429454, -6.185805 ], [ 120.449962, -6.140802 ], [ 120.448253, -5.843927 ], [ 120.480479, -5.764093 ], [ 120.555186, -5.979425 ], [ 120.552989, -6.110121 ], [ 120.526215, -6.195489 ] ] ], [ [ [ 122.052989, -5.432306 ], [ 122.031993, -5.465265 ], [ 121.968272, -5.46795 ], [ 121.923513, -5.403741 ], [ 121.881847, -5.390232 ], [ 121.806814, -5.259861 ], [ 121.840831, -5.160089 ], [ 121.881847, -5.143731 ], [ 121.853852, -5.102146 ], [ 121.89796, -5.060968 ], [ 121.916026, -5.054376 ], [ 121.919444, -5.095473 ], [ 121.977306, -5.070489 ], [ 121.996593, -5.137872 ], [ 122.009776, -5.153741 ], [ 122.033376, -5.149998 ], [ 122.06422, -5.189874 ], [ 122.067393, -5.21502 ], [ 122.046886, -5.242364 ], [ 122.052989, -5.432306 ] ] ], [ [ [ 122.359386, -3.363458 ], [ 122.380626, -3.391534 ], [ 122.378429, -3.438735 ], [ 122.361583, -3.437433 ], [ 122.36199, -3.413344 ], [ 122.327485, -3.403253 ], [ 122.325206, -3.375258 ], [ 122.279633, -3.355564 ], [ 122.272472, -3.376235 ], [ 122.25172, -3.376072 ], [ 122.290538, -3.471368 ], [ 122.262462, -3.528985 ], [ 122.200531, -3.556573 ], [ 122.205414, -3.593845 ], [ 122.235606, -3.643162 ], [ 122.305431, -3.674981 ], [ 122.334972, -3.718032 ], [ 122.441417, -3.731052 ], [ 122.548676, -3.878676 ], [ 122.656423, -3.889337 ], [ 122.667247, -3.918878 ], [ 122.62436, -3.952407 ], [ 122.55128, -3.970798 ], [ 122.656423, -4.006606 ], [ 122.666515, -4.102472 ], [ 122.688162, -4.13836 ], [ 122.707774, -4.139093 ], [ 122.711111, -4.11533 ], [ 122.778168, -4.136977 ], [ 122.842052, -4.128839 ], [ 122.775157, -4.048272 ], [ 122.807384, -4.040704 ], [ 122.844981, -4.057712 ], [ 122.872813, -4.093194 ], [ 122.907074, -4.195977 ], [ 122.892426, -4.266046 ], [ 122.900157, -4.388767 ], [ 122.866873, -4.400323 ], [ 122.842052, -4.438084 ], [ 122.722911, -4.332452 ], [ 122.670177, -4.314548 ], [ 122.745128, -4.410089 ], [ 122.770274, -4.416762 ], [ 122.773123, -4.468438 ], [ 122.758149, -4.484796 ], [ 122.735606, -4.482354 ], [ 122.711111, -4.451755 ], [ 122.682302, -4.480401 ], [ 122.670095, -4.432224 ], [ 122.599132, -4.396742 ], [ 122.497569, -4.435235 ], [ 122.430431, -4.416925 ], [ 122.350352, -4.452895 ], [ 122.233246, -4.468032 ], [ 122.152843, -4.513116 ], [ 122.107758, -4.519952 ], [ 122.04835, -4.625909 ], [ 122.042979, -4.707778 ], [ 122.082774, -4.770196 ], [ 122.128917, -4.80047 ], [ 122.090994, -4.836684 ], [ 121.99171, -4.855727 ], [ 121.887462, -4.846368 ], [ 121.823253, -4.813084 ], [ 121.742442, -4.816095 ], [ 121.704356, -4.835219 ], [ 121.657237, -4.787205 ], [ 121.55421, -4.743748 ], [ 121.48463, -4.656427 ], [ 121.477712, -4.622979 ], [ 121.529307, -4.397556 ], [ 121.533214, -4.238051 ], [ 121.559581, -4.225193 ], [ 121.552989, -4.252374 ], [ 121.584972, -4.236749 ], [ 121.617198, -4.166925 ], [ 121.627696, -4.087091 ], [ 121.594493, -4.040704 ], [ 121.555186, -4.021417 ], [ 121.430024, -3.9992 ], [ 121.354259, -3.968438 ], [ 121.296153, -3.886814 ], [ 121.255626, -3.903009 ], [ 121.255138, -3.815688 ], [ 121.16033, -3.796157 ], [ 120.893809, -3.539158 ], [ 120.874522, -3.498956 ], [ 120.867686, -3.45794 ], [ 120.889415, -3.388767 ], [ 120.950206, -3.327569 ], [ 120.979015, -3.267022 ], [ 121.01531, -3.251642 ], [ 121.066742, -3.19378 ], [ 121.073009, -3.114679 ], [ 121.048106, -3.066176 ], [ 121.080414, -2.977634 ], [ 121.081716, -2.872328 ], [ 121.070811, -2.851007 ], [ 121.053233, -2.862074 ], [ 121.032725, -2.814223 ], [ 121.011729, -2.848403 ], [ 120.984386, -2.823907 ], [ 121.018891, -2.801853 ], [ 121.025238, -2.778904 ], [ 121.052501, -2.777602 ], [ 121.066905, -2.752211 ], [ 121.080414, -2.759047 ], [ 121.048188, -2.698989 ], [ 121.00587, -2.660821 ], [ 120.85377, -2.646173 ], [ 120.823497, -2.621515 ], [ 120.776052, -2.614923 ], [ 120.584483, -2.682061 ], [ 120.542979, -2.747247 ], [ 120.203461, -2.957696 ], [ 120.240001, -3.035903 ], [ 120.261404, -3.050388 ], [ 120.285411, -3.122166 ], [ 120.264334, -3.142022 ], [ 120.383067, -3.20908 ], [ 120.400401, -3.250909 ], [ 120.425792, -3.256117 ], [ 120.40211, -3.296808 ], [ 120.398936, -3.500909 ], [ 120.421886, -3.582452 ], [ 120.422048, -3.666436 ], [ 120.443696, -3.690688 ], [ 120.446544, -3.728692 ], [ 120.359711, -3.89422 ], [ 120.351899, -4.100274 ], [ 120.381358, -4.16725 ], [ 120.374197, -4.249282 ], [ 120.387869, -4.294041 ], [ 120.362315, -4.386977 ], [ 120.367361, -4.424412 ], [ 120.402599, -4.472101 ], [ 120.40211, -4.574477 ], [ 120.449962, -4.64658 ], [ 120.415863, -4.688897 ], [ 120.386567, -4.829278 ], [ 120.326427, -4.842055 ], [ 120.309418, -4.87127 ], [ 120.306651, -4.992852 ], [ 120.264334, -5.149998 ], [ 120.387869, -5.352227 ], [ 120.43629, -5.565199 ], [ 120.463634, -5.620212 ], [ 120.416352, -5.616795 ], [ 120.347504, -5.513604 ], [ 120.323253, -5.509535 ], [ 120.100434, -5.595636 ], [ 119.986583, -5.564223 ], [ 119.914887, -5.568943 ], [ 119.805675, -5.692478 ], [ 119.723643, -5.70379 ], [ 119.64796, -5.678806 ], [ 119.634044, -5.617446 ], [ 119.609711, -5.609145 ], [ 119.569998, -5.655938 ], [ 119.517589, -5.558038 ], [ 119.455333, -5.573826 ], [ 119.4699, -5.595636 ], [ 119.433279, -5.587823 ], [ 119.42213, -5.551202 ], [ 119.437511, -5.521742 ], [ 119.360362, -5.396417 ], [ 119.352794, -5.355645 ], [ 119.403656, -5.124119 ], [ 119.459972, -5.0735 ], [ 119.519786, -4.916681 ], [ 119.525157, -4.883071 ], [ 119.491222, -4.754083 ], [ 119.497081, -4.71795 ], [ 119.525157, -4.698012 ], [ 119.591075, -4.564142 ], [ 119.626801, -4.314548 ], [ 119.600108, -4.242446 ], [ 119.626801, -4.163018 ], [ 119.606293, -4.104669 ], [ 119.620616, -4.026462 ], [ 119.646983, -3.97796 ], [ 119.607107, -3.975844 ], [ 119.593435, -4.026462 ], [ 119.585216, -3.97031 ], [ 119.456716, -3.714532 ], [ 119.483653, -3.614923 ], [ 119.514008, -3.563084 ], [ 119.48585, -3.483494 ], [ 119.432384, -3.47503 ], [ 119.346934, -3.430597 ], [ 119.297618, -3.427911 ], [ 119.229666, -3.485284 ], [ 119.15797, -3.478448 ], [ 119.099376, -3.50506 ], [ 119.027029, -3.509698 ], [ 118.998709, -3.524998 ], [ 119.004405, -3.559747 ], [ 118.970225, -3.539809 ], [ 118.949474, -3.569024 ], [ 118.926768, -3.566095 ], [ 118.842296, -3.368341 ], [ 118.85255, -3.295587 ], [ 118.817149, -3.171808 ], [ 118.781993, -3.144301 ], [ 118.764171, -3.090916 ], [ 118.791352, -3.060154 ], [ 118.848399, -3.067804 ], [ 118.885509, -2.869561 ], [ 118.834321, -2.840997 ], [ 118.771658, -2.862074 ], [ 118.757335, -2.775811 ], [ 118.806163, -2.629815 ], [ 118.841482, -2.627699 ], [ 118.871104, -2.653904 ], [ 118.914399, -2.64837 ], [ 119.014903, -2.577244 ], [ 119.047374, -2.512872 ], [ 119.135753, -2.454278 ], [ 119.134044, -2.203546 ], [ 119.185557, -2.120864 ], [ 119.216075, -2.009942 ], [ 119.264415, -1.963311 ], [ 119.336436, -1.970147 ], [ 119.347016, -1.959405 ], [ 119.367035, -1.83294 ], [ 119.328787, -1.781183 ], [ 119.305431, -1.652032 ], [ 119.333263, -1.5735 ], [ 119.302419, -1.493748 ], [ 119.29477, -1.405369 ], [ 119.333263, -1.350193 ], [ 119.31365, -1.245782 ], [ 119.399181, -1.133477 ], [ 119.453136, -1.096449 ], [ 119.482432, -0.963474 ], [ 119.525157, -0.860447 ], [ 119.68214, -0.736912 ], [ 119.659434, -0.696222 ], [ 119.733653, -0.633884 ], [ 119.82488, -0.858657 ], [ 119.846528, -0.874607 ], [ 119.862315, -0.834161 ], [ 119.854015, -0.716404 ], [ 119.792003, -0.60711 ], [ 119.757823, -0.469903 ], [ 119.781098, -0.239353 ], [ 119.80836, -0.182794 ], [ 119.799978, -0.123793 ], [ 119.792003, -0.106785 ], [ 119.730479, -0.121352 ], [ 119.675304, -0.099379 ], [ 119.638682, -0.050877 ], [ 119.634451, 0.010484 ], [ 119.668468, -0.003839 ], [ 119.675304, 0.030341 ], [ 119.778331, -0.076349 ], [ 119.832693, -0.084405 ], [ 119.888194, 0.071275 ], [ 119.793956, 0.196601 ], [ 119.785167, 0.239488 ], [ 119.869477, 0.287177 ], [ 119.858735, 0.364244 ], [ 119.911794, 0.4737 ], [ 120.032237, 0.516303 ], [ 120.045177, 0.549994 ], [ 120.02475, 0.667182 ], [ 120.03419, 0.713813 ], [ 120.045746, 0.734361 ], [ 120.12086, 0.75434 ], [ 120.227061, 0.814887 ], [ 120.256521, 0.968899 ], [ 120.278494, 0.994208 ], [ 120.341645, 0.982856 ], [ 120.346446, 0.855618 ], [ 120.367361, 0.8664 ], [ 120.422048, 0.811754 ], [ 120.469574, 0.79682 ], [ 120.511485, 0.810614 ], [ 120.568126, 0.782131 ], [ 120.614431, 0.832221 ], [ 120.602224, 0.855699 ], [ 120.662283, 0.968817 ], [ 120.690196, 0.99608 ], [ 120.733897, 0.979682 ], [ 120.754242, 1.020657 ], [ 120.801768, 1.052639 ], [ 120.79949, 1.142076 ], [ 120.827647, 1.214016 ], [ 120.820811, 1.310004 ], [ 120.90919, 1.353664 ], [ 120.908539, 1.311428 ], [ 120.967296, 1.346177 ], [ 121.080414, 1.331936 ], [ 121.158702, 1.302802 ], [ 121.182791, 1.27143 ], [ 121.264903, 1.22956 ], [ 121.317638, 1.253852 ], [ 121.399099, 1.262397 ], [ 121.451427, 1.297553 ], [ 121.471528, 1.256578 ], [ 121.430024, 1.232978 ], [ 121.45045, 1.167426 ], [ 121.480724, 1.120917 ], [ 121.546723, 1.072455 ], [ 121.63087, 1.061957 ], [ 121.926117, 1.0987 ], [ 121.943207, 1.091132 ], [ 121.955821, 1.045559 ], [ 121.990245, 1.021918 ], [ 122.063731, 1.065009 ], [ 122.235362, 1.009833 ], [ 122.296723, 1.009833 ], [ 122.313731, 1.024075 ], [ 122.375987, 1.009833 ], [ 122.454112, 1.020657 ], [ 122.524181, 0.979967 ], [ 122.645274, 0.959174 ], [ 122.679373, 0.91885 ], [ 122.848888, 0.81802 ], [ 122.918468, 0.859565 ], [ 122.968028, 0.962592 ], [ 123.175629, 0.922553 ], [ 123.190929, 0.927883 ], [ 123.186697, 0.973619 ], [ 123.225759, 0.94953 ], [ 123.254893, 0.960679 ], [ 123.293956, 0.914211 ], [ 123.383311, 0.927883 ], [ 123.562999, 0.866929 ], [ 123.612315, 0.886217 ], [ 123.691173, 0.852729 ], [ 123.92921, 0.831529 ], [ 123.951427, 0.846137 ], [ 123.937511, 0.858954 ], [ 124.008067, 0.898179 ], [ 124.153005, 0.94595 ], [ 124.190766, 0.9831 ], [ 124.290375, 1.01732 ], [ 124.314952, 1.037746 ], [ 124.362804, 1.167426 ], [ 124.389415, 1.186103 ], [ 124.514171, 1.19538 ], [ 124.54835, 1.215806 ], [ 124.566905, 1.192043 ], [ 124.593761, 1.195868 ], [ 124.615977, 1.256822 ], [ 124.606456, 1.273342 ], [ 124.534434, 1.288642 ], [ 124.54835, 1.359849 ], [ 124.620372, 1.417141 ], [ 124.717296, 1.405829 ], [ 124.774181, 1.455227 ], [ 124.835704, 1.469143 ], [ 124.850434, 1.489691 ], [ 124.822032, 1.548529 ], [ 124.825938, 1.572903 ], [ 124.94988, 1.682603 ], [ 124.968598, 1.673814 ], [ 124.983897, 1.731594 ], [ 125.025157, 1.744127 ], [ 125.034923, 1.692043 ], [ 125.061697, 1.674547 ], [ 125.175304, 1.678168 ], [ 125.167817, 1.584784 ], [ 125.239757, 1.523668 ], [ 125.249197, 1.484687 ], [ 125.144298, 1.421332 ], [ 125.115408, 1.385199 ], [ 125.033702, 1.175442 ], [ 124.898692, 0.973049 ], [ 124.822032, 0.941474 ], [ 124.799001, 0.905748 ], [ 124.746349, 0.881252 ], [ 124.663829, 0.805609 ], [ 124.636078, 0.725084 ], [ 124.573253, 0.649115 ], [ 124.58253, 0.595445 ], [ 124.54835, 0.592027 ], [ 124.503429, 0.534003 ], [ 124.514171, 0.503323 ], [ 124.465831, 0.448676 ], [ 124.414561, 0.448147 ], [ 124.321788, 0.398871 ], [ 124.150564, 0.369859 ], [ 124.109386, 0.387193 ], [ 124.068533, 0.351874 ], [ 124.033865, 0.35932 ], [ 123.996267, 0.338813 ], [ 123.824962, 0.318305 ], [ 123.781993, 0.29857 ], [ 123.72462, 0.308824 ], [ 123.625987, 0.266588 ], [ 123.571056, 0.303616 ], [ 123.466319, 0.312323 ], [ 123.390147, 0.297838 ], [ 123.23878, 0.32453 ], [ 123.190929, 0.390326 ], [ 123.163585, 0.396796 ], [ 123.074229, 0.516303 ], [ 122.977875, 0.482815 ], [ 122.694102, 0.482815 ], [ 122.649669, 0.52383 ], [ 122.653168, 0.480414 ], [ 122.639415, 0.475328 ], [ 122.565929, 0.496527 ], [ 122.324392, 0.497056 ], [ 122.166352, 0.469184 ], [ 122.037771, 0.482123 ], [ 121.985118, 0.448432 ], [ 121.800466, 0.426459 ], [ 121.77947, 0.433173 ], [ 121.715505, 0.515082 ], [ 121.635997, 0.516303 ], [ 121.601899, 0.551744 ], [ 121.587738, 0.532864 ], [ 121.528331, 0.537421 ], [ 121.495128, 0.482815 ], [ 121.443614, 0.469184 ], [ 121.413341, 0.4831 ], [ 121.330333, 0.461737 ], [ 121.26059, 0.482489 ], [ 121.163829, 0.457465 ], [ 121.107921, 0.407131 ], [ 121.047374, 0.418931 ], [ 121.004893, 0.448676 ], [ 120.876475, 0.424506 ], [ 120.847179, 0.461737 ], [ 120.788829, 0.489651 ], [ 120.750824, 0.482815 ], [ 120.679535, 0.530585 ], [ 120.502696, 0.528876 ], [ 120.375255, 0.477688 ], [ 120.314708, 0.423163 ], [ 120.133311, 0.19123 ], [ 120.07545, -0.016412 ], [ 120.02296, -0.070977 ], [ 120.018891, -0.15252 ], [ 119.995616, -0.209242 ], [ 120.018565, -0.363458 ], [ 120.059418, -0.44199 ], [ 120.045746, -0.483005 ], [ 120.07309, -0.613946 ], [ 120.255626, -0.899347 ], [ 120.325531, -0.938653 ], [ 120.387869, -0.9013 ], [ 120.412446, -0.904962 ], [ 120.446788, -0.960056 ], [ 120.500336, -0.975274 ], [ 120.586762, -1.116632 ], [ 120.56544, -1.215509 ], [ 120.619395, -1.28045 ], [ 120.648936, -1.364353 ], [ 120.675955, -1.394708 ], [ 120.737315, -1.36061 ], [ 120.830089, -1.340102 ], [ 120.826671, -1.377699 ], [ 120.844412, -1.389581 ], [ 120.987804, -1.381117 ], [ 121.032725, -1.415785 ], [ 121.073253, -1.421319 ], [ 121.105479, -1.405857 ], [ 121.167003, -1.322931 ], [ 121.206554, -1.191339 ], [ 121.266775, -1.148614 ], [ 121.31837, -1.067153 ], [ 121.374522, -1.020685 ], [ 121.500662, -0.859308 ], [ 121.57781, -0.846775 ], [ 121.587657, -0.812595 ], [ 121.620128, -0.800388 ], [ 121.659679, -0.812595 ], [ 121.662852, -0.887628 ], [ 121.714203, -0.935479 ], [ 121.926036, -0.955336 ], [ 122.018565, -0.916762 ], [ 122.105317, -0.926202 ], [ 122.141368, -0.886814 ], [ 122.156261, -0.798923 ], [ 122.207693, -0.764744 ], [ 122.487478, -0.749688 ], [ 122.55714, -0.768162 ], [ 122.622325, -0.750584 ], [ 122.716482, -0.792413 ], [ 122.929047, -0.758884 ], [ 122.960216, -0.730564 ], [ 122.897309, -0.716404 ], [ 122.882986, -0.695896 ], [ 122.766449, -0.683038 ], [ 122.73463, -0.64837 ], [ 122.779307, -0.646254 ], [ 122.823009, -0.612237 ], [ 123.01295, -0.604425 ], [ 123.060557, -0.558689 ], [ 123.239513, -0.570489 ], [ 123.417328, -0.65488 ], [ 123.403819, -0.67254 ], [ 123.425304, -0.708429 ], [ 123.444672, -0.709568 ], [ 123.438487, -0.730401 ], [ 123.454356, -0.758233 ], [ 123.444835, -0.833103 ], [ 123.400157, -0.894789 ], [ 123.383311, -1.003676 ], [ 123.352387, -1.039727 ], [ 123.311209, -1.051446 ], [ 123.23878, -1.024835 ], [ 123.149913, -0.935479 ], [ 123.15089, -0.872979 ], [ 123.096202, -0.835056 ], [ 123.060802, -0.880548 ], [ 123.009451, -0.893731 ], [ 122.87615, -0.908787 ], [ 122.838715, -0.899184 ], [ 122.811697, -0.924086 ], [ 122.720958, -1.109063 ], [ 122.661632, -1.142836 ], [ 122.638438, -1.20615 ], [ 122.572113, -1.253188 ], [ 122.478282, -1.381117 ], [ 122.368826, -1.492771 ], [ 122.18393, -1.61419 ], [ 122.14324, -1.594008 ], [ 122.063731, -1.62127 ], [ 122.02589, -1.614435 ], [ 121.954763, -1.663832 ], [ 121.861339, -1.669692 ], [ 121.85613, -1.688084 ], [ 121.798595, -1.71795 ], [ 121.755138, -1.833754 ], [ 121.692149, -1.908136 ], [ 121.552989, -1.929132 ], [ 121.504731, -1.876723 ], [ 121.456716, -1.860935 ], [ 121.440929, -1.813572 ], [ 121.371349, -1.805759 ], [ 121.347423, -1.778985 ], [ 121.31186, -1.782892 ], [ 121.296072, -1.816664 ], [ 121.30421, -1.846938 ], [ 121.340587, -1.839776 ], [ 121.345714, -1.855727 ], [ 121.326996, -1.919041 ], [ 121.340587, -1.991306 ], [ 121.402029, -1.909356 ], [ 121.43629, -1.980157 ], [ 121.53533, -2.05877 ], [ 121.574555, -2.16253 ], [ 121.700857, -2.180352 ], [ 121.822927, -2.287286 ], [ 121.882579, -2.413344 ], [ 122.009288, -2.59352 ], [ 122.015636, -2.693536 ], [ 122.083832, -2.76393 ], [ 122.145763, -2.778741 ], [ 122.177257, -2.806817 ], [ 122.192638, -2.866306 ], [ 122.28712, -2.888767 ], [ 122.312511, -2.926853 ], [ 122.270844, -3.00213 ], [ 122.279633, -3.039646 ], [ 122.385916, -3.132013 ], [ 122.430431, -3.114679 ], [ 122.446137, -3.149347 ], [ 122.472911, -3.151137 ], [ 122.464692, -3.176853 ], [ 122.436697, -3.190362 ], [ 122.42921, -3.245864 ], [ 122.38266, -3.238214 ], [ 122.357921, -3.217543 ], [ 122.3213, -3.257094 ], [ 122.295665, -3.312921 ], [ 122.303559, -3.341241 ], [ 122.359386, -3.363458 ] ] ], [ [ [ 121.906423, -0.499282 ], [ 121.878429, -0.510919 ], [ 121.834727, -0.476739 ], [ 121.846446, -0.500258 ], [ 121.830903, -0.510919 ], [ 121.735362, -0.479913 ], [ 121.700938, -0.535089 ], [ 121.642263, -0.545587 ], [ 121.679861, -0.468927 ], [ 121.740896, -0.429132 ], [ 121.752126, -0.401056 ], [ 121.778575, -0.424574 ], [ 121.853852, -0.401056 ], [ 121.901703, -0.437188 ], [ 121.916026, -0.469903 ], [ 121.906423, -0.499282 ] ] ], [ [ [ 122.026622, -0.406915 ], [ 121.898692, -0.407485 ], [ 121.86085, -0.377862 ], [ 121.872325, -0.332615 ], [ 121.923513, -0.339614 ], [ 121.926524, -0.31227 ], [ 122.043712, -0.334649 ], [ 122.053071, -0.373712 ], [ 122.026622, -0.406915 ] ] ], [ [ [ 122.089854, -0.389255 ], [ 122.084646, -0.40781 ], [ 122.070567, -0.398045 ], [ 122.060313, -0.329278 ], [ 122.076671, -0.269138 ], [ 122.094737, -0.263849 ], [ 122.101573, -0.315362 ], [ 122.131684, -0.337986 ], [ 122.144542, -0.373956 ], [ 122.123871, -0.392673 ], [ 122.089854, -0.389255 ] ] ], [ [ [ 122.23878, -0.263849 ], [ 122.146251, -0.244073 ], [ 122.158376, -0.211358 ], [ 122.177094, -0.196384 ], [ 122.189708, -0.205255 ], [ 122.177257, -0.230401 ], [ 122.213227, -0.237563 ], [ 122.23878, -0.263849 ] ] ], [ [ [ 121.624522, -0.198419 ], [ 121.600271, -0.20322 ], [ 121.574555, -0.18255 ], [ 121.569102, -0.144789 ], [ 121.597423, -0.124688 ], [ 121.633149, -0.124688 ], [ 121.649669, -0.147393 ], [ 121.624522, -0.198419 ] ] ], [ [ [ 120.399669, 1.037502 ], [ 120.368663, 1.031724 ], [ 120.371593, 1.06802 ], [ 120.392426, 1.086086 ], [ 120.406505, 1.060981 ], [ 120.399669, 1.037502 ] ] ], [ [ [ 120.607595, 1.072455 ], [ 120.639171, 1.077582 ], [ 120.68336, 1.044582 ], [ 120.667166, 1.043118 ], [ 120.607595, 1.072455 ] ] ], [ [ [ 123.814708, -5.595636 ], [ 123.753184, -5.534112 ], [ 123.691173, -5.472752 ], [ 123.733246, -5.475274 ], [ 123.801443, -5.522719 ], [ 123.814708, -5.595636 ] ] ], [ [ [ 123.638357, -5.34352 ], [ 123.619151, -5.37656 ], [ 123.572113, -5.366143 ], [ 123.519867, -5.251723 ], [ 123.62379, -5.266534 ], [ 123.638357, -5.34352 ] ] ], [ [ [ 123.213145, -5.30169 ], [ 123.14503, -5.385431 ], [ 123.065603, -5.41839 ], [ 123.030528, -5.419529 ], [ 122.995372, -5.390232 ], [ 122.876231, -5.458429 ], [ 122.861013, -5.508071 ], [ 122.910411, -5.499282 ], [ 122.918224, -5.527439 ], [ 122.813487, -5.687921 ], [ 122.790294, -5.692478 ], [ 122.767833, -5.641371 ], [ 122.746593, -5.679376 ], [ 122.735606, -5.626886 ], [ 122.677013, -5.678806 ], [ 122.654307, -5.678481 ], [ 122.567149, -5.506931 ], [ 122.654552, -5.424737 ], [ 122.629161, -5.403741 ], [ 122.721039, -5.266209 ], [ 122.803233, -5.231866 ], [ 122.814708, -5.211358 ], [ 122.808604, -5.189386 ], [ 122.757579, -5.20672 ], [ 122.756602, -5.164727 ], [ 122.804454, -5.043634 ], [ 122.791189, -5.021254 ], [ 122.752696, -5.033868 ], [ 122.817882, -4.968683 ], [ 122.833507, -4.929132 ], [ 122.820974, -4.842055 ], [ 122.854991, -4.817804 ], [ 122.854991, -4.609552 ], [ 122.908946, -4.474542 ], [ 123.041352, -4.384373 ], [ 123.085704, -4.389093 ], [ 123.061534, -4.421319 ], [ 123.068533, -4.43963 ], [ 123.147797, -4.508477 ], [ 123.20045, -4.589044 ], [ 123.190929, -4.653009 ], [ 123.211274, -4.677504 ], [ 123.219737, -4.816664 ], [ 123.211274, -4.842055 ], [ 123.197032, -4.836847 ], [ 123.184093, -4.776544 ], [ 123.149913, -4.71795 ], [ 123.123871, -4.710219 ], [ 123.105317, -4.767267 ], [ 123.081554, -4.739028 ], [ 123.067393, -4.752618 ], [ 123.052094, -4.74033 ], [ 123.046886, -4.797052 ], [ 123.023774, -4.815118 ], [ 123.01295, -4.85711 ], [ 123.015147, -4.929376 ], [ 122.964366, -4.992852 ], [ 122.985362, -5.064874 ], [ 122.94988, -5.190199 ], [ 122.988455, -5.1867 ], [ 123.020356, -5.142185 ], [ 123.059337, -5.144138 ], [ 123.067393, -5.170505 ], [ 123.102061, -5.180922 ], [ 123.117931, -5.209161 ], [ 123.209321, -5.265395 ], [ 123.213145, -5.30169 ] ] ], [ [ [ 122.7435, -4.952813 ], [ 122.643403, -5.07879 ], [ 122.604259, -5.159926 ], [ 122.606619, -5.190525 ], [ 122.635997, -5.194268 ], [ 122.629893, -5.216729 ], [ 122.598155, -5.228448 ], [ 122.647716, -5.256117 ], [ 122.658539, -5.296482 ], [ 122.647472, -5.344903 ], [ 122.615977, -5.356052 ], [ 122.598399, -5.420099 ], [ 122.584483, -5.409112 ], [ 122.543468, -5.428806 ], [ 122.542817, -5.3388 ], [ 122.511485, -5.286716 ], [ 122.49879, -5.349216 ], [ 122.468598, -5.396417 ], [ 122.431977, -5.392673 ], [ 122.407237, -5.353204 ], [ 122.45102, -5.315037 ], [ 122.395193, -5.321222 ], [ 122.38266, -5.373142 ], [ 122.363943, -5.389825 ], [ 122.300548, -5.386977 ], [ 122.279633, -5.369724 ], [ 122.275157, -5.327569 ], [ 122.315684, -5.242608 ], [ 122.33253, -5.123793 ], [ 122.377208, -5.09824 ], [ 122.402599, -5.061782 ], [ 122.354991, -4.884861 ], [ 122.327485, -4.842055 ], [ 122.38266, -4.745864 ], [ 122.49879, -4.725356 ], [ 122.656993, -4.624282 ], [ 122.711111, -4.615492 ], [ 122.735525, -4.643731 ], [ 122.752778, -4.844334 ], [ 122.78004, -4.916599 ], [ 122.773123, -4.958185 ], [ 122.7435, -4.952813 ] ] ], [ [ [ 123.1963, -4.187677 ], [ 123.136241, -4.238702 ], [ 123.086599, -4.23447 ], [ 123.009125, -4.17197 ], [ 122.977875, -4.128839 ], [ 122.950694, -4.047052 ], [ 123.028168, -3.97381 ], [ 123.102306, -4.012465 ], [ 123.204438, -3.992934 ], [ 123.234141, -4.015313 ], [ 123.253429, -4.089776 ], [ 123.1963, -4.187677 ] ] ], [ [ [ 123.119884, -3.629164 ], [ 123.061046, -3.570896 ], [ 123.157237, -3.544854 ], [ 123.177094, -3.601007 ], [ 123.139415, -3.602716 ], [ 123.119884, -3.629164 ] ] ], [ [ [ 122.355479, -3.556573 ], [ 122.293305, -3.580824 ], [ 122.284679, -3.562921 ], [ 122.3213, -3.511895 ], [ 122.355479, -3.556573 ] ] ], [ [ [ 122.449229, -3.47975 ], [ 122.425792, -3.477309 ], [ 122.402599, -3.430597 ], [ 122.417817, -3.384535 ], [ 122.464692, -3.440851 ], [ 122.449229, -3.47975 ] ] ], [ [ [ 123.651622, -1.949395 ], [ 123.656993, -1.901788 ], [ 123.663829, -1.963311 ], [ 123.651622, -1.949395 ] ] ], [ [ [ 123.705577, -1.93377 ], [ 123.726085, -1.899998 ], [ 123.738048, -1.907892 ], [ 123.740489, -1.940525 ], [ 123.711681, -1.957127 ], [ 123.705577, -1.93377 ] ] ], [ [ [ 123.152843, -1.823826 ], [ 123.09669, -1.895278 ], [ 123.072765, -1.901625 ], [ 123.070079, -1.840753 ], [ 123.102061, -1.748468 ], [ 123.131033, -1.760919 ], [ 123.151541, -1.798761 ], [ 123.152843, -1.823826 ] ] ], [ [ [ 123.382823, -1.702244 ], [ 123.30128, -1.788344 ], [ 123.280284, -1.785821 ], [ 123.279796, -1.748224 ], [ 123.365733, -1.67311 ], [ 123.382823, -1.702244 ] ] ], [ [ [ 123.608653, -1.688735 ], [ 123.56422, -1.721938 ], [ 123.487315, -1.699965 ], [ 123.475597, -1.649102 ], [ 123.492686, -1.594985 ], [ 123.476736, -1.562758 ], [ 123.529063, -1.480239 ], [ 123.568858, -1.600844 ], [ 123.600597, -1.603285 ], [ 123.616466, -1.624607 ], [ 123.608653, -1.688735 ] ] ], [ [ [ 123.551768, -1.324314 ], [ 123.528575, -1.433038 ], [ 123.462169, -1.494317 ], [ 123.408376, -1.516534 ], [ 123.381196, -1.498305 ], [ 123.362153, -1.511407 ], [ 123.326834, -1.421157 ], [ 123.280284, -1.428888 ], [ 123.249848, -1.510675 ], [ 123.243337, -1.63242 ], [ 123.226817, -1.593357 ], [ 123.178396, -1.622491 ], [ 123.110688, -1.576918 ], [ 123.111827, -1.556329 ], [ 123.177257, -1.518243 ], [ 123.184825, -1.48561 ], [ 123.152354, -1.300551 ], [ 123.094574, -1.346368 ], [ 122.993175, -1.50921 ], [ 122.895844, -1.589532 ], [ 122.874034, -1.584568 ], [ 122.812022, -1.443617 ], [ 122.820811, -1.313735 ], [ 122.913829, -1.176365 ], [ 122.985362, -1.196059 ], [ 123.029796, -1.168878 ], [ 123.112071, -1.162693 ], [ 123.146251, -1.183201 ], [ 123.170421, -1.14837 ], [ 123.189464, -1.145278 ], [ 123.246104, -1.223403 ], [ 123.198741, -1.268731 ], [ 123.231944, -1.394708 ], [ 123.365977, -1.223403 ], [ 123.406912, -1.219496 ], [ 123.428477, -1.257745 ], [ 123.455089, -1.23089 ], [ 123.486827, -1.25921 ], [ 123.539073, -1.272719 ], [ 123.551768, -1.324314 ] ] ], [ [ [ 122.354259, -0.32171 ], [ 122.321544, -0.257908 ], [ 122.293305, -0.237237 ], [ 122.260509, -0.240981 ], [ 122.228852, -0.20794 ], [ 122.231944, -0.188735 ], [ 122.359386, -0.249282 ], [ 122.38266, -0.339614 ], [ 122.354259, -0.32171 ] ] ], [ [ [ 124.037446, -6.011651 ], [ 124.030447, -5.976007 ], [ 123.968923, -5.935317 ], [ 123.979177, -5.869887 ], [ 124.037446, -5.914321 ], [ 124.065196, -5.962498 ], [ 124.071137, -6.011326 ], [ 124.059337, -6.027439 ], [ 124.037446, -6.011651 ] ] ], [ [ [ 123.869314, -2.053318 ], [ 123.839366, -2.049086 ], [ 123.867442, -2.005548 ], [ 123.886974, -2.073907 ], [ 123.869314, -2.053318 ] ] ], [ [ [ 123.831798, -2.004978 ], [ 123.787364, -1.980645 ], [ 123.771739, -1.895603 ], [ 123.787364, -1.873956 ], [ 123.857432, -1.950372 ], [ 123.869314, -1.998142 ], [ 123.831798, -2.004978 ] ] ], [ [ [ 125.295095, 1.472846 ], [ 125.2671, 1.413804 ], [ 125.248383, 1.402981 ], [ 125.185313, 1.390692 ], [ 125.17156, 1.404486 ], [ 125.250011, 1.448635 ], [ 125.30128, 1.551663 ], [ 125.295095, 1.472846 ] ] ], [ [ [ 125.144705, 1.741848 ], [ 125.123871, 1.789049 ], [ 125.135265, 1.830959 ], [ 125.176606, 1.792792 ], [ 125.144705, 1.741848 ] ] ], [ [ [ 125.397797, 2.104193 ], [ 125.349132, 2.071234 ], [ 125.334239, 2.081855 ], [ 125.357188, 2.109849 ], [ 125.354259, 2.129869 ], [ 125.393403, 2.118232 ], [ 125.404959, 2.130276 ], [ 125.397797, 2.104193 ] ] ], [ [ [ 125.370942, 2.348131 ], [ 125.369477, 2.374091 ], [ 125.396821, 2.391425 ], [ 125.456228, 2.367743 ], [ 125.452647, 2.333075 ], [ 125.423106, 2.317125 ], [ 125.370942, 2.348131 ] ] ], [ [ [ 125.404959, 2.716702 ], [ 125.423676, 2.644721 ], [ 125.411143, 2.627265 ], [ 125.382579, 2.641832 ], [ 125.356456, 2.740546 ], [ 125.387218, 2.802395 ], [ 125.417003, 2.810248 ], [ 125.443614, 2.793036 ], [ 125.45045, 2.764838 ], [ 125.404959, 2.716702 ] ] ], [ [ [ 125.659516, 3.424791 ], [ 125.602712, 3.398098 ], [ 125.593028, 3.426093 ], [ 125.507335, 3.463324 ], [ 125.521007, 3.576972 ], [ 125.421153, 3.668036 ], [ 125.418468, 3.709784 ], [ 125.442068, 3.736558 ], [ 125.477794, 3.73078 ], [ 125.534516, 3.683051 ], [ 125.569998, 3.628119 ], [ 125.57545, 3.580634 ], [ 125.61378, 3.525377 ], [ 125.644379, 3.514879 ], [ 125.659516, 3.424791 ] ] ], [ [ [ 126.856057, 3.758195 ], [ 126.81153, 3.731862 ], [ 126.765382, 3.772892 ], [ 126.739012, 3.823801 ], [ 126.743993, 3.853385 ], [ 126.811588, 3.823866 ], [ 126.856057, 3.758195 ] ] ], [ [ [ 126.696089, 3.812256 ], [ 126.677924, 3.812236 ], [ 126.666391, 3.930547 ], [ 126.626722, 3.965031 ], [ 126.615108, 4.043915 ], [ 126.643222, 4.027484 ], [ 126.656547, 3.981478 ], [ 126.712629, 3.920714 ], [ 126.687851, 3.853331 ], [ 126.696089, 3.812256 ] ] ], [ [ [ 126.809875, 4.157244 ], [ 126.809979, 4.037349 ], [ 126.758897, 3.993006 ], [ 126.714529, 4.011623 ], [ 126.67642, 4.004483 ], [ 126.664762, 4.034055 ], [ 126.676286, 4.060346 ], [ 126.720929, 4.096468 ], [ 126.758697, 4.1852 ], [ 126.803207, 4.222968 ], [ 126.791632, 4.241056 ], [ 126.7107, 4.264137 ], [ 126.715652, 4.308495 ], [ 126.699962, 4.355455 ], [ 126.705407, 4.423747 ], [ 126.739513, 4.47309 ], [ 126.733735, 4.535875 ], [ 126.768728, 4.550279 ], [ 126.816254, 4.546454 ], [ 126.843028, 4.504869 ], [ 126.875011, 4.49433 ], [ 126.884776, 4.456855 ], [ 126.859129, 4.367569 ], [ 126.870709, 4.331393 ], [ 126.92213, 4.28205 ], [ 126.809875, 4.157244 ] ] ], [ [ [ 127.124034, 4.77204 ], [ 127.145763, 4.752183 ], [ 127.135997, 4.740383 ], [ 127.123057, 4.752509 ], [ 127.124034, 4.77204 ] ] ], [ [ [ 126.591156, 5.557115 ], [ 126.602875, 5.564032 ], [ 126.59547, 5.548407 ], [ 126.591156, 5.557115 ] ] ] ] } }
]
}
