{
"type": "FeatureCollection",
"name": "Sumatra",
"crs": { "type": "name", "properties": { "name": "urn:ogc:def:crs:OGC:1.3:CRS84" } },
"features": [
{ "type": "Feature", "properties": { "name": "Sumatra", "n_provinces": 10 }, "geometry": { "type": "MultiPolygon", "coordinates": [ [ [ [ 102.390147, -5.476983 ], [ 102.297862, -5.472752 ], [ 102.283539, -5.499282 ], [ 102.246104, -5.441583 ], [ 102.098643, -5.334893 ], [ 102.172048, -5.280369 ], [ 102.273936, -5.31227 ], [ 102.304047, -5.34238 ], [ 102.394379, -5.375909 ], [ 102.400238, -5.41839 ], [ 102.366222, -5.441583 ], [ 102.390147, -5.476983 ] ] ], [ [ [ 103.547862, -4.901056 ], [ 103.487804, -4.859145 ], [ 103.414561, -4.869317 ], [ 103.385997, -4.804946 ], [ 103.359223, -4.787367 ], [ 103.328868, -4.794122 ], [ 103.303559, -4.734145 ], [ 103.172862, -4.617934 ], [ 103.049978, -4.543064 ], [ 102.920421, -4.492608 ], [ 102.876313, -4.420587 ], [ 102.701182, -4.27044 ], [ 102.312511, -3.991469 ], [ 102.283539, -3.930922 ], [ 102.310883, -3.865411 ], [ 102.263194, -3.793145 ], [ 102.222179, -3.642836 ], [ 101.876964, -3.421319 ], [ 101.611339, -3.224542 ], [ 101.418956, -2.927341 ], [ 101.326996, -2.73919 ], [ 101.299327, -2.707615 ], [ 101.104828, -2.587091 ], [ 100.923106, -2.333429 ], [ 100.833995, -2.159112 ], [ 100.887218, -2.037205 ], [ 100.857595, -1.89186 ], [ 100.776052, -1.805759 ], [ 100.65447, -1.617608 ], [ 100.632579, -1.507989 ], [ 100.570567, -1.44256 ], [ 100.584239, -1.394708 ], [ 100.569184, -1.330824 ], [ 100.458263, -1.263849 ], [ 100.425792, -1.276056 ], [ 100.406016, -1.264418 ], [ 100.431814, -1.234552 ], [ 100.433279, -1.20672 ], [ 100.366059, -1.150486 ], [ 100.384939, -1.103936 ], [ 100.371267, -1.073337 ], [ 100.412852, -1.073337 ], [ 100.416352, -1.047784 ], [ 100.379893, -1.03045 ], [ 100.353038, -0.977146 ], [ 100.344005, -0.908787 ], [ 100.301443, -0.816339 ], [ 100.159679, -0.667901 ], [ 100.034923, -0.48797 ], [ 99.823985, -0.313409 ], [ 99.805919, -0.227797 ], [ 99.759451, -0.16839 ], [ 99.766775, -0.075372 ], [ 99.747244, -0.02984 ], [ 99.61085, 0.098578 ], [ 99.490489, 0.155422 ], [ 99.392589, 0.171698 ], [ 99.341075, 0.238756 ], [ 99.233409, 0.217027 ], [ 99.13795, 0.263088 ], [ 99.158458, 0.320014 ], [ 99.110606, 0.345649 ], [ 99.132335, 0.412055 ], [ 99.122569, 0.509019 ], [ 99.110606, 0.52383 ], [ 99.098399, 0.514228 ], [ 99.100271, 0.601752 ], [ 99.072765, 0.630805 ], [ 99.048595, 0.61994 ], [ 99.041759, 0.777045 ], [ 98.981212, 0.831732 ], [ 98.975841, 0.920844 ], [ 98.917328, 1.117174 ], [ 98.839041, 1.301256 ], [ 98.844574, 1.345893 ], [ 98.788585, 1.413804 ], [ 98.768077, 1.493598 ], [ 98.730235, 1.51439 ], [ 98.709646, 1.564114 ], [ 98.733653, 1.569892 ], [ 98.753429, 1.535631 ], [ 98.822602, 1.630439 ], [ 98.819102, 1.682318 ], [ 98.788097, 1.691352 ], [ 98.773936, 1.748603 ], [ 98.727061, 1.791897 ], [ 98.711111, 1.77912 ], [ 98.727061, 1.756496 ], [ 98.720225, 1.733466 ], [ 98.690684, 1.736274 ], [ 98.535167, 1.936469 ], [ 98.444021, 1.991156 ], [ 98.354503, 2.003811 ], [ 98.329845, 2.038275 ], [ 98.269216, 2.038072 ], [ 98.243663, 2.087551 ], [ 98.152599, 2.156928 ], [ 97.955903, 2.271715 ], [ 97.866873, 2.247463 ], [ 97.79477, 2.277818 ], [ 97.744395, 2.281073 ], [ 97.658214, 2.411566 ], [ 97.644054, 2.668891 ], [ 97.602712, 2.866197 ], [ 97.40504, 2.943345 ], [ 97.313487, 3.061672 ], [ 97.270763, 3.214423 ], [ 97.240489, 3.238023 ], [ 97.171641, 3.254828 ], [ 97.018565, 3.522691 ], [ 96.921723, 3.605699 ], [ 96.883556, 3.68244 ], [ 96.760509, 3.748684 ], [ 96.559825, 3.746568 ], [ 96.479503, 3.778713 ], [ 96.197765, 4.121283 ], [ 96.159679, 4.141303 ], [ 96.125173, 4.13642 ], [ 96.065196, 4.205024 ], [ 96.01002, 4.225653 ], [ 95.725841, 4.531684 ], [ 95.616547, 4.628404 ], [ 95.56544, 4.637519 ], [ 95.57252, 4.673814 ], [ 95.526866, 4.697252 ], [ 95.468435, 4.789496 ], [ 95.42628, 4.827338 ], [ 95.348888, 5.037502 ], [ 95.279796, 5.122504 ], [ 95.299164, 5.150336 ], [ 95.29127, 5.191636 ], [ 95.248709, 5.231024 ], [ 95.231944, 5.282294 ], [ 95.198985, 5.292873 ], [ 95.253591, 5.411566 ], [ 95.231944, 5.450751 ], [ 95.245453, 5.460517 ], [ 95.197276, 5.546373 ], [ 95.212738, 5.573147 ], [ 95.279796, 5.574368 ], [ 95.431895, 5.65469 ], [ 95.511241, 5.603013 ], [ 95.533702, 5.622138 ], [ 95.611583, 5.626654 ], [ 95.762218, 5.57685 ], [ 95.887543, 5.512152 ], [ 95.903575, 5.450751 ], [ 95.930431, 5.414496 ], [ 96.088064, 5.295478 ], [ 96.290538, 5.258979 ], [ 96.406586, 5.217231 ], [ 96.466319, 5.235541 ], [ 96.527354, 5.211168 ], [ 96.650564, 5.216254 ], [ 96.82838, 5.280178 ], [ 96.894379, 5.262112 ], [ 96.973399, 5.273424 ], [ 97.074339, 5.238155 ], [ 97.149345, 5.198772 ], [ 97.175955, 5.161282 ], [ 97.226553, 5.146221 ], [ 97.496837, 5.251899 ], [ 97.526215, 5.242255 ], [ 97.664399, 5.073432 ], [ 97.90919, 4.889594 ], [ 97.963227, 4.789496 ], [ 97.975352, 4.706244 ], [ 98.007009, 4.633857 ], [ 97.996837, 4.546454 ], [ 98.038829, 4.551947 ], [ 98.048025, 4.539008 ], [ 98.06129, 4.554836 ], [ 98.08961, 4.532782 ], [ 98.138194, 4.53441 ], [ 98.185802, 4.484442 ], [ 98.20574, 4.498033 ], [ 98.275564, 4.42536 ], [ 98.266368, 4.211575 ], [ 98.185802, 4.169745 ], [ 98.178966, 4.108222 ], [ 98.263031, 4.177314 ], [ 98.305675, 4.080308 ], [ 98.405772, 4.078925 ], [ 98.477224, 4.04621 ], [ 98.507986, 4.004584 ], [ 98.557791, 4.0008 ], [ 98.567882, 3.966457 ], [ 98.5949, 3.943671 ], [ 98.67662, 3.914547 ], [ 98.700269, 3.875304 ], [ 98.710623, 3.803778 ], [ 98.796582, 3.725443 ], [ 98.95753, 3.671332 ], [ 99.179761, 3.546338 ], [ 99.368175, 3.407945 ], [ 99.433279, 3.38288 ], [ 99.489757, 3.336249 ], [ 99.506033, 3.295966 ], [ 99.558116, 3.244574 ], [ 99.750743, 3.180487 ], [ 99.781586, 3.120754 ], [ 99.852875, 3.047268 ], [ 99.857921, 3.011461 ], [ 99.889985, 3.018256 ], [ 99.979503, 2.948472 ], [ 99.997895, 2.79914 ], [ 99.953461, 2.696234 ], [ 99.992686, 2.668769 ], [ 100.007986, 2.602607 ], [ 100.028168, 2.61758 ], [ 100.012218, 2.678778 ], [ 99.973969, 2.70307 ], [ 100.018565, 2.731676 ], [ 100.054942, 2.727281 ], [ 100.076996, 2.689399 ], [ 100.095958, 2.570461 ], [ 100.125824, 2.530097 ], [ 100.13852, 2.537909 ], [ 100.117442, 2.603705 ], [ 100.121104, 2.66356 ], [ 100.159434, 2.703762 ], [ 100.210623, 2.706244 ], [ 100.217459, 2.678778 ], [ 100.248383, 2.662055 ], [ 100.268809, 2.596869 ], [ 100.312185, 2.562893 ], [ 100.381684, 2.355048 ], [ 100.434337, 2.273342 ], [ 100.561046, 2.156806 ], [ 100.617849, 2.129055 ], [ 100.666189, 2.134467 ], [ 100.812755, 2.03974 ], [ 100.872406, 1.971991 ], [ 100.905935, 1.85692 ], [ 100.947276, 1.825385 ], [ 100.948253, 1.882758 ], [ 100.885509, 2.036322 ], [ 100.823497, 2.115953 ], [ 100.799978, 2.20893 ], [ 100.841156, 2.280829 ], [ 100.885916, 2.298285 ], [ 101.050304, 2.29149 ], [ 101.067393, 2.219794 ], [ 101.181814, 2.145006 ], [ 101.317149, 2.024604 ], [ 101.326671, 1.916449 ], [ 101.377615, 1.773261 ], [ 101.427013, 1.709296 ], [ 101.567393, 1.655911 ], [ 101.711681, 1.671129 ], [ 101.749197, 1.661526 ], [ 102.021495, 1.437893 ], [ 102.118175, 1.386542 ], [ 102.143321, 1.357733 ], [ 102.153331, 1.311469 ], [ 102.147227, 1.247789 ], [ 102.197276, 1.199612 ], [ 102.194184, 1.065904 ], [ 102.208507, 1.024075 ], [ 102.425059, 0.804267 ], [ 102.551931, 0.738105 ], [ 102.667166, 0.750312 ], [ 102.877126, 0.726386 ], [ 102.953787, 0.675849 ], [ 103.083751, 0.51557 ], [ 103.092296, 0.469184 ], [ 103.074718, 0.442328 ], [ 102.715668, 0.257636 ], [ 102.627696, 0.23432 ], [ 102.581879, 0.181098 ], [ 102.554942, 0.186428 ], [ 102.502696, 0.236396 ], [ 102.430431, 0.246324 ], [ 102.480724, 0.23428 ], [ 102.545746, 0.169135 ], [ 102.577891, 0.158515 ], [ 102.695486, 0.232082 ], [ 102.763438, 0.228949 ], [ 102.90268, 0.267768 ], [ 103.007579, 0.324652 ], [ 103.075938, 0.383002 ], [ 103.16627, 0.407904 ], [ 103.223643, 0.48843 ], [ 103.362153, 0.536282 ], [ 103.421235, 0.516303 ], [ 103.541026, 0.434638 ], [ 103.587657, 0.376532 ], [ 103.606293, 0.310858 ], [ 103.645274, 0.345282 ], [ 103.743419, 0.27733 ], [ 103.813975, 0.018866 ], [ 103.801768, -0.007257 ], [ 103.671153, -0.017429 ], [ 103.664236, -0.040541 ], [ 103.629161, -0.048394 ], [ 103.592052, -0.010675 ], [ 103.576996, -0.013971 ], [ 103.564708, -0.024265 ], [ 103.585785, -0.044732 ], [ 103.575857, -0.104425 ], [ 103.494395, -0.118422 ], [ 103.466807, -0.183038 ], [ 103.414561, -0.216729 ], [ 103.301443, -0.237563 ], [ 103.270518, -0.257582 ], [ 103.33253, -0.263849 ], [ 103.489268, -0.211521 ], [ 103.502696, -0.230401 ], [ 103.49464, -0.253595 ], [ 103.456716, -0.288995 ], [ 103.436778, -0.337986 ], [ 103.345551, -0.366876 ], [ 103.400564, -0.384535 ], [ 103.493012, -0.375421 ], [ 103.598399, -0.436782 ], [ 103.547048, -0.489841 ], [ 103.417979, -0.517755 ], [ 103.372895, -0.449395 ], [ 103.380382, -0.514337 ], [ 103.414561, -0.551853 ], [ 103.41627, -0.575372 ], [ 103.372895, -0.648126 ], [ 103.385753, -0.680922 ], [ 103.345551, -0.695896 ], [ 103.375987, -0.726821 ], [ 103.463145, -0.757745 ], [ 103.464854, -0.782973 ], [ 103.441173, -0.812595 ], [ 103.507335, -0.804946 ], [ 103.52711, -0.816013 ], [ 103.564708, -0.874607 ], [ 103.585785, -0.874607 ], [ 103.650401, -0.942966 ], [ 103.688731, -0.949151 ], [ 103.725108, -0.98561 ], [ 103.794119, -1.009454 ], [ 103.828868, -1.073419 ], [ 103.856293, -1.013767 ], [ 103.955821, -0.976983 ], [ 104.040782, -1.021742 ], [ 104.126964, -1.031671 ], [ 104.212413, -1.073337 ], [ 104.319591, -1.033624 ], [ 104.377208, -1.031671 ], [ 104.410492, -1.128351 ], [ 104.401378, -1.23089 ], [ 104.449229, -1.316013 ], [ 104.462738, -1.5735 ], [ 104.537608, -1.760675 ], [ 104.483409, -1.881443 ], [ 104.497081, -1.935968 ], [ 104.537364, -1.854099 ], [ 104.564464, -1.85768 ], [ 104.636974, -1.921563 ], [ 104.588878, -2.019464 ], [ 104.620616, -2.010431 ], [ 104.654552, -1.970147 ], [ 104.663829, -2.031345 ], [ 104.685802, -2.044692 ], [ 104.772634, -1.997735 ], [ 104.814626, -2.008396 ], [ 104.850271, -2.037856 ], [ 104.882823, -2.125665 ], [ 104.859711, -2.199395 ], [ 104.757009, -2.330499 ], [ 104.671397, -2.351251 ], [ 104.606212, -2.402114 ], [ 104.709646, -2.370864 ], [ 104.730154, -2.452732 ], [ 104.713145, -2.557794 ], [ 104.698741, -2.582208 ], [ 104.632823, -2.605157 ], [ 104.569509, -2.656427 ], [ 104.535981, -2.719334 ], [ 104.531098, -2.772638 ], [ 104.599864, -2.663751 ], [ 104.731456, -2.590753 ], [ 104.768565, -2.494724 ], [ 104.771821, -2.414239 ], [ 104.862641, -2.288751 ], [ 104.901052, -2.292901 ], [ 104.911632, -2.360284 ], [ 104.928966, -2.37477 ], [ 104.941417, -2.336196 ], [ 104.980235, -2.32643 ], [ 105.045095, -2.367364 ], [ 105.086681, -2.361261 ], [ 105.11671, -2.380466 ], [ 105.246918, -2.342869 ], [ 105.331065, -2.373142 ], [ 105.535004, -2.394789 ], [ 105.552094, -2.402114 ], [ 105.538422, -2.408949 ], [ 105.549001, -2.421157 ], [ 105.608572, -2.396173 ], [ 105.633311, -2.416192 ], [ 105.607432, -2.528741 ], [ 105.62794, -2.615004 ], [ 105.673106, -2.663018 ], [ 105.778087, -2.690118 ], [ 105.794932, -2.724054 ], [ 105.791759, -2.862074 ], [ 105.84018, -2.930108 ], [ 105.879242, -2.951104 ], [ 105.975108, -2.952813 ], [ 106.028494, -2.982843 ], [ 106.054047, -3.04697 ], [ 106.059337, -3.170017 ], [ 106.079356, -3.223728 ], [ 106.063162, -3.266697 ], [ 105.962738, -3.32879 ], [ 105.900238, -3.407159 ], [ 105.819591, -3.67254 ], [ 105.825694, -3.711521 ], [ 105.851085, -3.743341 ], [ 105.933442, -3.802341 ], [ 105.952485, -3.833754 ], [ 105.935802, -3.909845 ], [ 105.870128, -4.004164 ], [ 105.812755, -4.238702 ], [ 105.853282, -4.403904 ], [ 105.906261, -4.469334 ], [ 105.909434, -4.546645 ], [ 105.88795, -4.601821 ], [ 105.90504, -4.670099 ], [ 105.881847, -4.696222 ], [ 105.867442, -4.82464 ], [ 105.909679, -4.943129 ], [ 105.867442, -5.041274 ], [ 105.864513, -5.255548 ], [ 105.839529, -5.337172 ], [ 105.83961, -5.468927 ], [ 105.824067, -5.53045 ], [ 105.8296, -5.654718 ], [ 105.782563, -5.828546 ], [ 105.729747, -5.896661 ], [ 105.712901, -5.832127 ], [ 105.602061, -5.809828 ], [ 105.586192, -5.790785 ], [ 105.568614, -5.680352 ], [ 105.545258, -5.657647 ], [ 105.525401, -5.678806 ], [ 105.483572, -5.658949 ], [ 105.279633, -5.444268 ], [ 105.250499, -5.45908 ], [ 105.257009, -5.517267 ], [ 105.23878, -5.568943 ], [ 105.180024, -5.580499 ], [ 105.195811, -5.667901 ], [ 105.216319, -5.698012 ], [ 105.154796, -5.726821 ], [ 105.158051, -5.742934 ], [ 105.215343, -5.759047 ], [ 105.163259, -5.786065 ], [ 105.118419, -5.782159 ], [ 105.073009, -5.746352 ], [ 104.790782, -5.60947 ], [ 104.681326, -5.506931 ], [ 104.606212, -5.478936 ], [ 104.613048, -5.499282 ], [ 104.551443, -5.508477 ], [ 104.53419, -5.523858 ], [ 104.533214, -5.559828 ], [ 104.688731, -5.807875 ], [ 104.716075, -5.921075 ], [ 104.56129, -5.928318 ], [ 104.541759, -5.841892 ], [ 104.463145, -5.78281 ], [ 104.384044, -5.692478 ], [ 104.297699, -5.643324 ], [ 104.290782, -5.625421 ], [ 104.314464, -5.605076 ], [ 104.301524, -5.585626 ], [ 104.257986, -5.539809 ], [ 104.126638, -5.461684 ], [ 103.993175, -5.312677 ], [ 104.002452, -5.262872 ], [ 103.991384, -5.246352 ], [ 103.962576, -5.22503 ], [ 103.901378, -5.21852 ], [ 103.913422, -5.139255 ], [ 103.891124, -5.104181 ], [ 103.792166, -5.030938 ], [ 103.726085, -5.016778 ], [ 103.735525, -4.97796 ], [ 103.717459, -4.961847 ], [ 103.681651, -4.954685 ], [ 103.654063, -4.979181 ], [ 103.616954, -4.919854 ], [ 103.547862, -4.901056 ] ] ], [ [ [ 100.493663, -3.160252 ], [ 100.508474, -3.122166 ], [ 100.536388, -3.176853 ], [ 100.506684, -3.178399 ], [ 100.493663, -3.160252 ] ] ], [ [ [ 100.460704, -3.334405 ], [ 100.378673, -3.272393 ], [ 100.376231, -3.241143 ], [ 100.330414, -3.212986 ], [ 100.330333, -3.197361 ], [ 100.360199, -3.207452 ], [ 100.337657, -3.161554 ], [ 100.345225, -3.12656 ], [ 100.292328, -3.077081 ], [ 100.24822, -3.069431 ], [ 100.254649, -3.053318 ], [ 100.189464, -2.966567 ], [ 100.199962, -2.919854 ], [ 100.178966, -2.802911 ], [ 100.227306, -2.772638 ], [ 100.385102, -2.914646 ], [ 100.46754, -3.015313 ], [ 100.464529, -3.132501 ], [ 100.406016, -3.128351 ], [ 100.380707, -3.15252 ], [ 100.40211, -3.158868 ], [ 100.411632, -3.213474 ], [ 100.478282, -3.315199 ], [ 100.460704, -3.334405 ] ] ], [ [ [ 100.172374, -2.765558 ], [ 100.13852, -2.820489 ], [ 100.089854, -2.824395 ], [ 100.049653, -2.806817 ], [ 100.038341, -2.833754 ], [ 100.015636, -2.834161 ], [ 100.001313, -2.765313 ], [ 99.986827, -2.767185 ], [ 100.000499, -2.658868 ], [ 99.967133, -2.615004 ], [ 99.975597, -2.594903 ], [ 99.961436, -2.559015 ], [ 99.984141, -2.484633 ], [ 100.117442, -2.608168 ], [ 100.166677, -2.627862 ], [ 100.201427, -2.678155 ], [ 100.21518, -2.752862 ], [ 100.172374, -2.765558 ] ] ], [ [ [ 99.846202, -2.38006 ], [ 99.833344, -2.352309 ], [ 99.71339, -2.313409 ], [ 99.671723, -2.271254 ], [ 99.603526, -2.265558 ], [ 99.616466, -2.233575 ], [ 99.593923, -2.227797 ], [ 99.589854, -2.211033 ], [ 99.576182, -2.224054 ], [ 99.52768, -2.14544 ], [ 99.564464, -2.131117 ], [ 99.54835, -2.061456 ], [ 99.564952, -2.030857 ], [ 99.594005, -2.014825 ], [ 99.631358, -2.018487 ], [ 99.694347, -2.067804 ], [ 99.707205, -2.127699 ], [ 99.775401, -2.258722 ], [ 99.823253, -2.292901 ], [ 99.84962, -2.333917 ], [ 99.858735, -2.356866 ], [ 99.857921, -2.37477 ], [ 99.846202, -2.38006 ] ] ], [ [ [ 99.254161, -1.654474 ], [ 99.226736, -1.614435 ], [ 99.200043, -1.628106 ], [ 99.245372, -1.715509 ], [ 99.254893, -1.772068 ], [ 99.18214, -1.773696 ], [ 99.1185, -1.802341 ], [ 98.884776, -1.679376 ], [ 98.826427, -1.612481 ], [ 98.830333, -1.570245 ], [ 98.811697, -1.528985 ], [ 98.63087, -1.284845 ], [ 98.593761, -1.198419 ], [ 98.642833, -1.093927 ], [ 98.651622, -0.982029 ], [ 98.668468, -0.95436 ], [ 98.723643, -0.942966 ], [ 98.788585, -0.956638 ], [ 98.827485, -0.927179 ], [ 98.882823, -0.913181 ], [ 98.898204, -0.915704 ], [ 98.891612, -0.935479 ], [ 98.937511, -0.960056 ], [ 98.939301, -1.003676 ], [ 98.905284, -0.990655 ], [ 98.938324, -1.065118 ], [ 98.980317, -1.093683 ], [ 99.067638, -1.241388 ], [ 99.053071, -1.272638 ], [ 99.077647, -1.28338 ], [ 99.11671, -1.366632 ], [ 99.164724, -1.414239 ], [ 99.165294, -1.456231 ], [ 99.124278, -1.428888 ], [ 99.130626, -1.448175 ], [ 99.203624, -1.517267 ], [ 99.209727, -1.572931 ], [ 99.251231, -1.580336 ], [ 99.272472, -1.601821 ], [ 99.294281, -1.686212 ], [ 99.274425, -1.73797 ], [ 99.254161, -1.654474 ] ] ], [ [ [ 98.504405, -0.551202 ], [ 98.493663, -0.565606 ], [ 98.486827, -0.545587 ], [ 98.458995, -0.551853 ], [ 98.462087, -0.529474 ], [ 98.431651, -0.531996 ], [ 98.422048, -0.586602 ], [ 98.275157, -0.52516 ], [ 98.302013, -0.510919 ], [ 98.336111, -0.517755 ], [ 98.364024, -0.44199 ], [ 98.364024, -0.36004 ], [ 98.425466, -0.298598 ], [ 98.42921, -0.243829 ], [ 98.451182, -0.258396 ], [ 98.507335, -0.364923 ], [ 98.51238, -0.422947 ], [ 98.486827, -0.510919 ], [ 98.504405, -0.551202 ] ] ], [ [ [ 98.559825, -0.278253 ], [ 98.541515, -0.381117 ], [ 98.405528, -0.168227 ], [ 98.363292, -0.074395 ], [ 98.295665, -0.007257 ], [ 98.364024, 0.010484 ], [ 98.406098, -0.007379 ], [ 98.44337, -0.052016 ], [ 98.497325, -0.199802 ], [ 98.559825, -0.278253 ] ] ], [ [ [ 98.766855, 0.166261 ], [ 98.835799, 0.141469 ], [ 98.851685, 0.109621 ], [ 98.844589, 0.084859 ], [ 98.689004, 0.070775 ], [ 98.53874, 0.090335 ], [ 98.528133, 0.111576 ], [ 98.524601, 0.145197 ], [ 98.590049, 0.171656 ], [ 98.766855, 0.166261 ] ] ], [ [ [ 97.901378, 0.905951 ], [ 97.882986, 0.642971 ], [ 97.827159, 0.56269 ], [ 97.774262, 0.585191 ], [ 97.764171, 0.567572 ], [ 97.72641, 0.585191 ], [ 97.704112, 0.57274 ], [ 97.678722, 0.598863 ], [ 97.690929, 0.624213 ], [ 97.658214, 0.674628 ], [ 97.65919, 0.715399 ], [ 97.61378, 0.823554 ], [ 97.486339, 0.914211 ], [ 97.47934, 0.943427 ], [ 97.395356, 0.944892 ], [ 97.371593, 1.05976 ], [ 97.247244, 1.267035 ], [ 97.19158, 1.297756 ], [ 97.128429, 1.382636 ], [ 97.082286, 1.40762 ], [ 97.068614, 1.394599 ], [ 97.06365, 1.415229 ], [ 97.106944, 1.436021 ], [ 97.164806, 1.410712 ], [ 97.257823, 1.423651 ], [ 97.33074, 1.486558 ], [ 97.331798, 1.527818 ], [ 97.349783, 1.545396 ], [ 97.391612, 1.508938 ], [ 97.424327, 1.514879 ], [ 97.441661, 1.479682 ], [ 97.486339, 1.476549 ], [ 97.693614, 1.186021 ], [ 97.776541, 1.155097 ], [ 97.836274, 1.069973 ], [ 97.90447, 1.044013 ], [ 97.93922, 0.98607 ], [ 97.901378, 0.905951 ] ] ], [ [ [ 102.468028, 0.972561 ], [ 102.399669, 0.927883 ], [ 102.369314, 0.935207 ], [ 102.239268, 1.082099 ], [ 102.245128, 1.203925 ], [ 102.20102, 1.297756 ], [ 102.217459, 1.409166 ], [ 102.290863, 1.404527 ], [ 102.473399, 1.242011 ], [ 102.476085, 1.194525 ], [ 102.445567, 1.076158 ], [ 102.468028, 0.972561 ] ] ], [ [ [ 102.330251, 1.413275 ], [ 102.095551, 1.475246 ], [ 102.026541, 1.547675 ], [ 102.004405, 1.585679 ], [ 102.007823, 1.615383 ], [ 102.072439, 1.623236 ], [ 102.152354, 1.581122 ], [ 102.338145, 1.558498 ], [ 102.462657, 1.515448 ], [ 102.490489, 1.489691 ], [ 102.509532, 1.277289 ], [ 102.47877, 1.270738 ], [ 102.434744, 1.29914 ], [ 102.330251, 1.413275 ] ] ], [ [ [ 98.528819, 1.623236 ], [ 98.439952, 1.649848 ], [ 98.434825, 1.691962 ], [ 98.477061, 1.703599 ], [ 98.521007, 1.655585 ], [ 98.555186, 1.682034 ], [ 98.599132, 1.631985 ], [ 98.528819, 1.623236 ] ] ], [ [ [ 101.72877, 1.863227 ], [ 101.729177, 1.799058 ], [ 101.649425, 1.722235 ], [ 101.577322, 1.709296 ], [ 101.490733, 1.736762 ], [ 101.460134, 1.76553 ], [ 101.397146, 1.909369 ], [ 101.418142, 2.04442 ], [ 101.478282, 2.072414 ], [ 101.550548, 2.058092 ], [ 101.615082, 2.117092 ], [ 101.649262, 2.128485 ], [ 101.707205, 2.078803 ], [ 101.770274, 1.985053 ], [ 101.775564, 1.947984 ], [ 101.72877, 1.863227 ] ] ], [ [ [ 97.069021, 2.087144 ], [ 97.120128, 2.113349 ], [ 97.151134, 2.058092 ], [ 97.123057, 2.039293 ], [ 97.124278, 2.021674 ], [ 97.102306, 2.016059 ], [ 97.069021, 2.087144 ] ] ], [ [ [ 96.60963, 2.080146 ], [ 96.618337, 2.126858 ], [ 96.668224, 2.11343 ], [ 96.665375, 2.087877 ], [ 96.643565, 2.074449 ], [ 96.60963, 2.080146 ] ] ], [ [ [ 97.335216, 2.042182 ], [ 97.321788, 2.03144 ], [ 97.321788, 2.058092 ], [ 97.306163, 2.057196 ], [ 97.207367, 2.175523 ], [ 97.102794, 2.212714 ], [ 97.171723, 2.2331 ], [ 97.208018, 2.207587 ], [ 97.246755, 2.230658 ], [ 97.281261, 2.229071 ], [ 97.281505, 2.20893 ], [ 97.319835, 2.178656 ], [ 97.336274, 2.126654 ], [ 97.335216, 2.042182 ] ] ], [ [ [ 96.481212, 2.364 ], [ 96.411388, 2.343817 ], [ 96.36964, 2.367255 ], [ 96.351085, 2.355048 ], [ 96.320811, 2.363471 ], [ 96.307628, 2.374091 ], [ 96.328136, 2.394517 ], [ 96.285167, 2.436428 ], [ 96.239919, 2.448676 ], [ 96.042654, 2.592027 ], [ 95.965099, 2.614244 ], [ 95.931407, 2.595608 ], [ 95.883067, 2.620429 ], [ 95.862559, 2.654608 ], [ 95.790538, 2.654608 ], [ 95.794281, 2.696234 ], [ 95.735199, 2.75788 ], [ 95.740082, 2.778062 ], [ 95.698009, 2.778754 ], [ 95.699555, 2.831773 ], [ 95.78004, 2.846381 ], [ 95.766775, 2.878119 ], [ 95.791515, 2.942532 ], [ 95.814138, 2.922105 ], [ 95.911876, 2.906236 ], [ 95.910411, 2.873684 ], [ 95.882986, 2.883938 ], [ 95.883067, 2.846381 ], [ 95.917247, 2.860663 ], [ 96.003266, 2.777004 ], [ 96.090505, 2.757799 ], [ 96.126313, 2.73371 ], [ 96.102794, 2.654608 ], [ 96.129731, 2.664781 ], [ 96.161876, 2.647773 ], [ 96.143728, 2.678778 ], [ 96.15797, 2.680406 ], [ 96.246104, 2.600002 ], [ 96.3213, 2.566148 ], [ 96.359141, 2.52143 ], [ 96.375255, 2.473863 ], [ 96.395274, 2.477362 ], [ 96.396495, 2.524848 ], [ 96.444102, 2.490383 ], [ 96.479503, 2.414984 ], [ 96.481212, 2.364 ] ] ], [ [ [ 95.156261, 5.594794 ], [ 95.109141, 5.622016 ], [ 95.141775, 5.66413 ], [ 95.191091, 5.608466 ], [ 95.156261, 5.594794 ] ] ], [ [ [ 95.06072, 5.656236 ], [ 95.047862, 5.689643 ], [ 95.06072, 5.732001 ], [ 95.012706, 5.735826 ], [ 95.033946, 5.759914 ], [ 95.058279, 5.75731 ], [ 95.133311, 5.691311 ], [ 95.122081, 5.669257 ], [ 95.094737, 5.68358 ], [ 95.06072, 5.656236 ] ] ], [ [ [ 95.382823, 5.807074 ], [ 95.355479, 5.827582 ], [ 95.355317, 5.795152 ], [ 95.33839, 5.779202 ], [ 95.286632, 5.79442 ], [ 95.21461, 5.910102 ], [ 95.247813, 5.905219 ], [ 95.283865, 5.857408 ], [ 95.324962, 5.898017 ], [ 95.341807, 5.89643 ], [ 95.382823, 5.841864 ], [ 95.382823, 5.807074 ] ] ], [ [ [ 104.526622, -0.547621 ], [ 104.511241, -0.613946 ], [ 104.476736, -0.614028 ], [ 104.420421, -0.574965 ], [ 104.383637, -0.653497 ], [ 104.356293, -0.661716 ], [ 104.335785, -0.542657 ], [ 104.253673, -0.460056 ], [ 104.33253, -0.346449 ], [ 104.345551, -0.363702 ], [ 104.334809, -0.40488 ], [ 104.346039, -0.428399 ], [ 104.352875, -0.387384 ], [ 104.38266, -0.401462 ], [ 104.469574, -0.332127 ], [ 104.524913, -0.366876 ], [ 104.599376, -0.4638 ], [ 104.526622, -0.547621 ] ] ], [ [ [ 103.712413, -0.346449 ], [ 103.612559, -0.387384 ], [ 103.580333, -0.372003 ], [ 103.546641, -0.382989 ], [ 103.490001, -0.361586 ], [ 103.461681, -0.366876 ], [ 103.460623, -0.333917 ], [ 103.522146, -0.243829 ], [ 103.557872, -0.223403 ], [ 103.628673, -0.234308 ], [ 103.649587, -0.254815 ], [ 103.73463, -0.281183 ], [ 103.766856, -0.32464 ], [ 103.756521, -0.346449 ], [ 103.712413, -0.346449 ] ] ], [ [ [ 104.486501, -0.310724 ], [ 104.418224, -0.318536 ], [ 104.40089, -0.297296 ], [ 104.404959, -0.28338 ], [ 104.479991, -0.271254 ], [ 104.497081, -0.289972 ], [ 104.486501, -0.310724 ] ] ], [ [ [ 104.476573, 0.023505 ], [ 104.411388, 0.091702 ], [ 104.401378, 0.119086 ], [ 104.428722, 0.106106 ], [ 104.408702, 0.150946 ], [ 104.41391, 0.175849 ], [ 104.497081, 0.071275 ], [ 104.469574, 0.063788 ], [ 104.476573, 0.023505 ] ] ], [ [ [ 102.847016, 0.278062 ], [ 102.839122, 0.290961 ], [ 102.854503, 0.303168 ], [ 102.91391, 0.320258 ], [ 102.927257, 0.310858 ], [ 102.847016, 0.278062 ] ] ], [ [ [ 104.399587, 0.294989 ], [ 104.391856, 0.316596 ], [ 104.339366, 0.365465 ], [ 104.358165, 0.368883 ], [ 104.416189, 0.328803 ], [ 104.420177, 0.306301 ], [ 104.399587, 0.294989 ] ] ], [ [ [ 103.18336, 0.514838 ], [ 103.140473, 0.539374 ], [ 103.136729, 0.573879 ], [ 103.158946, 0.664781 ], [ 103.17921, 0.695502 ], [ 103.211762, 0.708157 ], [ 103.273204, 0.665676 ], [ 103.299978, 0.575426 ], [ 103.280772, 0.538031 ], [ 103.18336, 0.514838 ] ] ], [ [ [ 103.071462, 0.577216 ], [ 103.037283, 0.652655 ], [ 103.043305, 0.660956 ], [ 103.0796, 0.624416 ], [ 103.084972, 0.592027 ], [ 103.071462, 0.577216 ] ] ], [ [ [ 103.489024, 0.61994 ], [ 103.469249, 0.637397 ], [ 103.506358, 0.70189 ], [ 103.521332, 0.678656 ], [ 103.489024, 0.61994 ] ] ], [ [ [ 104.277354, 0.626166 ], [ 104.222016, 0.696031 ], [ 104.215831, 0.708157 ], [ 104.270518, 0.675035 ], [ 104.287608, 0.650784 ], [ 104.277354, 0.626166 ] ] ], [ [ [ 104.205577, 0.72606 ], [ 104.188243, 0.764472 ], [ 104.195811, 0.779975 ], [ 104.27296, 0.796536 ], [ 104.297699, 0.708157 ], [ 104.264822, 0.702216 ], [ 104.205577, 0.72606 ] ] ], [ [ [ 103.092296, 0.722357 ], [ 103.080251, 0.768622 ], [ 103.112804, 0.792955 ], [ 103.104503, 0.735419 ], [ 103.092296, 0.722357 ] ] ], [ [ [ 103.434337, 0.647284 ], [ 103.345551, 0.763373 ], [ 103.341156, 0.817369 ], [ 103.369884, 0.886054 ], [ 103.40089, 0.880072 ], [ 103.427582, 0.83161 ], [ 103.459727, 0.82038 ], [ 103.506847, 0.755439 ], [ 103.480317, 0.685248 ], [ 103.434337, 0.647284 ] ] ], [ [ [ 103.700938, 0.765692 ], [ 103.666515, 0.823635 ], [ 103.667735, 0.839667 ], [ 103.727306, 0.779853 ], [ 103.724864, 0.766506 ], [ 103.700938, 0.765692 ] ] ], [ [ [ 103.440278, 0.844224 ], [ 103.421235, 0.873236 ], [ 103.505544, 0.83397 ], [ 103.523448, 0.777818 ], [ 103.490489, 0.821275 ], [ 103.440278, 0.844224 ] ] ], [ [ [ 103.932872, 0.770331 ], [ 103.851736, 0.835354 ], [ 103.818614, 0.886217 ], [ 103.898204, 0.853339 ], [ 103.942149, 0.791327 ], [ 103.932872, 0.770331 ] ] ], [ [ [ 103.826671, 0.765692 ], [ 103.746349, 0.82274 ], [ 103.726248, 0.873236 ], [ 103.743419, 0.893744 ], [ 103.817068, 0.841702 ], [ 103.839529, 0.788398 ], [ 103.826671, 0.765692 ] ] ], [ [ [ 104.187511, 0.799262 ], [ 104.167491, 0.804918 ], [ 104.147634, 0.858954 ], [ 104.092296, 0.880072 ], [ 104.099132, 0.94892 ], [ 104.127696, 0.942532 ], [ 104.17213, 0.88349 ], [ 104.241466, 0.877021 ], [ 104.266287, 0.855862 ], [ 104.250255, 0.830024 ], [ 104.187511, 0.799262 ] ] ], [ [ [ 103.432953, 0.880683 ], [ 103.407074, 0.911444 ], [ 103.453461, 0.920559 ], [ 103.472667, 0.90884 ], [ 103.469005, 0.869615 ], [ 103.432953, 0.880683 ] ] ], [ [ [ 103.033702, 0.705024 ], [ 103.007335, 0.693834 ], [ 102.894705, 0.789984 ], [ 102.681488, 0.804918 ], [ 102.557872, 0.78026 ], [ 102.458018, 0.832221 ], [ 102.406505, 0.873236 ], [ 102.424571, 0.914496 ], [ 102.500662, 0.953274 ], [ 102.467621, 1.106431 ], [ 102.489024, 1.133287 ], [ 102.527517, 1.139838 ], [ 102.615733, 1.057685 ], [ 102.605479, 1.011176 ], [ 102.621755, 1.001614 ], [ 102.763845, 1.011176 ], [ 102.909028, 0.92772 ], [ 103.040375, 0.821275 ], [ 103.057628, 0.777045 ], [ 103.033702, 0.705024 ] ] ], [ [ [ 103.9463, 0.935614 ], [ 103.856619, 0.968411 ], [ 103.839692, 0.989936 ], [ 103.844737, 1.012681 ], [ 103.87379, 1.003607 ], [ 103.880056, 1.03148 ], [ 103.942149, 0.99608 ], [ 103.967296, 0.96011 ], [ 103.9463, 0.935614 ] ] ], [ [ [ 102.951508, 0.924628 ], [ 102.906749, 0.968817 ], [ 102.824392, 0.995429 ], [ 102.790701, 1.03148 ], [ 102.711925, 1.03148 ], [ 102.647634, 1.006293 ], [ 102.624766, 1.021959 ], [ 102.715587, 1.154446 ], [ 102.801768, 1.163275 ], [ 102.886241, 1.133287 ], [ 103.03712, 1.044582 ], [ 103.174571, 0.882148 ], [ 103.167491, 0.858954 ], [ 103.127126, 0.834418 ], [ 103.086274, 0.84101 ], [ 102.951508, 0.924628 ] ] ], [ [ [ 103.380382, 1.009833 ], [ 103.357677, 1.004462 ], [ 103.314789, 1.061591 ], [ 103.333832, 1.111396 ], [ 103.37672, 1.133287 ], [ 103.389822, 1.130276 ], [ 103.397797, 1.064154 ], [ 103.428396, 1.047187 ], [ 103.444835, 1.000312 ], [ 103.423595, 0.99018 ], [ 103.380382, 1.009833 ] ] ], [ [ [ 104.105968, 1.065009 ], [ 104.112804, 1.037746 ], [ 104.092296, 0.989936 ], [ 104.049164, 0.984198 ], [ 103.996104, 1.009833 ], [ 103.955821, 1.009833 ], [ 103.902599, 1.090522 ], [ 103.914073, 1.099799 ], [ 103.948985, 1.078599 ], [ 103.944509, 1.13524 ], [ 103.996104, 1.133287 ], [ 104.030935, 1.187893 ], [ 104.08546, 1.133287 ], [ 104.078624, 1.181708 ], [ 104.115733, 1.187242 ], [ 104.146332, 1.160468 ], [ 104.151703, 1.119452 ], [ 104.131114, 1.048774 ], [ 104.105968, 1.065009 ] ] ], [ [ [ 104.83839, -5.820408 ], [ 104.771658, -5.761651 ], [ 104.776541, -5.741143 ], [ 104.846365, -5.772556 ], [ 104.846446, -5.811212 ], [ 104.83839, -5.820408 ] ] ], [ [ [ 106.861176, -3.028985 ], [ 106.722667, -2.966078 ], [ 106.749522, -2.92311 ], [ 106.812511, -2.892185 ], [ 106.908946, -2.929783 ], [ 106.895274, -3.018487 ], [ 106.861176, -3.028985 ] ] ], [ [ [ 107.495192, -2.823489 ], [ 107.480968, -2.898696 ], [ 107.410147, -2.947565 ], [ 107.341292, -2.886858 ], [ 107.458181, -2.824477 ], [ 107.495192, -2.823489 ] ] ], [ [ [ 108.204356, -3.005466 ], [ 108.210623, -3.039646 ], [ 108.183849, -3.10475 ], [ 108.210623, -3.135837 ], [ 108.090831, -3.161391 ], [ 108.064138, -3.231052 ], [ 107.980968, -3.239841 ], [ 107.966075, -3.150974 ], [ 107.888438, -3.087498 ], [ 107.870453, -3.05169 ], [ 107.82545, -3.066176 ], [ 107.841807, -3.14544 ], [ 107.815196, -3.16725 ], [ 107.75315, -3.198455 ], [ 107.686271, -3.198207 ], [ 107.658839, -3.232634 ], [ 107.631399, -3.240864 ], [ 107.602794, -3.228858 ], [ 107.605266, -3.176545 ], [ 107.642589, -3.128351 ], [ 107.597911, -3.083917 ], [ 107.581065, -3.010675 ], [ 107.611013, -2.917901 ], [ 107.552989, -2.927992 ], [ 107.54713, -2.916681 ], [ 107.557953, -2.893976 ], [ 107.603363, -2.871026 ], [ 107.594249, -2.78631 ], [ 107.642589, -2.748468 ], [ 107.638682, -2.684991 ], [ 107.670258, -2.561456 ], [ 107.77296, -2.560317 ], [ 107.834321, -2.525079 ], [ 107.848155, -2.5499 ], [ 107.883474, -2.564223 ], [ 108.005138, -2.580255 ], [ 108.0324, -2.642348 ], [ 108.06658, -2.594496 ], [ 108.149587, -2.650323 ], [ 108.162771, -2.683282 ], [ 108.197765, -2.678155 ], [ 108.267263, -2.75742 ], [ 108.293712, -2.848403 ], [ 108.204356, -3.005466 ] ] ], [ [ [ 107.090751, -2.903 ], [ 107.017076, -2.880206 ], [ 107.073497, -2.820489 ], [ 107.099232, -2.859058 ], [ 107.090751, -2.903 ] ] ], [ [ [ 106.826427, -2.586033 ], [ 106.738048, -2.614435 ], [ 106.674815, -2.699802 ], [ 106.60377, -2.910252 ], [ 106.613048, -2.94256 ], [ 106.738455, -3.004571 ], [ 106.751964, -3.073663 ], [ 106.670665, -3.096124 ], [ 106.601248, -3.071059 ], [ 106.573741, -3.076755 ], [ 106.566417, -3.101658 ], [ 106.532237, -3.105645 ], [ 106.499685, -3.038995 ], [ 106.436046, -2.970636 ], [ 106.368663, -2.966974 ], [ 106.302013, -2.913263 ], [ 106.094005, -2.84059 ], [ 105.986501, -2.821222 ], [ 105.907563, -2.674574 ], [ 105.901622, -2.628676 ], [ 105.944347, -2.498793 ], [ 105.928884, -2.45672 ], [ 105.828787, -2.395115 ], [ 105.825938, -2.307224 ], [ 105.780447, -2.150811 ], [ 105.669444, -2.114841 ], [ 105.607432, -2.114841 ], [ 105.565766, -2.06699 ], [ 105.450369, -2.122654 ], [ 105.306407, -2.135024 ], [ 105.267914, -2.087498 ], [ 105.229828, -2.070082 ], [ 105.147472, -2.080011 ], [ 105.12794, -2.04461 ], [ 105.135916, -1.965509 ], [ 105.183604, -1.916925 ], [ 105.29835, -1.873956 ], [ 105.375662, -1.821873 ], [ 105.402354, -1.783298 ], [ 105.394542, -1.73797 ], [ 105.33546, -1.697931 ], [ 105.351085, -1.686782 ], [ 105.349864, -1.648696 ], [ 105.459646, -1.562921 ], [ 105.536794, -1.555271 ], [ 105.565766, -1.531915 ], [ 105.594086, -1.525567 ], [ 105.611013, -1.540216 ], [ 105.628754, -1.614028 ], [ 105.702891, -1.65545 ], [ 105.651703, -1.706964 ], [ 105.663097, -1.739679 ], [ 105.715099, -1.773533 ], [ 105.760997, -1.765313 ], [ 105.778087, -1.792657 ], [ 105.812755, -1.792657 ], [ 105.750987, -1.703058 ], [ 105.757579, -1.645196 ], [ 105.695567, -1.531915 ], [ 105.809093, -1.525649 ], [ 105.875743, -1.48919 ], [ 105.913748, -1.494236 ], [ 105.939464, -1.535333 ], [ 105.980479, -1.538751 ], [ 106.041515, -1.583591 ], [ 106.035492, -1.678318 ], [ 106.091075, -1.745701 ], [ 106.098399, -1.776951 ], [ 106.126964, -1.790134 ], [ 106.121349, -1.819268 ], [ 106.179454, -1.888279 ], [ 106.162608, -2.007013 ], [ 106.200694, -2.178155 ], [ 106.264171, -2.351332 ], [ 106.318858, -2.431329 ], [ 106.396169, -2.48211 ], [ 106.441091, -2.471368 ], [ 106.553396, -2.510431 ], [ 106.833263, -2.566583 ], [ 106.826427, -2.586033 ] ] ], [ [ [ 104.917166, -0.28753 ], [ 104.935232, -0.332127 ], [ 104.851329, -0.301202 ], [ 104.712657, -0.209242 ], [ 104.654959, -0.215916 ], [ 104.606212, -0.244073 ], [ 104.585134, -0.237237 ], [ 104.528656, -0.269952 ], [ 104.497895, -0.228123 ], [ 104.439952, -0.214288 ], [ 104.437266, -0.181085 ], [ 104.510753, -0.113702 ], [ 104.525076, -0.007745 ], [ 104.537364, 0.021308 ], [ 104.55836, 0.003079 ], [ 104.564626, 0.030341 ], [ 104.675548, -0.053806 ], [ 104.681326, -0.06524 ], [ 104.647227, -0.072686 ], [ 104.652517, -0.089532 ], [ 104.705821, -0.096287 ], [ 104.766287, -0.188246 ], [ 104.814138, -0.192804 ], [ 104.825938, -0.147719 ], [ 104.848888, -0.139581 ], [ 104.928966, -0.237237 ], [ 105.011485, -0.281508 ], [ 105.002696, -0.294854 ], [ 104.935232, -0.27809 ], [ 104.917166, -0.28753 ] ] ], [ [ [ 104.633556, 0.078111 ], [ 104.62615, 0.10224 ], [ 104.606212, 0.091783 ], [ 104.561534, 0.161282 ], [ 104.53419, 0.1706 ], [ 104.490245, 0.242621 ], [ 104.531098, 0.215969 ], [ 104.548106, 0.224311 ], [ 104.688731, 0.071275 ], [ 104.702891, 0.032782 ], [ 104.633556, 0.078111 ] ] ], [ [ [ 104.739268, 0.716254 ], [ 104.724864, 0.749661 ], [ 104.754161, 0.73725 ], [ 104.739268, 0.716254 ] ] ], [ [ [ 104.613536, 0.765855 ], [ 104.541026, 0.766588 ], [ 104.511241, 0.750312 ], [ 104.511892, 0.773749 ], [ 104.542328, 0.795885 ], [ 104.621593, 0.787421 ], [ 104.613536, 0.765855 ] ] ], [ [ [ 104.642833, 0.80683 ], [ 104.625499, 0.810696 ], [ 104.648611, 0.857896 ], [ 104.663259, 0.829088 ], [ 104.642833, 0.80683 ] ] ], [ [ [ 104.852306, 0.98371 ], [ 104.832774, 0.955146 ], [ 104.825938, 0.992987 ], [ 104.791189, 1.024075 ], [ 104.843516, 1.018215 ], [ 104.852306, 0.98371 ] ] ], [ [ [ 107.547618, 0.982123 ], [ 107.559418, 1.003607 ], [ 107.535981, 1.00788 ], [ 107.539073, 1.034329 ], [ 107.598888, 1.017157 ], [ 107.57545, 0.98017 ], [ 107.559581, 0.97016 ], [ 107.547618, 0.982123 ] ] ], [ [ [ 104.647146, 0.996894 ], [ 104.658702, 0.927883 ], [ 104.616384, 0.906195 ], [ 104.599864, 0.835028 ], [ 104.567068, 0.829535 ], [ 104.483409, 0.858954 ], [ 104.483735, 0.893297 ], [ 104.449229, 0.921617 ], [ 104.48463, 0.922187 ], [ 104.486583, 0.937079 ], [ 104.421072, 0.95661 ], [ 104.427582, 0.974799 ], [ 104.462738, 0.9831 ], [ 104.462738, 1.017279 ], [ 104.485199, 1.033677 ], [ 104.438731, 1.056871 ], [ 104.327159, 1.006781 ], [ 104.271007, 1.003607 ], [ 104.245616, 1.017279 ], [ 104.231944, 1.093329 ], [ 104.31658, 1.13288 ], [ 104.341319, 1.179592 ], [ 104.389334, 1.178656 ], [ 104.399669, 1.202623 ], [ 104.508149, 1.179511 ], [ 104.572032, 1.209052 ], [ 104.575694, 1.225409 ], [ 104.59254, 1.198798 ], [ 104.588227, 1.144599 ], [ 104.654552, 1.096381 ], [ 104.667491, 1.030585 ], [ 104.647146, 0.996894 ] ] ], [ [ [ 109.026703, 2.485826 ], [ 109.012462, 2.497545 ], [ 109.023285, 2.527818 ], [ 108.979828, 2.52912 ], [ 108.971934, 2.555121 ], [ 109.008311, 2.560126 ], [ 109.113943, 2.523179 ], [ 109.078461, 2.496039 ], [ 109.026703, 2.485826 ] ] ], [ [ [ 106.237804, 2.732856 ], [ 106.198985, 2.809516 ], [ 106.216319, 2.822455 ], [ 106.237804, 2.793769 ], [ 106.237804, 2.732856 ] ] ], [ [ [ 108.889659, 2.888007 ], [ 108.855479, 2.873684 ], [ 108.842459, 2.846381 ], [ 108.77589, 2.888007 ], [ 108.829275, 2.936265 ], [ 108.855724, 3.003363 ], [ 108.881358, 3.002997 ], [ 108.898611, 2.982856 ], [ 108.884125, 2.941636 ], [ 108.889659, 2.888007 ] ] ], [ [ [ 105.833344, 2.977362 ], [ 105.81186, 2.904486 ], [ 105.729747, 2.881171 ], [ 105.764415, 2.849677 ], [ 105.712657, 2.843166 ], [ 105.695567, 2.884589 ], [ 105.723481, 2.977362 ], [ 105.681895, 3.011461 ], [ 105.695567, 3.034166 ], [ 105.688731, 3.059963 ], [ 105.702891, 3.066107 ], [ 105.737071, 3.031968 ], [ 105.738536, 2.988105 ], [ 105.784923, 2.977362 ], [ 105.802013, 2.99726 ], [ 105.853282, 2.983547 ], [ 105.846934, 2.969916 ], [ 105.833344, 2.977362 ] ] ], [ [ [ 107.751231, 3.01203 ], [ 107.796235, 3.025539 ], [ 107.811209, 2.986802 ], [ 107.756114, 2.978461 ], [ 107.745128, 2.983547 ], [ 107.751231, 3.01203 ] ] ], [ [ [ 106.285167, 3.087226 ], [ 106.210704, 3.12816 ], [ 106.207774, 3.225328 ], [ 106.238536, 3.226508 ], [ 106.285167, 3.179104 ], [ 106.285167, 3.087226 ] ] ], [ [ [ 106.285655, 3.263861 ], [ 106.266856, 3.292385 ], [ 106.279063, 3.230618 ], [ 106.230479, 3.257961 ], [ 106.254893, 3.34516 ], [ 106.292003, 3.36815 ], [ 106.285655, 3.263861 ] ] ], [ [ [ 108.406261, 3.874335 ], [ 108.317638, 3.683783 ], [ 108.238536, 3.676256 ], [ 108.183849, 3.648342 ], [ 108.094493, 3.696194 ], [ 108.125011, 3.74787 ], [ 108.164887, 3.75727 ], [ 108.187022, 3.792304 ], [ 108.224376, 3.785346 ], [ 108.28004, 3.731513 ], [ 108.26238, 3.792304 ], [ 108.245372, 3.813463 ], [ 108.180349, 3.81684 ], [ 108.062348, 3.855943 ], [ 107.98463, 4.01203 ], [ 108.022472, 4.063544 ], [ 108.060313, 4.074123 ], [ 108.224864, 4.244818 ], [ 108.250255, 4.211249 ], [ 108.257335, 4.130561 ], [ 108.396169, 3.990912 ], [ 108.403575, 3.936347 ], [ 108.362071, 3.888577 ], [ 108.406261, 3.874335 ] ] ], [ [ [ 107.981212, 4.683661 ], [ 107.935313, 4.698391 ], [ 108.005138, 4.772366 ], [ 108.000499, 4.709133 ], [ 107.981212, 4.683661 ] ] ] ] } }
]
}
